name,description,categories,Website,category,address,email,phone,zipcode,city,country
Auspiteurope,,Beauty en welzijn,http://auspiteurope.com,Beauty en welzijn,address,info@auspiteurope.com,0031 (0)70-2171730,2592 GK  ,Den Haag,Nederland
Boloo,De product research tool voor bol.com,E-commerceplatform,https://boloo.co,Zakelijke diensten,address,info@boloo.co,0850020029,2675 SV,Honselersdijk,Nederland
Flashbay,"<p>Hier bij Flashbay zijn we een van 's werelds toonaangevende leveranciers van USB Flash Drives, Powerbanks, Audio-producten, Gadgets en Tech Gift Sets. We bieden onverslaanbare prijzen in combinatie met snelle en effici√´nte service aan kleine, middelgrote en grote organisaties over de hele wereld.</p>

<p>Wij hebben een breed assortiment aan geheugencapaciteiten en bieden verschillende personaliseringsmogelijkheden aan.</p> 

<p>Tijdens dit proces is er onze oprechte toewijding aan het milieu door het gebruik van gerecyclede materialen. Vol trots kunnen wij mededelen dat wij in 2008 in zowel de fabriek van Flashbay als ons kantoor in het Verenigd Koninkrijk hiermee onze 'carbon neutral' status hebben verdiend.</p>

<div class=""divider""></div>

<h4>Waarom Flashbay?</h4>
<ul class=""bullet-points""><strong>
<li><a href=""http://www.flashbay.nl/waarom_flashbay"">Snelste Levertijd</a><br /></li>
<li><a href=""http://www.flashbay.nl/waarom_flashbay"">Gratis Samples (de volgende dag)</a><br /></li>
<li><a href=""http://www.flashbay.nl/formulier"">Direct Een Offerte (binnen 15 min.)</a><br /></li>
<li><a href=""http://www.flashbay.nl/waarom_flashbay"">Fabrieksprijzen</a><br /></li>
<li><a href=""http://www.flashbay.nl/waarom_flashbay"">10 Stuks Minimale Afname</a><br /></li>
<li><a href=""http://www.flashbay.nl/waarom_flashbay"">Eigen Fabriek</a><br /></li>
<li><a href=""http://www.flashbay.nl/waarom_flashbay"">ISO 9001:2015 Gecertificeerd</a><br /></li>
<li><a href=""http://www.flashbay.nl/waarom_flashbay"">10 Jaar Garantie</a><br /></li>
</strong></ul>
<div class=""divider""></div>
<br />
<a href=""http://www.flashbay.nl"" target=""_blank"" title=""Offerte"" style=""background:#00b67a;color:#FFF;padding:10px 20px;text-decoration:none!important;"">Offerte</a>",Promotieartikelenwinkel,http://www.flashbay.nl,Zakelijke diensten,address,contact@flashbay.com,,,Amsterdam,Nederland
WP Overnight,Quality WordPress & WooCommerce plugins,E-commerceplatform,https://wpovernight.com,Zakelijke diensten,address,support@wpovernight.com,,,Rotterdam,Nederland
Huurverhuislift.nl,"Huurverhuislift.nl het bedrijf dat zich specialiseert met de verhuur van bemande verhuisliften.
Op al onze verhuisliften zit een ervaren en meewerkend verhuizer.
Wij zijn absoluut de nummer 1 met volledige assistentie van de werkzaamheden.

Wij zijn er voor bedrijven en particulieren. ",Rederij,http://www.Huurverhuislift.nl,Zakelijke diensten,address,info@huurverhuislift.nl,088-6185300,1046 AB,Amsterdam,Nederland
Way of Health,"Pick & mix de lekkerste protein bars, protein cookies & more!",Fitness- en voedingsservice,http://wayofhealth.nl,Beauty en welzijn,address,contact@wayofhealth.nl,,,,Nederland
MIISHA Eco Webshop,"Eco webshop met mooie en betaalbare items voor een duurzame leefstijl. Al onze kleding, accessoires, woonaccessoires, keuken benodigdheden en persoonlijke verzorging zijn natuurlijk, herbruikbaar en/of duurzaam.",Gezondheids- en schoonheidsartikelen winkel,http://www.miisha.nl,Beauty en welzijn,address,info@miisha.nl,,1018XE,Amsterdam,Nederland
Exclusively,"Op  Exclusively.nl vindt u een groot aanbod exclusieve verzorgingsproducten. Bekijk de bekende merken als Lady Speed Stick, Secret, St. Ives en Neutrogena.",Beauty en welzijn,https://www.exclusively.nl,Beauty en welzijn,address,contact@exclusively.nl, 024 845 3932,6581 NJ,Malden,Nederland
Haru Haru Beauty (for your daily K-beauty fix),"Get the best Korean skincare and cosmetics directly in the Netherlands, Belgium and Germany. Shop online and offline in Rotterdam and Amsterdam, the Netherlands...",Cosmetica winkel,http://www.haruharubeauty.com,Beauty en welzijn,address,info@haruharubeauty.com,0107370315,3012JB,Rotterdam,Nederland
Maximeslifestyle,"Ons doel is om zoveel mogelijk mensen te helpen door kwalitatieve voedingssupplementen aan te bieden voor een eerlijke prijs. De voedingssupplementen die wij verkopen zijn zo samengesteld dat ze in elke levensstijl passen: geen toevoegde suikers, kleurstoffen of andere vulmiddelen. Oftewel: voedingssupplementen voor iedere levensstijl om maximale resultaten te behalen.",Fitness- en voedingsservice,http://maximeslifestyle.com,Beauty en welzijn,address,info@maximeslifestyle.com,,,,Nederland
Drogisterij Van der Pigge,U zoekt het beste advies op voeding(supplementen) en lifestyle gebied? Dan bent u bij ons aan het juiste adres. Onze specialisten adviseren u graag.,Vitamine- en supplementenwinkel,http://vanderpigge.nl,Beauty en welzijn,address,info@vanderpigge.nl,023-5312454,2011 GA,Haarlem,Nederland
Meesterslijpers,"Ben je op zoek naar een kook- en kadowinkel in Amsterdam en online? Dan ben je bij ons aan het juiste adres en profiteer je altijd van de beste aanbiedingen en leukste producten op kookgebied. Want zoals onze naam vast doet vermoeden, zijn we niet alleen een professionele slijperij, maar ook een uitgebreide kookwinkel. 

Tevens kun je bij ons terecht voor het uniek maken van producten. Zo hebben wen onder andere een lasergraveermachine waarmee we in hout, glas, leer, kunststof en meer kunnen graveren. Dit allemaal klaar terwijl je wacht!",Kookwinkel,https://www.meesterslijpers.nl,Beauty en welzijn,address,info@meesterslijpers.nl,020-6122824,1053ES,Amsterdam,Nederland
Pit&Pit,"Onze droom is dat jij kan genieten van krachtige en smaakvolle voeding.
Gezond genieten is ons motto! Wij willen dat je steeds alle producten vindt die jij nodig hebt. Unieke kruiden, heerlijke smaken, boordevol werkzame stoffen... Voor elk wat wils! Ons doel is dat iedereen kan genieten van het leven, zowel door heerlijk smakende voeding en kruiden als door gezonde producten.",Fitness- en voedingsservice,http://www.pit-pit.com,Beauty en welzijn,address,help@pit-pit.com,,,Hoogstraten,Belgi√´
YaoSkin,"Feel good about yourself and your skin with safe, effective and nutritious skincare. Feel free to ask us for any advice.",Cosmetica winkel,http://yaoskin.com,Beauty en welzijn,address,info@yaoskin.com,,,Rotterdam,Nederland
SeriousWatches,"We love watches! Based in the Netherlands. Serving the world.

Authorised dealer of: BOLDR, Edox, Junghans, Nethuns, NTH, OceanX, Orient, Raymond Weil, Spinnaker, Zelos and more.",Beauty en welzijn,https://www.seriouswatches.com,Beauty en welzijn,address,info@SeriousWatches.eu,+31(0)512-843797,,,Nederland
Boss Energy,"Ben je op zoek naar lekkere en krachtige voedingssupplementen die jou energy geven? Dan zijn de supplementen van Boss Energy iets voor jou. Probeer vandaag nog de kwalitatief hoogwaardige pre-workouts, fatburners, focus energy en vitamines van Boss Energy. Vandaag voor 23:00 uur besteld is morgen in huis. ",Vitamine- en supplementenwinkel,http://www.bossenergy.nl,Winkelen en mode,address,info@bossenergy.nl,,2809RD,Gouda,Nederland
Mokum Prix,"Mokum Prix is the go-to place for exclusive sneakers such as Adidas Yeezy, Nike x Off-White by Virgil Abloh and Air Jordan's. We also will offer streetwear items from brands such as Supreme, Bape, Vlone and more. Looking for items from brands like Chro...",Schoenenwinkel,http://mokumprix.com,Winkelen en mode,address,info@mokumprix.com,,,,Nederland
Duifhuizen tassen & koffers,"Duifhuizen heeft altijd jouw perfecte tas of koffer in huis. In onze winkels √©n in de webshop vind je een uitgebreide, steeds wisselende collectie: van handige trolleys, koffers en zakentassen tot de leukste modeartikelen en tassen. 

Je kunt ervan op aan dat Duifhuizen op de hoogte is van de laatste trends. Een uitgebreide collectie, scherpe aanbiedingen √©n een goede service; dat blijft je bij!",Koffer- en tassenwinkel,http://www.duifhuizen.nl,Winkelen en mode,address,klantenservice@duifhuizen.nl,0186 - 643 656,3261 LV,Oud-Beijerland,Nederland
wissel.nl,"In- en verkoop van 2e hands cadeaubonnen, tegoedbonnen, cadeaukaarten, reischeques en vliegvouchers. Wissel.nl betaalt de beste prijs voor jouw ongewenste cadeaubonnen. Uitbetaling altijd op dezelfde dag. Ben jij op zoek naar korting? Bij wissel.nl vind je altijd honderden verschillende cadeaubonnen met aantrekkelijke korting. Codes worden direct per email geleverd, natuurlijk m√©t kopersgarantie.",Cadeauwinkel,http://www.wissel.nl,Winkelen en mode,address,feedback@wissel.nl,030 2270662,3994 DG,Houten,Nederland
Snag,,Ondergoedwinkel,http://snagtights.eu,Winkelen en mode,address,hello@snagtights.com,,,,Verenigd Koninkrijk
Pedaleur Bikes,"Maak kennis met Pedaleur Bikes: Pedaleur Bikes is opgericht in 1989 en d√© specialist op het gebied van sportieve fietsen. Met ruim 200 hoogwaardige mountainbikes, racefietsen, sportieve fietsen, e-bikes, speed-pedelecs, gecombineerd met premium fietskleding en -accessoires, kun je wel spreken van een ruim aanbod. Vol enthousiasme en passie werken onze collega‚Äôs dagelijks aan het cre√´ren van fietsgeluk. Zodat onze klanten ‚Äì en fietsen ‚Äì de aandacht krijgen die zij verdienen.

Begin 2020 heeft Harrie Arendsen het Wielerhuis de Pedaleur in Doetinchem overgenomen en veranderde de naam in Pedaleur Bikes. Sinds februari 2021 is ook de tweede vestiging van Pedaleur Bikes een feit: voormalig Goossens Tweewielers Velp.

De overnames doen echter niets af aan de welbekende service en hoogwaardige kwaliteit van Pedaleur Bikes. Integendeel. We onderscheiden ons ook nu met twee hoogwaardige showrooms, onze passie voor het fietsen, professionele werkplaatsen en de zeer persoonlijke aanpak.

Voor het geven van advies en het beantwoorden van vragen, nemen wij dan ook uitgebreid de tijd voor onze klanten. Of dat nu online of offline is: jij ontvangt de beste service. Onze 21 bike-specialisten helpen jou graag op weg!",Fietsenwinkel,https://www.pedaleur.nl,Winkelen en mode,address,vragen@pedaleur.nl,+31 314 330 921,7007 CB,Doetinchem,Nederland
Amsterdenim,"The Amsterdam Jeans Brand - We love denim and are hopelessly in love with our hometown of Amsterdam. We are proud of what Amsterdam stands for; freedom, creativity, diversity, trade, architecture, art, fashion, denim. We firmly believe in freedom and sustainable fashion. ‚Äúbuy less buy better‚Äù as all good things in life only get better with age ‚Äì just like premium denim.",Jeanswinkel,http://www.amsterdenim.com,Winkelen en mode,address,info@amsterdenim.com,+31 (0)20 - 334 6678,1021 js,Amsterdam,Nederland
Drippy,"International brand DRIPPY is created in Amsterdam, but inspired by multiple cultures.
With our motto, Dare to Drip , we aspire you to show the world your inner shine. 
We exist to express that inner shine through high quality handcrafted jewelry.

DRIPPY. ‚Äì Dare to Drip.",Sieradenwinkel,http://drippy.amsterdam,Winkelen en mode,address,info@drippy.amsterdam,,1016EZ,Amsterdam,Nederland
thegreenlabels,Discover and shop online green labels that do not compromise style over ethics. We ship worldwide!,Damesmodewinkel,http://thegreenlabels.com,Winkelen en mode,address,welcome@thegreenlabels.com,,1017VB,Amsterdam,Nederland
Stuktvshop,,Kledingwinkel,http://stuktvshop.nl,Winkelen en mode,address,hallo@stuktvshop.nl,,5674VN,Nuenen,Nederland
The Wildflower Club,The Wildflower Club verkoopt de meest on-trend sieraden en accessoires. ,Sieradenwinkel,http://thewildflowerclub.nl,Winkelen en mode,address,info@thewildflowerclub.nl,0645165315,1736KH,Zijdewind,Nederland
Aglet,"We are a Dutch based company specialized in buying and selling exclusive sneakers, clothing and accessories. We provide a platform where you are guaranteed 100% authentic products with fair prices. We know how hard it is to find your favorite exclusive item. With Aglet you will never have to worry about hours of searching or legit sellers, since we are in the middle to find and thoroughly authenticate all items by hand. We know that our customers are busy living. They are going to work, raising kids, hitting the gym, going to school, partying on weekends or just chilling on Sundays. We‚Äôve got or will find the items you want, from the brand you love, in the size you need!",Schoenenwinkel,http://agletstore.com,Winkelen en mode,address,info@agletstore.com,,,,Nederland
Henxs,"Henxs. De nummer √©√©n plek voor Graffiti, ( Street) -Art Materialen. Spuitbussen van het beste merk, veel verschillende markers ",Kunstenaarsmaterialen winkel,https://henxs.com,Winkelen en mode,address,info@henxs.com,+31 6 11 17 4343,1011 HB,Amsterdam,Nederland
Label Kiki,"Geloof je ook dat je niet genoeg sieraden kunt hebben?

We zijn hier om je sieradenverslaving te vervullen, omdat we de liefde begrijpen die vrouwen hebben voor sieraden en de wens om er elke dag mooi uit te zien.

Label Kiki is een jong en dynamisch merk dat sieraden maakt die voldoen aan je fashion needs.

Voor jou zijn we altijd op zoek naar de musthaves van het moment en proberen we ieder seizoen weer de trends voor te blijven.

Hoe groot je sieradenverslaving ook is, je bent niet alleen.

Join our club, we‚Äôve got you covered!

Liefs,
Kiki",Sieradenontwerper,http://labelkiki.com,Winkelen en mode,address,info@labelkiki.com,0610117154‚Ä¨,5801 BD,Venray,Nederland
HypedproductsNL,"HypedProductsNL is a Rotterdam based company buying and selling exclusive products . We provide a platform where you can get the latest exclusive sneaker releases, quick and easy. All sneakers are authenticated by hand to make sure they are 100% authentic. We provide worldwide shipping straight to your door. All you have to do is pick out which sneakers you like best, blink your eyes, and wait for the postman to ring your doorbell.",Schoenenwinkel,http://hypedproducts.nl,Winkelen en mode,address,info@hypedproducts.nl,0622090695,3059VL,Rptterdam,Nederland
The Little Green Bag,"<a href=""https://www.thelittlegreenbag.nl/"">The Little Green Bag</a> is het shop adres voor al je trendy tassen, sieraden en accessoires van topmerken. Hier vind je de volledige collectie tassen van <a href=""http://www.thelittlegreenbag.nl/cowboysbag/"">Cowboysbag</a> en de stijlvolle <a href=""http://www.thelittlegreenbag.nl/dames/tassen/"">tassen</a> van <a href=""https://www.thelittlegreenbag.nl/dames/tassen/furla/"">Furla</a>. Maar ook de tijdloze kwaliteitstassen van <a href=""https://www.thelittlegreenbag.nl/dames/tassen/fred-de-la-bretoniere/"">Fred de la Bretoni√®re</a> de trendy modetassen van <a href=""https://www.thelittlegreenbag.nl/dames/tassen/myomy/"">MYOMY</a>. Bij The Little Green Bag vind je altijd een tas om verliefd op te worden. Alle tassen en accessoires worden liefdevol verpakt en snel bij je bezorgd.


<a href=""https://www.thelittlegreenbag.com/"">The Little Green Bag</a> is your online shopping place when you're looking for trendy bags, jewellery and accessories created by the best brands. We present you the complete <a href=""http://www.thelittlegreenbag.com/cowboysbag/"">Cowboysbag collection</a> and the stylish<a href=""http://www.thelittlegreenbag.com/women/bags/"">bags</a> by<a href=""http://www.thelittlegreenbag.com/women/bags/furla/"">Furla</a>. We also offer the timeles quality bags by <a href=""http://www.thelittlegreenbag.com/women/bags/fred-de-la-bretoniere/"">Fred de la Bretoni√®re</a> and the stylish and fashionable bags by <a href=""http://www.thelittlegreenbag.com/women/bags/michael-kors/"">Michael Kors</a>. At The Little Green Bag you always find your new best bag. Every bag and all accessories are signed, sealed and delivered with love and we will send it to you the same day",Koffer- en tassenwinkel,https://www.thelittlegreenbag.nl,Winkelen en mode,address,service@thelittlegreenbag.nl,0104354103,3115 JD,Schiedam,Nederland
Oqium,"Founded by sneaker collectors, Oqium wanted to give the community something different that would give them a new vision by infusing the world of basketball into the sneakergame.",Streetwearwinkel,https://oqium.com,Winkelen en mode,address,customerservice@oqium.com,020 722 07 01,1507CB,Zaandam,Nederland
T-shirts.nl,"Wij leveren snel kleding voor promotie, sport, bedrijf en werk.",Textieldrukwinkel,http://www.t-shirts.nl,Winkelen en mode,address,noreply.invitations@trustpilot.com,023 561 75 95,2132 CA,Hoofddorp,
Fraenck,"Elegante tassen, pakkend verhaal.

Lichtgewicht, maar oersterk. Waterafstotend en makkelijk schoon te houden. In allerlei formaten en vormen ‚Äì er zit iets tussen voor iedereen en elke gelegenheid.

Wij werken met upcycled materiaal. En daar zijn we best trots op. Wij geloven namelijk in de grenzeloze mogelijkheden van bedrijfsrestanten en maken er een stoere tassencollectie van.

Bij Fraenck zien we werken met restanten niet als een verspilling van tijd, maar als een verantwoordelijkheid. Het prikkelt onze creativiteit en daagt ons elke dag opnieuw uit.",Tassenwinkel,http://fraenck.com,Winkelen en mode,address,contact@fraenck.com,0268440451,6811 DW,Arnhem,Nederland
Getkicks - Online Sneaker Outlet,"Scoor de pareltjes uit voorgaande collecties üöÄ
Geef oude voorraad een tweede kans en scoor jou items tegen hoge kortingen tot wel 75%",Schoenenwinkel,http://Getkicks.nl,Winkelen en mode,address,info@getkicks.nl,+31653608714,5652CM,Eindhoven,Nederland
Moederenik,"Bij Moederenik.nl kun je terecht voor de leukste moeder en dochter setjes, handgemaakte accessoires, (kraam)cadeaus en meer. ",Kinderkleding,http://moederenik.nl,Winkelen en mode,address,info@moederenik.nl,,,,Nederland
Van der Kam Mode,"Van der Kam mode Heerenveen & Leeuwarden. Ons assortiment bestaat uit de betere merken in het midden en hogere segment. Neem een kijkje achter de schermen van ons mooie kleermakersvak. Collecties, adviezen, belevenissen waarin goede smaak en stijl centraal staan. ",Herenmode,http://vanderkam.nl,Winkelen en mode,address,shop@vanderkam.nl,0513623242,8441 GJ,Heerenveen,Nederland
amsterdam vintage jewels,"Wij van amsterdam vintage jewels verzamelen de mooiste vintage sieraden voor jou! Al onze juwelen zijn authenthiek, stijlvol en zorgvuldig geselecteerd.",Juwelier,http://amsterdamvintagejewels.com,Winkelen en mode,address,info@amsterdamvintagejewels.com,,1013HE,Amsterdam,Nederland
Once We Were Warriors,Official account of ONCE WE WERE WARRIORS. Based in Amsterdam. Our collections have been created for modern warriors around the world who share the Samurai‚Äôs ideals.,Streetwearwinkel,http://oncewewerewarriors.com,Winkelen en mode,address,info@o3w.amsterdam,+31 (0) 20 218 41 19,1031 HL,Amsterdam,Nederland
Sock My Feet ¬Æ,"Bij Sock My Feet vind je een verscheidenheid aan sokken voor mannen en vrouwen met hoogwaardige geprinte designs. Gemaakt van superzacht katoen. Er is een paar perfect bedrukte sokken voor elke gelegenheid en levensstijl. Maar je moet wel durven, want deze sokken zijn allesbehalve saai! Shop Nu!",Winkel in modeaccessoires,http://sockmyfeet.com,Winkelen en mode,address,info@sockmyfeet.com,,,,Nederland
Beachim,"Online Luxury Fashion webshop For Men, Women and Kids from all main international fashion designers, such as: Dsquared2, Philipp Plein, Neil Barrett, Balmain, Lanvin Paris and many more.",Winkelen en mode,http://beachim.nl,Winkelen en mode,address,info@beachim.nl,+31235739489,2042 JD,Zandvoort,Nederland
Lentiamo,"Lentiamo is d√© online opticien als het gaat om hoge kwaliteit eyewear en eerlijke prijzen. Op Lentiamo vind je prachtige monturen met high-tech glazen, designer zonnebrillen en contactlenzen.",Contactlenzen leverancier,https://www.lentiamo.nl/,Winkelen en mode,address,info@lentiamo.nl,097-010280949,,,Nederland
Kunstsokken,,Winkel in modeaccessoires,http://kunstsokken.nl,Winkelen en mode,address,contact@kunstsokken.nl,,2625RC,Delft,Nederland
Loopbaannederland.nl ,"Loopbaannederland.nl, opgericht in 2009 door Eric van Schaik, is gespecialiseerd in het matchen van vraag en aanbod voor mensgerichte diensten.
Door ons slimme matchingsysteem maken wij voor u de beste match.",Business to Business-service,http://loopbaannederland.nl,Winkelen en mode,address,info@loopbaannederland.nl,085-3034270,1015AP,Amsterdam,Nederland
FITT Wear,"De juiste sportkleding met een goede pasvorm en die goed blijft zitten en niet doorschijnt heeft een positief effect op jouw zelfvertrouwen, uitstraling en prestaties. Onze ruime ervaring in de kleding en kennis van stoffen en producties, zorgen er voor dat wij vrouwen ons WEL goed, comfortabel en ondersteund voelen tijdens iedere training.",Sportkledingfabrikant,https://fittwear.nl,Winkelen en mode,address,info@fittwear.nl,0765269580,4823AA,Breda,Nederland
Teym,"Teym is on a mission to build the impeccable wardrobe. One item at a time, we‚Äôre creating the pieces we‚Äôve spent years searching for. Developed in our Amsterdam atelier and made in Europe, Teym‚Äôs products guarantee outstanding design, expert quality and honest production. On top of that; our efficient way of working reduces the conventional retail price by half without any compromise.

Teym‚Äôs design studio and showroom are situated in the east of Amsterdam at Iepenplein 17-SOUS.",Damesmodewinkel,http://www.teym.eu,Winkelen en mode,address,customercare@teym.eu,,1091JN,Amsterdam,Nederland
Hip-Stoer-Lief,"De leukste (online)  winkel in Kerkdriel speciaal gericht op verzorging en lifestyle-artikelen, baby en kinderkleding van 44 t/m maat 152.",Kledingwinkel,https://Hip-Stoer-Lief.nl,Winkelen en mode,address,klantenservice@hip-stoer-lief.nl,0418-519535,5331AK,Kerkdriel,Nederland
Josephine & Co,The Dutch fashion brand Josephine & Co is established in 1994. The feminine flair that is appending in every collection of Josephine & Co is clearly noticeable by the use of pastel-coloured fabrics with decent details during summer and knitted garments with dark shades in fine quality during winter collections.,Damesmodewinkel,http://josephineco.nl,Winkelen en mode,address,Info@josephineco.nl,020 705 5190,1013AP,Amsterdam,Nederland
Shop4SieradenDoos,Shop4SieradenDoos heeft de grootste online sieradendozen collectie van de BeNeLux. Je dierbare sieraden en accessoires verdienen een mooi plekje!,Sieradenwinkel,http://www.shop4sieradendoos.nl,Winkelen en mode,address,info@shop4sieradendoos.nl,0612448555,5694 NG,Son en Breugel,Nederland
Duca del Cosma,"Enjoy the difference of an Italian designed golf shoe built by skilled European artisans. Maximum panache and technology designed for people passionate about life, on and off the course.",Schoenenwinkel,https://ducadelcosma.com,Winkelen en mode,address,info@ducadelcosma.com, 0031852500010,3621ZA,Breukelen,Nederland
TC WOW,"Een fashionable swimwear merk waarbij alle kenmerken van een vrouw zoals zelfvertrouwen, gevoel voor stijl en vrouwelijkheid naar voren komen. Wij willen een connectie met je maken, je inspireren of je laten wegdromen.

Onze nieuwe collectie is nu verkrijgbaar in de winkel en online. Shop nu!",Badmodewinkel,https://tcwow.com/nl-nl/,Winkelen en mode,address,info@tcwow.nl,0800 8362283,7678VH,Geesteren,Nederland
Sneakin,"We offer the most exclusive products at the best possible price to a loyal community. From Amsterdam, available for the whole world.",Schoenenwinkel,http://www.sneakin.com,Winkelen en mode,address,customerservice@sneakin.com,,,,Nederland
Tweka,"Form, function, fashion & forwardness. Klassieke Tweka styles, uitgesproken grafische motieven en primaire kleuren in combinatie met burgundy en emerald. De Spring/Summer 2018 collectie combineert sportiviteit met old world class.",Badmodewinkel,https://tweka.com/nl-nl/,Winkelen en mode,address,info@tweka.nl,0800 8362283,7678VH,Geesteren,Nederland
Circle of Trust,"Circle of Trust was founded in 2005 with one main focus: creating unique denim for male, female and kids wearable for everyone. Our mission is to let you fall in love with our clothing and make you feel good while wearing it. Circle of Trust‚Äôs apparel is best described as sexy, tough and fashionable. 
Circle of Trust‚Äôs fashion items are known for their style, perfect fit and great details for an affordable price. When we‚Äôre creating a new product, we start with a classic denim in mind and apply the most inspiring ideas from all over the world. Our designers get inspired by many different influences.
They go above and beyond to create the best and most unique apparel for men, women and children.
Whether it's a pair of jeans, a t-shirt, sweater or jacket. Circle of Trust aims to create great items for each and every one of you.",Damesmodewinkel,https://www.circleoftrust.nl,Winkelen en mode,address,info@circleoftrust.nl,,1187D,Amstelveen,Nederland
shirts.nl,"Shirts.nl is d√© webshop voor shirts. Service, kwaliteit en plezier zijn voor ons het allerbelangrijkst en wij werken dan ook hard om te zorgen dat onze klanten dat ook als dusdanig ervaren. Jullie feedback wordt daarom ook enorm gewaardeerd. Houd ons scherp! 

Heb je vragen of opmerkingen? Neem contact met ons op, we helpen je graag.",Herenmode,http://shirts.nl,Winkelen en mode,address,contact@shirts.nl,0548 612 357,7442 DG,Nijverdal,Nederland
Tip de Bruin,"Natuurlijk kent u ons al meer dan 60 jaar van onze uitgebreide collectie smokings, avondkleding en trouwpakken. Maar wist u ook dat wij al jaren de trendsetter zijn in de meest modieuze jassen, sneakers & jeans en meer van alleen de allerbeste labels? ...",Herenmode,http://www.tipdebruin.nl,Winkelen en mode,address,info@tipdebruin.nl,0206249402,1012 MR,Amsterdam,Nederland
MAMALOVES,"MAMALOVES creates personalized jewellery with a unique handwritten engraving. Personal bracelets, necklaces and charms which all tell their own story. A sweet gift for someone else or for yourself, and a beautiful way to carry your loved ones close to you and cherish special moments. The names of your children, your wedding date, a special quote or the initials of your loved one; captured in a meaningful piece of jewellery.",Sieradenwinkel,http://mamaloves.com,Winkelen en mode,address,customerservice@mamaloves.com,+316 20202825,2011 NB,Haarlem,Nederland
Amsterdam Selection,"Amsterdam Selection staat voor uitgesproken, kleurrijke en originele mode voor de eigenzinnige vrouw. Wij selecteren onze producten voor vrouwen die durven te kiezen voor kleur en opvallend design.

Amsterdam Selection voert de volgende merken:
- 4Funky Flavours
- La Pintura
- LaLamour
- Lien & Giel
- Tranquillo
- Urban Hippies
- ZAND Amsterdam",Damesmodewinkel,https://www.amsterdamselection.com,Winkelen en mode,address,hello@amsterdamselection.com,+31639683668,1511HV,Oostzaan,Nederland
Touzani,Hard Grounds,Activewear winkel,https://www.touzani.shop,Winkelen en mode,address,service@touzani.shop,+31(88) 773 64 05,3071 EL,Rotterdam,Nederland
LABFRESH,0% stains. 0% odour. 100% cotton. Designed and made in Europe by Dutch and Danish innovators who aim to change the way men consume fashion. ,Herenmode,http://labfresh.eu,Winkelen en mode,address,hello@labfresh.eu,+31624484688,1013GW,Amsterdam,Nederland
Waardijk Schoenen,"Bekijk het grote assortiment kwaliteitsschoenen bij Waardijk Schoenen online of in onze winkels in Alkmaar en Bloemendaal. De mooiste damesschoenen, herenschoenen en kinderschoenen van de beste merken; o.a. Floris van Bommel, UGG Australia, Mephisto, Timberland, Paul Green, van Lier, Giga, Clic en Red-Rag en pantoffels van Giesswein, Rohde en Romika, Shepherd en UGG ",Schoenenwinkel,https://waardijk.nl,Winkelen en mode,address,administratie@waardijk.nl,072-5114638,1811 JK,Alkmaar,Nederland
Henk ter Horst fashion group,,Kostuumwinkel,https://www.henkterhorst.nl,Winkelen en mode,address,info@henkterhorst.nl,0546-452376,7607CX,Almelo,Nederland
Eline Rosina Jewelry,"Eline Rosina is a Dutch jewelry brand that is all about that luxury feel. We offer a large collection of high quality solid gold and (gold plated) sterling silver jewerly. Founded by and for women, our collection is the perfect balance between on trend styles and timeless staple pieces.",Sieradenwinkel,https://elinerosina.com,Winkelen en mode,address,customerservice@elinerosina.com,,6511 XB,Nijmegen,Nederland
AB Lifestyle,‚ìá #ablifestyle ‚ñ™Ô∏è–Ωq and concep—Ç—ï—Çore loca—Çed Œπn Doe—ÇŒπnc–Ωe–º [wa—Çer—ï—Çraa—Ç 7] NL,Streetwearwinkel,http://www.ablifestyle.com,Winkelen en mode,address,,,,,Nederland
DiamondsByMe,DiamondsbyMe is de eerste Nederlandse website waar uzelf uw perfecte sieraad kunt samenstellen. DiamondsbyMe maakt enkel gebruik van de nieuwste technieken in het goudsmidsvak. Hierdoor is het voor u als klant mogelijk om zelf een keuze te maken uit verschillende edelmetalen en edelstenen bij het online samenstellen van een sieraad.,Sieradenwinkel,https://www.diamondsbyme.nl/,Winkelen en mode,address,info@diamondsbyme.nl,010-7470000,3161 EW,Rhoon,Nederland
Otrium,Hundreds of Designer Outlet Stores in one spot.,Modehuis,http://otrium.com,Winkelen en mode,address,,,,Amsterdam,Nederland
zwembroeken.nl,"Op zwembroeken.nl vind je mooie heren zwembroeken van topmerken als O'Neill, Diesel, Speedo, Bjorn Borg, Hugo Boss en Calvin Klein. Gratis verzending op bestellingen van meer dan 35 euro EN voor 22.00 uur besteld, morgen in huis!",Activewear winkel,http://www.zwembroeken.nl,Winkelen en mode,address,contact@zwembroeken.nl,0548612357,7442 DG,Nijverdal,Verenigde Staten
tenCate1952,"Ten Cate is in 1952 opgericht door Loets ten Cate en nog altijd gevestigd in het traditionele hart van de Nederlandse textielindustrie, het Twentse Geesteren.

Naast een vaste Basic collectie presenteert het merk elk jaar twee nieuwe Flash collecties, met de nieuwste kleuren en prints. Ook op het vlak van innovatie blijft ten Cate in beweging. Als pionier van naadloos ondergoed in de jaren ‚Äô60 en de ontwikkeling van Certiform in de jaren ‚Äô80 heeft ten Cate een naam hoog te houden. Het omarmen van technologie die de draagbaarheid van ons ondergoed verbetert, is ook vandaag de dag een belangrijke pijler van ons succes.",Ondergoedwinkel,https://tencate1952.com/nl-nl/,Winkelen en mode,address,info@tencate1952.com,0800 8362283,7678VH,Geesteren,Nederland
Trendhim,De grootste winkel van Nederland in accessoires en sieraden voor mannen. ,Koffer- en tassenwinkel,https://www.trendhim.nl,Winkelen en mode,address,,085 301 3271,,,Denemarken
XD Design,The Perfect Gift for any Occasion,Koffer- en tassenwinkel,http://xd-design.com,Winkelen en mode,address,contact@xd-design.com,,2288 EK,Rijswijk,Nederland
Fight.shop,"Fight.Shop is een online bedrijf dat zich bezig houdt met de online verkoop van sportartikelen in Europa. De missie van Fight.Shop is het aanbieden van sportartikelen via onze webshop met daarbij een uitstekende no-nonsense klantenservice, altijd de beste prijzen, veel productinformatie en de snelst mogelijke leveringen. Fight.Shop heeft meer dan 250.000 klanten.",Sportkledingwinkel,http://www.fight.shop,Winkelen en mode,address,info@shop4u.com,046 400 0107,6135 KV,Sittard,Nederland
Easyswitch.nl,"<a href=""http://www.easyswitch.nl/energie/vergelijk-energie?ref=trustpilot""><img src=""https://www.easyswitch.nl/assets/Vergelijk-nu.png""></a>


<p><a href=""http://www.easyswitch.nl?ref=trustpilot"">Easyswitch.nl</a> is verkozen tot beste website van het jaar & beste <a href="" http://www.easyswitch.nl/energie/vergelijk-energie?ref=trustpilot"">energievergelijker</a> . Daarnaast beschikt Easyswitch over de nodige keurmerken.</p>

<div class=""divider""></div>

<p> Easyswitch is onafhankelijk waardoor u altijd een eerlijk overzicht krijgt van de beste energiedeals. Easyswitch vergelijkt alle energieleveranciers en alle deals. U vergelijkt o.a.:</p>

<ul>

<li>Nuon</li>
<li>E.on</li>
<li>Essent</li>
<li>Eneco</li>
<li>BudgetEnergie</li>
<li>Greenchoice</li>
<li>NEM</li>
<li>OXXIO</li>
<li>Delta</li>
<li>Anode</li>
<li>BAS</li>
<li>Robin</li>
<li>En veel meer</li>


</ul>",Prijsvergelijkingswebsite,http://www.easyswitch.nl,Winkelen en mode,address,klantenservice@easyswitch.nl,020-5317670,1054 HL,Amsterdam,Nederland
boxers.nl,"Boxers.nl is de webshop voor boxershorts, waarbij <B>service</B>, <B>kwaliteit</B> en <B>plezier</B> voorop staan. We verkopen ondergoed voor zowel heren, dames als kinderen van merken als Bjorn Borg, Calvin Klein, Tommy Hilfiger, Puma en Muchachomalo.<BR><BR>Heb je vragen of opmerkingen? Neem contact met ons op, we helpen je graag!",Ondergoedwinkel,http://www.boxers.nl,Winkelen en mode,address,contact@boxers.nl,0548612357,7442 DG,Nijverdal,Nederland
Sneakerbaas,Sneakerbaas is sinds 2007 de webstore voor exclusieve sneakers. Sneakerbaas biedt haar klanten niet alleen sneakers maar ook een unieke online winkel ervaring. Ons doel is om Sneakerbaas klanten de nieuwste en vetste sneakers aan te bieden en dit te ondersteunen met een betrouwbare klantenservice en de voordelen van veilig online winkelen.,Schoenenwinkel,http://www.sneakerbaas.com,Winkelen en mode,address,webshop@sneakerbaas.com,030-2682846,3512 GX,UTRECHT,Nederland
Goedgemerkt,"Alle baby- en kinderspullen, kleding en knuffels goedgemerkt met onze naamlabels. De labels zijn (af)wasmachine-, magnetron & drogerveilig. Zo komen alle spullen weer netjes thuis! 

Goedgemerkt heeft een uitgebreid assortiment aan kleurrijke naamstickers. De Instrijklabels zijn van een unieke kwaliteit en ideaal voor het merken van kleding. Onze plakgemak kledingstickers kunnen eenvoudig in het label van een kledingstuk bevestigd worden. Daarnaast biedt Goedgemerkt allerlei producten om kinderen de contactgegevens van hun ouders bij zich te dragen. Kortom, niemand hoeft zijn spullen meer kwijt te raken!",Winkelen en mode,http://www.goedgemerkt.nl,Winkelen en mode,address,info@goedgemerkt.nl,033-4615834,3812 PN,Amersfoort,Nederland
Plein.nl,"Op Plein.nl vind je alles op het gebied van dagelijkse verzorging van jezelf, je gezin, huisdier of het huishouden. Onze verschillende shops hebben een groot en uitgebreid aanbod met regelmatig scherpe aanbiedingen. Waarom zou je nog naar de winkel als je het de volgende dag krijgt thuisbezorgd?

- Gratis verzending vanaf 35,-
- Vandaag voor 22.00 besteld, morgen in huis",Warenhuis,http://www.plein.nl,Winkelen en mode,address,klantenservice@plein.nl,0888000200,3605 LW,Maarssen,Nederland
Schuurman Schoenen,"Schuurman Schoenen heeft de grootste collectie <a title=""damesschoenen"" href=""https://www.schuurman-schoenen.nl/dames/"" target=""_blank"">damesschoenen</a>, <a title=""herenschoenen"" href=""https://www.schuurman-schoenen.nl/heren/"" target=""_blank"">herenschoenen</a> en <a title=""kinderschoenen"" href=""https://www.schuurman-schoenen.nl/kinderschoenen/"" target=""_blank"">kinderschoenen</a>. Naast onze winkels in het oosten en noorden van Nederland zijn we ook online te vinden op: <a title=""Schuurman Schoenen"" href=""https://www.schuurman-schoenen.nl"" target=""_blank"">www.schuurman-schoenen.nl</a>.

Bij Schuurman Schoenen zijn de bekendste merken te vinden, zoals <a title=""Converse"" href=""https://www.schuurman-schoenen.nl/converse"" target=""_blank"">Converse</a>, <a title=""Ecco"" href=""https://www.schuurman-schoenen.nl/ecco"" target=""_blank"">Ecco</a>, <a title=""Tamaris"" href=""https://www.schuurman-schoenen.nl/tamaris"" target=""_blank"">Tamaris</a>, <a title=""Nike"" href=""https://www.schuurman-schoenen.nl/nike"" target=""_blank"">Nike</a>, <a title=""Skechers"" href=""https://www.schuurman-schoenen.nl/skechers"" target=""_blank"">Skechers</a> en <a title=""Gabor"" href=""https://www.schuurman-schoenen.nl/gabor"" target=""_blank"">Gabor</a>. Daarnaast heeft Schuurman Schoenen drie eigen merken: <a title=""Visions"" href=""http://www.visionsfootwear.nl"" target=""_blank"">Visions</a>, <a title=""Choizz"" href=""http://www.choizz.nl"" target=""_blank"">Choizz</a> en <a title=""Keq"" href=""http://www.keq.nl"" target=""_blank"">Keq</a>. 

Kom langs in √©√©n van <a title=""Onze winkels"" href=""https://www.schuurman-schoenen.nl/zoek-winkel/"" target=""_blank"">onze winkels</a> of shop snel, veilig en gemakkelijk online in de webshop: <a title=""Schuurman Schoenen"" href=""https://www.schuurman-schoenen.nl"" target=""_blank"">www.schuurman-schoenen.nl</a>.",Schoenenwinkel,https://www.schuurman-schoenen.nl,Winkelen en mode,address,webshop@schuurman-schoenen.nl,0545-280081,7161AG,Neede,Verenigde Staten
Semsneakers,"Semsneakers is a company based in the Netherlands specialized in buying and selling exclusive sneakers and clothes. We provide a platform where you can get the latest releases, quick and easy. We thoroughly authenticate all items to make sure they are 100% authentic.",Streetwearwinkel,http://semsneakers.com,Winkelen en mode,address,info@semsneakers.com,,,,Nederland
Releaz Footwear,"Maart 2016 is Releaz Footwear geopend in het centrum van Barneveld. Wij zijn ondernemers uit de Gemeente Barneveld die begin 2016 concludeerden dat er behoefte was aan een hippe schoenenwinkel in Barneveld.

Wij doen ons best om jullie zo goed en snel mogelijk te helpen. Naast een uitgebreide collectie schoenen kun je in onze winkel uiteraard ook terecht voor de leukste accessoires en andere Releaz Footwear items.",Schoenenwinkel,http://releazfootwear.nl,Winkelen en mode,address,webshop@releazfootwear.nl,0641413597,3774 BB,Barneveld,Nederland
Stygr.,Kledingmerk door zussen Florine en Paulette Stijger,Damesmodewinkel,http://stygr.com,Winkelen en mode,address,info@stygr.com,,2012EG,Haarlem,Nederland
Gwenn Ann | Fine Jewelry,925 Silver & Silver Goldplated jewelry from Amsterdam,Sieradenwinkel,http://www.gwennann.com,Winkelen en mode,address,info@gwennann.com,,,Diemen,Nederland
Resell by Ryan,"We supply collecters and fashion lovers with sneakers, clothing, bags and  other accesories. Our main focus is to help people find their own identity and style",Schoenenwinkel,http://resell-by-ryan.com,Winkelen en mode,address,info@resell-by-ryan.com,0625037026,3043TX,Rotterdam,Nederland
EcuaFina,"EcuaFina importeert rechtstreeks vanuit de Andes diverse authentieke producten, die volgens oude tradities op kleine schaal lokaal worden geproduceerd. Voorbeelden van deze authentieke producten zijn kleurrijke alpaca kleden, poncho's, shawls, Panama hoeden en tagua kettingen. Maar ook heerlijke gourmet producten zoals avocado olie, chocolade en koffie.   ",Modehuis,http://www.ecuafina.nl,Winkelen en mode,address,info@ecuafina.nl,0655509970,7201DR,Zutphen,Nederland
cityshoes.nl,"CityShoes.nl by Brossois. Daar vind je vele bekende en onbekende merken.
Koop bij een echte lokale schoenwinkel gerund door een enthousiast team.
Een unieke schoenenwinkel in het centrum van Haarlem.
Sinds 1989 gevestigd aan de Grote Houtstraat 134.
Met onze persoonlijke aandacht en enthousiasme proberen wij anders te zijn dan de gemiddelde winkel. Tussen alle filiaalbedrijven zijn wij dan ook een welkome afwisseling in het straatbeeld. 
Alle schoenen in de collectie worden gekocht door beurzen te bezoeken in binnen- en buitenland. Hierbij maken wij een optimale mix tussen een aantal bekende merken en artikelen die door ons worden geselecteerd.
CityShoes.nl by Brossois heeft jonge, elegante en eigentijdse collecties waarbij wij ons onderscheiden ten opzichte van de filiaalbedrijven.
Check www.cityshoes.nl voor meer info.
Wij zijn bij veel van onze klanten al jaren ook bekend onder de naam Brossois CITY.
CityShoes.nl by Brossois in Haarlem is 7 dagen per week geopend.
Wij zijn ook te vinden op Facebook en Instagram.
",Schoenenwinkel,http://cityshoes.nl,Winkelen en mode,address,info@cityshoes.nl,0235340918,2011SV,Haarlem,Nederland
The Attic Streetwear,The Attic Streetwear is a community inspired by the latest (streetwear) fashion and clothing. On this platform Indy provides you with the most exclusive fashion and accessoires.,Kledingwinkel,http://theatticstreetwear.com,Winkelen en mode,address,indyderijke@gmail.com,0623002370,3311WK,Dordrecht,Nederland
Don Exclusive,"Don Exclusive offer their clients a new way of luxury personal shopping service. From fashion concierge to personal shopping, the aim is to help you look at your best, whether you're in need of a simple shopping errand or havind one of the most exclusive piece. 
We offer a wide range of exclusive and luxury sneakers, clothing and accessories from the best brands.",Schoenenwinkel,http://donexclusive.com,Winkelen en mode,address,info@donexclusive.com,,,,Nederland
Amberlifestyle,,Kledingwinkel,http://amberlifestyle.nl,Winkelen en mode,address,Info@amberlifestyle.nl,(085) 064 66 63,2661 EL,Bergschenhoek,Nederland
Amstel Watches,"Buy, sell and trade luxury watches",Horlogerie,http://amstelwatches.com,Winkelen en mode,address,info@amstelwatches.com,+31651698467, 3447GZ,Woerden,Nederland
Neycko,"Neycko is de perfecte pantalon voor elke gelegenheid, zowel zakelijk als casual. De unieke Italiaanse stof zorgt voor optimaal draagcomfort. Geen drukke prints, maar mooie basic kleuren die je in elke combinatie kan dragen. ",Kledingwinkel,http://neycko.com,Winkelen en mode,address,info@neycko.com,,,,Nederland
My Kicks,"My Kicks | Online Exclusive Footwear, Clothing & Streetwear",Schoenenwinkel,http://mykicks.nl,Winkelen en mode,address,info@mykicks.nl,0615508217,2526JV,Den Haag,Nederland
Djako Supply,Voor de most limited sneakers ben je bij ons op het juiste adres.,Schoenenwinkel,http://djakosupply.com,Winkelen en mode,address,info@djakosupply.com,,8243BJ,Lelystad,Nederland
Stricters,Stricters is een duurzaam en eerlijk kledingplatform met meer dan 30 merken.,Kledingwinkel,http://stricters.com,Winkelen en mode,address,info@stricters.com,085-06 02 060,3029 AK,Rotterdam,Nederland
SneakerMood,"Your favorite online shop for all sold out, exclusive sneakers, clothing & accessories. You don't see your item? 

* Worldwide shipping 
* The easiest payment methods 
* Hand-inspected items 
* Double boxed shipment",Streetwearwinkel,http://sneakermood.eu,Winkelen en mode,address,info@sneakermood.eu,0646182300,6836SM,Arnhem,Nederland
Juwelieremo,"Juwelier Emo Utrecht - De Beste Persoonlijke Service - Goud & Zilverinkoop - In- en verkoop Rolex - Adres: Spinozaweg 46, 3532SG Utrecht - Tel: 030-2931622 - Juwelier Utrecht",Sieradenwinkel,http://juwelieremo.nl,Winkelen en mode,address,info@juwelieremo.nl,0302931622,3532SG,Utrecht,Nederland
Flinck Supply,"FLINCK is an Amsterdam-based sports sock brand. Born out of the love and passion for sports, creativity, self-expression and the will to stand out. 

Our mission is to make the ordinary extraordinary. By taking something common like a sports sock to the next level and let the people that wear them stand out.

This is what we're going for with FLINCK. To utilise everybody‚Äôs full potential. Surprise yourself. Be seen to push yourself to your max.

BE BOLD, STAND OUT",Sportkledingfabrikant,http://flincksupply.com,Winkelen en mode,address,support@flincksupply.com,+31(0)208456026,1114AK,Amsterdam,Nederland
Voortman Onderscheidingen,"Waardering. Dat is waarom ons bedrijf is begonnen. Het leveren en opmaken van onderscheidingen voor militairen, gedecoreerde burgers, medewerkers van politie en brandweer en uiteraard de veteranen. We leggen als bedrijf, met een unieke aanpak, een stuk waardering terug bij onze klant. Het resultaat, uw prestatie, mag er zijn!",Sieradenwinkel,https://www.voortmanonderscheidingen.nl,Winkelen en mode,address,info@voortmanonderscheidingen.nl,06-41096222,7462 AN,Rijssen,Nederland
CHUN,Dames kleding,Damesmodewinkel,http://chunclothing.nl,Winkelen en mode,address,info@chunclothing.nl,0646013320,7577BZ,Oldenzaal,Nederland
Kudu,Producent van duurzame houten skins voor iPhone.,Winkel in modeaccessoires,http://www.kudustore.com,Winkelen en mode,address,info@kudustore.com,+30 6 46592862,5391 LA,Nuland,Nederland
Speedtaq,Everything for your game,Sportkledingwinkel,http://speedtaq.com,Winkelen en mode,address,info@speedtaq.com,085-1304867,5759 PB,Helenaveen,Nederland
SCOON,"From a completely clean beauty collection (no harmful ingredients!) to lifestyle brands that create from waste or support local communities, get to know the brands that are combining style with a conscious. 
",Warenhuis,http://scoon.store,Winkelen en mode,address,guusje@scoon.store,0636289485,1011VM,Amsterdam,Nederland
"FELIZ - Fashion, Lifestyle, Gifts","Welkom bij Feliz ‚Äì Fashion, Lifestyle & Gifts! Leuk dat je een kijkje neemt op onze Facebook pagina.     Bij ons kunt u terecht voor leuk geprijsde trendy fashion van nu! Wekelijkse inkoop dus snel wisselende collectie om u de nieuwste trends aan te ku...",Kledingwinkel,http://feliz-fashion.nl,Winkelen en mode,address,,,4431 EJ,'s-Gravenpolder,Nederland
Jut & Julie,"Origineel, eerlijk, met liefde gemaakt en duurzaam! ",Babywinkel,http://www.jutenjulie.nl,Winkelen en mode,address,Info@jutenjulie.nl,0622309644,,Leiderdorp,Nederland
Mies & Co baby lifestyle,"Wij zijn Mies & Co en wij ontwerpen bewuste en high end producten voor jouw kindje. Producten die stijlvol zijn, comfortabel, eigen en puur. ",Winkelen en mode,http://miesenco.nl,Winkelen en mode,address,info@miesenco.nl, 0639824000,2161 LE,Lisse,Nederland
Hupsakee Kindermode,"Hupsakee is de stijlvolle en exclusieve baby- en kinderkledingwinkel in Emmen Centrum. Wij hebben een ruim assortiment leuke en hippe baby en kinderkleding van exclusieve merken, gemaakt van mooie materialen. Ons assortiment kleding is geschikt voor kinderen van baby tot tiener. (0 t/m 12 jaar, van maat 50 tot en met 164)",Kinderkleding,https://www.hupsakee.nl,Winkelen en mode,address,hallo@hupsakee.nl,0591-785517,7811ER,Emmen,Nederland
Sjieko.com,"Wij zijn Sjieko.com, een familiebedrijf in de mode met oorsprong in de omgeving van Venlo. In april 2008 openden we voor het eerst de deuren van Sjieko.com in het prachtige Maastricht. We runnen de winkel met moeder, dochter, tante en naaste collega‚Äôs. Die persoonlijke touch proef je in onze winkel.",Kledingwinkel,http://sjieko.com,Winkelen en mode,address,service@sjieko.com,+31(0)43-3520002,6211 GR,Maastricht,Nederland
spicyscarves.nl,"Spicy Scarves staat voor producten met een pittige bite. Begonnen met het produceren van handgemaakte, multifunctionele sjaals van luxe stoffen verkopen we inmiddels diverse fashion items en accessoires, waarbij ook de aandacht voor mens en milieu centraal staat.",Damesmodewinkel,http://spicyscarves.nl,Winkelen en mode,address,info@spicyscarves.nl,+31622292040,1097 HP,Amsterdam,Nederland
DARUM,Kleding die past bij iedere situatie,Kledingwinkel,https:/www.darum.nl,Winkelen en mode,address,klantenservice@darum.nl,0629825361,,,Nederland
Concrete Store,"The CONCRETE STORE based in Amsterdam and The Hague is bringing you the best brands in streetwear, fashion and lifestyle since 1997.",Streetwearwinkel,http://concrete.nl,Winkelen en mode,address,info@concrete.nl,+31206252225,1012 VW,Amsterdam,Nederland
Looplabb,Fashionable and qualitative reading glasses.,Winkel in modeaccessoires,http://looplabb.com,Winkelen en mode,address,info@looplabb.com,035-8886636,1015 WL,AMSTERDAM,Nederland
McDaddy,"McDaddy is je leverancier van awesomeness. Voor de liefhebber van cool, kleurrijk en anders. Aanbieder van one of a kind schoenen.  Onze gehele collectie is te zien op www.mcdaddy.nl of in oonze winkel!",Schoenenwinkel,http://mcdaddy.nl,Winkelen en mode,address,info@mcdaddy.nl,0643503587,7751 GW,Dalen,Nederland
Oorblinkers,"Wij zijn de goedkoopste van Nederland als het gaat om echt zilveren kinderoorbellen. Al vanaf ‚Ç¨1,50 verzonden!",Sieradenwinkel,https://oorblinkers.nl,Winkelen en mode,address,info@oorblinkers.nl,,,,Nederland
Be Golden,Fleeky sieraden die niet verkleuren! ,Sieradenwinkel,http://begolden.nl,Winkelen en mode,address,,,,,Nederland
Wastelets,Handmade bracelets for adventurous people.,Sieradenwinkel,http://wastelets.nl,Winkelen en mode,address,hello@wastelets.nl,,2082 VH,Santpoort-Zuid,Nederland
De Rode Winkel,"De Rode Winkel is de jeanswinkel van Nederland. Wij zorgen ervoor dat iedereen de perfecte jeans aantrekt. Iedereen kan de juiste maat, de juiste pasvorm vinden met onze persoonlijke service. Dat kan ook met meer dan 8000 broeken op voorraad. Dit doen wij al sinds 1837. ",Jeanswinkel,http://derodewinkel.nl,Winkelen en mode,address,info@derodewinkel.nl,030 233 63 03,3511 JA,Utrecht,Nederland
KYOKUSHINWORLDSHOP,"Kyokushinworldshop | Martial arts products | Karate, kickbox, MMA, fitness | Karate suits with embroidery, black belts!",Activewear winkel,http://www.kyokushinworldshop.com,Winkelen en mode,address,info@kyokushinworldshop.com,+31 6 11218115,,Dordrecht,Nederland
Honeymoon shop,"Bij de Honeymoon shop doen wij er alles aan om jouw droomjurk te vinden!

Verdeeld over vijf etages vind je bij de Honeymoon shop alle bekende bruidsmode merken, trouwkostuums en bruidsaccessoires in diverse soorten en prijsklassen. Of jullie nu kiezen voor een bruiloft op een tropisch strand, in een klassiek landhuis of op een kasteel, de stylisten zorgen voor de perfecte styling voor jullie bijzondere dag! Met een groot aanbod aan bruidsjurken van onder andere Pronovias, Ladybird, Maggie Sottero, Modeca, Eddy K. en Enzoani. Ook beschikt Honeymoon shop over een eigen atelier, met speciaal opgeleide coupeuses op het gebied van bruidsmode. 

Een uniek concept bij Honeymoon shop is 'The Perfect Match'. Je begint aan misschien wel de leukste voorbereiding op jouw bruiloft; trouwjurken passen!  Natuurlijk is het dan wel zo leuk als bruid en bruidegom samen door een ringetje te halen zijn, daar zorgen de stylistes van Honeymoon shop voor! Nadat de bruid haar japon gevonden heeft is het de beurt aan de bruidegom. De stylisten werken nauw samen om te zorgen dat de kleding van de bruid en de bruidegom perfect bij elkaar aansluiten.",Winkelen en mode,http://honeymoonshop.nl,Winkelen en mode,address,info@honeymoonshop.nl,(010) 4126143,3011 GL,Rotterdam,Nederland
ShirtbyHand,"ShirtbyHand sets a new standard in men's fashion. Start creating your tailor made shirt online. ShirtbyHand embraces product quality and modern authenticity. A new form of custom-made menswear. We create shirts which are premium, personal and for a fair price. Try creating your own shirt now in just 2 minutes!",Herenmode,https://shirtbyhand.com,Winkelen en mode,address,info@shirtbyhand.com,+208816620,1062 XD,Amsterdam,Nederland
SILK Jewellery,"SILK is het eigenzinnige zilveren sieraden merk van eigen bodem, met een handgemaakte zilver collectie voor zowel mannen als vrouwen. ",Sieradenfabrikant,http://silkjewellery.nl,Winkelen en mode,address,heidi@silkjewellery.nl,+31 (0)85 - 500 70 70 ,5321JE,Hedel,Nederland
SmaakGenot,"SmaakGenot is een online warenhuis voor eten en drinken van kwaliteit. Zonder omwegen bestel je smaakvolle, ambachtelijke en unieke producten rechtstreeks bij de specialist, boer of producent.",Warenhuis,https://smaakgenot.nl,Winkelen en mode,address,info@smaakgenot.nl,,,,Nederland
Juwelier van Willegen,"OFFICIEEL DEALER VAN TOPMERKEN HORLOGES, SIERADEN EN TROUWRINGEN

Van alle merken die u hier kunt kopen zijn wij officieel dealer. De producten die op deze website staan hebben wij daadwerkelijk op voorraad, hierdoor kunnen we morgen al bij u afleveren. Wilt u een product liever eerst bekijken of passen kom dan langs op onze toplocatie aan de Hoogstraat 15 in Den Haag.",Horlogerie,http://www.juweliervanwillegen.nl,Winkelen en mode,address,info@juweliervanwillegen.nl,0703463016,2513AN,Den Haag,Nederland
Ingeklikt,"Onze missie is de fietswereld mooier maken. Dit doen we sinds 2016 met ons eigen merk exclusieve, vrouwelijke fietskleding. Wieleroutfits die ervoor zorgen dat je met plezier, vol zelfvertrouwen op de fiets stapt. Dat je net wat verder gaat, wat harder fietst of gewoonweg meer lol hebt met je vriendinnen onderweg.

Bekijk onze collectie en laat ons weten wat je ervan vindt. Met onze exclusieve dames fietskleding wordt fietsen toch nog v√©√©l leuker? Je koopt Ingeklikt uitsluitend via onze eigen webshop. We hebben geen fysieke winkel.",Fietsenwinkel,https://www.ingeklikt.com,Winkelen en mode,address,hello@ingekikt.com,,3818HJ,Amersfoort ,Nederland
Leguano Schoenen Ned,"Herontdek de natuurlijke manier van lopen  Wandelen of hardlopen is de meest natuurlijke zaak van de wereld. Het houdt het gehele bewegingsapparaat in goede conditie. Maar alleen als we natuurlijk bewegen, met andere woorden: blootvoets!   Leguano, h√©t...",Schoenenwinkel,https://leguanoschoenen.nl,Winkelen en mode,address,info@leguanoschoenen.nl,0633772662,8012VV,Zwolle,Nederland
Brunott Juwelier,"Brunott‚Äôs enthousiaste vaklui hanteert een eerlijke, grensverleggende aanpak en staat direct voor je klaar als je hulp nodig hebt. We zijn goed in het luisteren naar je wensen, maar schromen ons niet onze muil- eh, mond open te trekken als dit een eerlijk advies in de weg staat. Ons team kannie wachten om je te assisteren bij het maken van je keuze uit onze zorgvuldig uitgezochte collectie, je sieraad te repareren of je boterklokkie een onderhoudsbeurt te geven.",Juwelier,http://brunott.nl,Winkelen en mode,address,contact@brunott.nl,0031 10 411 66 15 ,3012 JA,Rotterdam,Nederland
Yoek,"Yoek, d√© online grote maten shop voor trendy en vrouwelijke dameskleding. Bij Yoek zijn verschillende fashion labels te vinden voor alle modieuze vrouwen met een plus size ‚Ä¢ Gratis retourneren en bezorging binnen 1 tot 2 werkdagen!",Damesmodewinkel,https://www.yoek.nl/,Winkelen en mode,address,fashionadvisor@yoek.com,+31(0) 20 388 25 80,1161 AK,Zwanenburg,Nederland
Red-Rag Shoes,"Red-Rag is een edgy schoenenlabel van Nederlandse bodem. Gemaakt voor iedereen die zich wil onderscheiden en altijd op zoek is naar iets nieuws. Trendbewust maar met een eigen uitgesproken look. Met Red-Rag imponeer je in je eigen stijl! Red-Rag shoes worden door vakmensen gemaakt in Itali√´, Portugal en Spanje. De productie vindt dus nog steeds plaats in Europa en daar zijn wij trots op!",Schoenenfabrikant,http://red-rag.com,Winkelen en mode,address,webshop@red-rag.com, 0416 - 569704 (alleen WhatsApp) ,,,Nederland
ByKay,Looking for a baby carrier? All ByKay baby carriers are 100% ergonomic and safe. Carry your baby in a sturdy ByKay baby carrier. Order online!,Winkelen en mode,http://bykay.com,Winkelen en mode,address,,,6601 DD,Wijchen,Nederland
Symfony Damesmode,Een prachtige collectie exclusieve dameskleding van topmerken uit binnen- en buitenland: u vindt het in de webshop van Symfony. Onze inkopers weten precies de bijzondere kledingstukken en modelabels te vinden die uw garderobe compleet maken. Neem een kijkje in onze webshop voor exclusieve dameskleding en laat u verrassen!,Damesmodewinkel,https://www.symfonymode.nl,Winkelen en mode,address,info@symfonymode.nl,073-6145968,5211GK ,‚ÄôS-HERTOGENBOSCH,Nederland
Babyveilig.nl,"Babyveilig is een dynamisch bedrijf dat zich richt op de moderne ouders van tegenwoordig die hun babyspullen online bestellen. In tegenstelling tot een fysieke babywinkel met een beperkte voorraad, kunt u bij ons vrijwel al uw babyspullen kopen die zorgen voor een veilige leefomgeving van uw kind, zoals een Kiddyguard Avant of een autostoeltje.

Bij ons heeft de veiligheid van uw kind de hoogste prioriteit. Daarom kunt bij ons online babyspullen en accessoires kopen die de veiligheid van uw kleine vergroten. Babyveilig kijkt echter niet alleen naar de veiligheid van nu, maar ook de veiligheid in de toekomst. Wij koesteren dan ook het milieu en willen graag een leefbare wereld achterlaten voor de volgende generaties.

",Babywinkel,https://www.babyveilig.nl,Winkelen en mode,address,info@babyveilig.nl,070-7630593,2592 GK,Den Haag,
LUTZ,LUTZ is een kledingzaak in Vinkeveen met internationale topmerken voor mannen en vrouwen. Wij presenteren de mooiste en de beste merken op meer dan 1.000 m2 winkel oppervlakte.,Modehuis,https://lutz.nl/,Winkelen en mode,address,info@lutz.nl,0297212121,3645 DE,Vinkeveen,Nederland
Gassan,"Gassan Diamonds werd in oktober 1945 opgericht door Samuel Gassan. De diamantair hield zich voornamelijk bezig met het slijpen van diamant en met de import en export van zowel ruwe als geslepen diamanten, edelstenen en juwelen. Gassan Diamonds was groothandel en detaillist tegelijk. Vanuit alle hoeken van de wereld kwamen toeristen naar Amsterdam om diamantslijpers aan het werk te zien.

Samuel Gassan merkte door toeristen een uitleg te geven over diamant en het ambacht van diamantslijpen dat zij diamanten kochten. Sinds 1955 ontvangt Gassan Diamonds toeristen en tot op de dag van vandaag blijkt deze formule uiterst succesvol. Gassan Diamonds heeft in 2013 een record aantal bezoekers behaald van meer dan 400.000 mensen. Bij Gassan Diamonds worden er 26 verschillende talen gesproken, zodat iedereen een unieke rondleiding kan beleven. Ook is het leuk om voor Nederlanders de tour te boeken.",Sieradenwinkel,https://www.gassan.com,Winkelen en mode,address,online@gassan.com,+31 (0)20 622 5333,1011 LN,Amsterdam,
Mister B,"At Mister B we strive to maintain the highest of standards with our leather, rubber and neoprene gear, as with our huge collection of horny toys. Whether you are a beginner or an expert Mister B has got what you need.
Our colleagues are always happy to advise you about the perfect toy to make you fantasies become reality.",Sex toy-winkel,https://misterb.com,Winkelen en mode,address,customerservice@misterb.com,+3120 788 30 10,1114 AM,Amsterdam,Nederland
TheGarrison.nl,De webshop voor de echte gentleman! Onderscheidende driedelige kostuums en accessoires voor uitstekende prijzen!,Herenmode,https://thegarrison.nl,Winkelen en mode,address,service@thegarrison.nl,,8271 RW,Ijsselmuiden,Nederland
Teneekelder,De naam Ten Eekelder is verwant met schoenen. De naam houdt verband met de vroegere werkzaamheden in de leerlooierijen. Eek betekent eikenschors; deze eikenschors werd vroeger gebruikt om leer in kelders te looien. Zo is de naam Ten Eekelder al meer dan een eeuw verbonden met schoenen.,Schoenenwinkel,http://teneekelder.nl,Winkelen en mode,address,info@teneekelder.nl,+31(0)-74 2912453,7551 EE,Hengelo,
UV-Fashions,"UV-Fashions is Europa‚Äôs grootste aanbieder en d√© absolute autoriteit op het gebied van UV-beschermende (zwem)kleding en accessoires. Met onze premium UV-beschermende producten kunnen volwassenen, kinderen en baby's zich beschermen tegen de schadelijke gevolgen van ultraviolette straling. Ons assortiment is door ons met grote zorg voor jou samengesteld en bestaat uit de 30 beste UV-merken wereldwijd. Op deze manier bieden als ""one stop uv-shop"" we iets fijns en modieus voor voor baby‚Äôs, meisjes, jongens, dames en heren. Wij werken met een team van 8 enthousiaste collega's jou het beste aanbod en de beste online shop ervaring te bieden. Happy shopping en bedankt voor je vertrouwen! 
Ma t/m vr v√≥√≥r 17:30 besteld, morgen in huis, thuiswinkel.org gecertificeerd, 10 jarig deskundige ""ervaring"" en ""know how"", wij doen altijd wat we beloven. ",Winkelen en mode,http://uv-fashions.nl,Winkelen en mode,address,service@uv-fashions.com,0031-10-2264801,3113 AN,Schiedam,Nederland
Invicta Stores Europe,Invicta Stores Europe is the official sales channel of Invicta watches in Europe. Invicta is characterized by its innovative ideas and excellent quality. These extraordinary watches are offered at a competitive price. On our website you can find the latest and largest collection of Invicta watches.,Horlogerie,http://invictastores.eu,Winkelen en mode,address,support@invictastores.eu,+ 31(0)73 599 56 60 ,5321JM,Hedel,Nederland
Rikkoert Juweliers,"Rikkoert Juweliers is hofleverancier en een uniek familiebedrijf binnen de juweliersbranche met fysieke winkels in Schoonhoven en Lekkerkerk. Vanuit 'De Zilverstad' bieden wij u sinds 1876 de grootste juwelierscollectie van Nederland. Ons assortiment bestaat uit nieuw en antiek zilver, gouden en zilveren sieraden, horloges, klokken en barometers, trouwringen en kraamcadeaus. Binnen deze productgroepen voeren wij de beste merken en zorgen wij voor een geheel uniek aanbod. Naast ons aanbod staan wij voor u klaar betreffende speciale opdrachten. Zo vervaardigen wij unieke producten voor bedrijven en particulieren en repareren wij ieder sieraad, zilver voorwerp, horloge, barometer of klok. Op www.rikkoert.nl vindt u alles over onze kwaliteiten, diensten en specialismen en daarnaast kunt u onze bijzondere collectie online bewonderen.

<BR>
Webwinkels:
www.rikkoert.nl
www.zilverkraamcadeau.nl",Sieradenwinkel,http://www.rikkoert.nl,Winkelen en mode,address,klantenservice@rikkoert.nl,0182-382651,2871 CK ,Schoonhoven,Nederland
Chrono24,"Koop en verkoop wereldwijd nieuwe en tweedehands horloges op Chrono24. Meer dan 311.319 merkhorloges als Rolex, Breitling, Omega enz. tegen voordelige prijzen",Winkelen en mode,https://www.chrono24.nl,Winkelen en mode,address,,,,,
Penninkhofmode,"Sinds begin jaren zestig is Penninkhof toonaangevend voor exclusieve damesmode. Sinds oktober 2011 kunt u onze mooie merken ook aankopen op onze webshop. Comfort, kwaliteit en service staan bij ons hoog in het vaandel.",Schoenenwinkel,http://penninkhofmode.nl,Winkelen en mode,address,info@penninkhofmode.nl,0570592339,,,
TopVintage,"TopVintage is Europe's leading online retro boutique. This webshop has the greatest variety in exclusive vintage inspired fashion! The web boutique offers retro pencil and swing dresses, skirts, tops, shoes and accessories, all inspired on the 1920‚Äôs ‚Äì 1970‚Äôs. Awarded best Shopping Website of the year NL 2015, 2016 and 2017.",Damesmodewinkel,http://www.topvintage.net,Winkelen en mode,address,info@topvintage.nl,0031 45 750 720 8,6466 NG,Kerkrade,Nederland
sokken.nl,"Sokken.nl is de site voor kwalitatieve sokken. Wij verkopen zowel damessokken, herensokken als sportsokken van bijvoorbeeld Puma, Tommy Hilfiger, Falke en Happy Socks.<BR><BR>Vragen of opmerkingen?<BR>Wij horen ze graag!<BR>",Winkelen en mode,http://www.sokken.nl,Winkelen en mode,address,contact@sokken.nl,0548612357,7442 DG,Nijverdal,Nederland
Pig & Hen,The coolest bracelets for men. Handmade in Amsterdam using ship rope & steel. They are meant to survive a lifetime and will age like your wrinkled face.,Winkelen en mode,http://www.pighen.com,Winkelen en mode,address,service@pighen.com,+31(0)208950932,1031HM,Amsterdam,Nederland
Mijn Liefste Boek,"<b>Bestel online en ontvang een geheel persoonlijk boek in je brievenbus</b><br><br>
Samen met creatieve schrijvers en illustratoren werken wij dagelijks aan persoonlijke kinderboeken, waarin het kind zelf de hoofdrol speelt. Persoonlijke kenmerken, zoals de haar- en huidskleur van de personages en andere details uit het leven van het kind, maken de boekjes tot een bijzonder en uniek cadeau. <br><br>

<b>Een uniek cadeau-idee voor een geliefd kind</b><br><br>
Met het kind als uitgangspunt worden fantastische en unieke verhalen verteld. De onderwerpen in onze boeken vari√´ren van belangrijke gebeurtenissen uit het leven van het kind, zoals starten op de basisschool, stoppen met het speentje of het krijgen van een broertje of zusje, tot spannende avonturen in de dinowereld, met piraten of met de zeedieren. <br><br>

Wij zitten alle werkdagen voor je klaar op onze klantenservice. We helpen je graag bij het kiezen van het perfecte boekje voor jouw kleintje!",Babywinkel,https://www.mijnliefsteboek.nl,Winkelen en mode,address,info@mijnliefsteboek.nl,+31 85 208 5806 ,,,Denemarken
RINSMA MODEPLEIN,"De nieuwste collecties van meer dan 350 vooraanstaande modemerken voor vrouwen en mannen. Altijd gratis en voor de deur parkeren. Ervaren fashion professionals voor het beste persoonlijke advies. Gezellig eten en drinken in het caf√© DE KEUKEN VAN RINSMA. Ook online shoppen, zeker en betrouwbaar. Bij Koninklijke Beschikking Hofleverancier.",Damesmodewinkel,http://www.rinsmamodeplein.nl,Winkelen en mode,address,webshop@rinsmamodeplein.nl,0513 - 468 050,8401 VL,Gorredijk,Nederland
Onlineverf.nl,Onlineverf.nl is een van de grootste en bekendste online verf leveranciers van Nederland en Belgi√´. Voor 23.59 uur besteld = de volgende dag schilderen! Ook same day delivery mogelijk. Onlineverf.nl kent het grootste assortiment doe-het-zelf en professionele verf voor zeer scherpe prijzen. Particulieren en bedrijven kunnen simpel en snel bestellen. ,Verfwinkel,https://www.onlineverf.nl/,Winkelen en mode,address,klantenservice@onlineverf.nl,085 112 02 02,7255PS,Hengelo Gelderland,Nederland
Mantel,"Mantel bestaat al sinds 1938 en heeft naast de online fietsenwinkel ook vier superstores in Arnhem, Den Bosch, Utrecht en Rotterdam. Of je ons nu online bezoekt, of in een van onze fietsenwinkels, jij als klant staat bij ons centraal. Zo doen we er alles aan om jouw ervaring zo leuk mogelijk te maken. En gaat er toch eens iets mis? Dan lost onze klantenservice dat altijd goed op. Met onze score op Trustpilot als bewijs :)",Fietsenwinkel,https://www.mantel.com,Winkelen en mode,address,service@mantel.com,026-4450945,6827 BT,Arnhem,Nederland
travelbags.nl,"travelbags.nl, de online shop voor koffers en tassen van alle bekende merken
<br>
<br>
Gratis verzending vanaf 39,-
<br><br>
Gratis retour
<br><br>
Op werkdagen v√≥√≥r 22:59 besteld, dezelfde dag verzonden
<br><br>
Grote collectie
<br><br>
Alle Topmerken
<br><br>
Heeft u vragen of wilt u meer informatie, neemt u dan contact op met onze klantenservice. Zij helpen u graag!",Koffer- en tassenwinkel,http://www.travelbags.nl,Winkelen en mode,address,klantenservice@travelbags.nl,085-2250522,7773NP,Hardenberg,Nederland
Siga Mode - by Siga.,"Siga is een begrip in de regio en wordt ook ver daarbuiten vaak bezocht door modebewuste dames. De kwaliteit en professionaliteit van het team van Siga staan garant voor tevreden bezoekers, zowel online als in de winkel.",Damesmodewinkel,http://sigamode.nl,Winkelen en mode,address,info@sigamode.nl,0683095246,5721 GH,Asten,Nederland
FashionStash,FashionStash heeft d√® trendy treasures of het gebied van tassen & lederwaren. Wij geloven in Love at first sight. Er is iets speciaals tussen vrouwen en tassen. Daarom hebben wij voor iedere vrouw wat wils en betaalbaar voor iedere portemonnee.,Koffer- en tassenwinkel,http://fashionstash.nl,Winkelen en mode,address,info@fashionstash.nl,0773745633,5981AM,Panningen,Nederland
Instincttrail,"Instinct, het meest inspirerende, functionele en anatomisch ontworpen [Trail] specifiek merk ooit gemaakt!",Activewear winkel,https://www.instincttrail.nl,Winkelen en mode,address,info@instincttrail.nl,0858770532 ,,,Nederland
Toptijd,Wij kopen er verkopen exclusieve horloges.,Horlogerie,http://toptijd.nl,Winkelen en mode,address,info@toptijd.nl,06-39484905,2712AR,Zoetermeer,Nederland
750Kicks,Our ultimate goal is to exceed the customer expectation of service and deliver a one-of-a-kind experience. Customer satisfaction will always be our top priority!,Schoenenwinkel,http://www.750Kicks.nl,Winkelen en mode,address,info@750kicks.nl,,3083AS,Rotterdam,Nederland
May Mays,D√© webshop voor de allerleukste baby en kind producten!,Babywinkel,http://www.maymays.nl,Winkelen en mode,address,info@maymays.nl,0850043260,,,Nederland
Bylieke,ByLieke is een webshop gevuld met woondecoraties en sieraden gemaakt van hout. ,Decoratie- en interieurwinkel,http://bylieke.com,Winkelen en mode,address,klantenservice@bylieke.com,,5321RP,Hedel,Nederland
Cadeautjes by Mily,"Ben je op zoek naar een gepersonaliseerde cadeautje, een kraamcadeautje of een unieke traktatie voor de verjaardag van jouw kleine uk op de cr√®che of basisschool? Of wil je de juf op school bedanken voor al haar goede zorgen? Een gepersonaliseerd cadeau past goed bij elke gelegenheid en vallen altijd goed in de smaak. Ik maak jouw cadeautjes daarom uniek en persoonlijk! Met de naam van jouw kindje, de naam van de baby of een eigen tekst.",Textieldrukwinkel,http://cadeautjesbymily.nl,Winkelen en mode,address,,,,,Nederland
Treasure label,"Alle dierenprint tassen van Treasure label zijn gemaakt van leer leftovers. Kleine stukjes leer die door de grote fabrieken weg worden gegooid, krijgen bij ons een nieuw leven! Omdat de dierenprint tasjes worden gemaakt van overgebleven leer, is het onmogelijk om twee dezelfde tassen te maken.Hierdoor is elke tas dus 100% uniek, net als jij!

De Treasure collectie bestaat uit verschillende modellen. Alle tassen met dierenprint zijn helemaal uniek en hebben dus allemaal een andere samenstelling qua leer en kleuren. Heb jij jouw favoriete tas uitgekozen? Dan ben jij dus de enige die deze exacte dierenprint tas heeft!",Textieldrukwinkel,http://treasurelabel.nl,Winkelen en mode,address,info@treasurelabel.nl,,5146 ED,Waalwijk,Nederland
Black Labels,"U bent van harte welkom om onze uitgebreide mid- en high end collectie te bekijken en, indien gewenst, zullen onze ervaren medewerksters u helpen bij het vinden van een gepaste outfit.",Damesmodewinkel,http://black-online.nl,Winkelen en mode,address,info@blackonline.nl,070 3464930,2514 CJ,Den Haag,Nederland
100procenthardcore,100% Hardcore | Wear it with pride ! ,Kledingleverancier,http://www.100procenthardcore.com,Winkelen en mode,address,webshop@100procenthardcore.com,+3140 303 21 47,5674VN,Nuenen,Nederland
Anthony's Kicks,"Anthony's Kicks is een jong bedrijf dat sneakers aanbied voor een concurrerende prijs. 
Wij streven ernaar om de meest gelimiteerde sneakers zo gemakkelijk mogelijk aan te bieden.",Schoenenwinkel,http://anthonyskicks.com,Winkelen en mode,address,info@anthonyskicks.com,,,Purmerend,Nederland
Copyshop / Drukkerij Printhuus,"Printhuus is al jaren lang gespecialiseerd in het bedrukken van textiel en papier. U kunt bij ons terecht voor onder meer het bedrukken of borduren van promotiekleding, sportkleding, werkkleding en eigenkleding. Daarbij drukken, kopi√´ren en printen wij op allerlei papiersoorten. Wij begeleiden, adviseren en helpen u graag in het maken van de juiste keus. Wij staan voor no-nonsense en geen bijkomstige kosten. Wij leveren kwaliteit voor een enorm scherpe prijs en gaan voor een persoonlijke benadering en denken graag met u mee. Wij streven naar een zo fijne en goed mogelijke ervaring voor klanten. We zijn dan ook erg blij met de vele positieve reacties die wij hierover terugkrijgen. Klantvriendelijkheid en service staan bij ons erg hoog!",Digitale afdrukservice,http://printhuus.nl,Winkelen en mode,address,info@printhuus.nl,0651822732,7722 RV,Dalfsen,Nederland
