name,description,categories,Website,category,address,email,phone,zipcode,city,country
Pig&Hen,,Beauty en welzijn,http://pigandhen.nl,Beauty en welzijn,,,,,,Verenigde Staten
Flashbay,"<p>Hier bij Flashbay zijn we een van 's werelds toonaangevende leveranciers van USB Flash Drives, Powerbanks, Audio-producten, Gadgets en Tech Gift Sets. We bieden onverslaanbare prijzen in combinatie met snelle en efficiënte service aan kleine, middelgrote en grote organisaties over de hele wereld.</p>

<p>Wij hebben een breed assortiment aan geheugencapaciteiten en bieden verschillende personaliseringsmogelijkheden aan.</p> 

<p>Tijdens dit proces is er onze oprechte toewijding aan het milieu door het gebruik van gerecyclede materialen. Vol trots kunnen wij mededelen dat wij in 2008 in zowel de fabriek van Flashbay als ons kantoor in het Verenigd Koninkrijk hiermee onze 'carbon neutral' status hebben verdiend.</p>

<div class=""divider""></div>

<h4>Waarom Flashbay?</h4>
<ul class=""bullet-points""><strong>
<li><a href=""http://www.flashbay.nl/waarom_flashbay"">Snelste Levertijd</a><br /></li>
<li><a href=""http://www.flashbay.nl/waarom_flashbay"">Gratis Samples (de volgende dag)</a><br /></li>
<li><a href=""http://www.flashbay.nl/formulier"">Direct Een Offerte (binnen 15 min.)</a><br /></li>
<li><a href=""http://www.flashbay.nl/waarom_flashbay"">Fabrieksprijzen</a><br /></li>
<li><a href=""http://www.flashbay.nl/waarom_flashbay"">10 Stuks Minimale Afname</a><br /></li>
<li><a href=""http://www.flashbay.nl/waarom_flashbay"">Eigen Fabriek</a><br /></li>
<li><a href=""http://www.flashbay.nl/waarom_flashbay"">ISO 9001:2015 Gecertificeerd</a><br /></li>
<li><a href=""http://www.flashbay.nl/waarom_flashbay"">10 Jaar Garantie</a><br /></li>
</strong></ul>
<div class=""divider""></div>
<br />
<a href=""http://www.flashbay.nl"" target=""_blank"" title=""Offerte"" style=""background:#00b67a;color:#FFF;padding:10px 20px;text-decoration:none!important;"">Offerte</a>",Promotieartikelenwinkel,http://www.flashbay.nl,Zakelijke diensten,Flashbay Ltd Joop Geesinkweg 901 - 999 1096 AZ Amsterdam,contact@flashbay.com,,,Amsterdam,Nederland
Copyshop / Drukkerij Printhuus,"Printhuus is al jaren lang gespecialiseerd in het bedrukken van textiel en papier. U kunt bij ons terecht voor onder meer het bedrukken of borduren van promotiekleding, sportkleding, werkkleding en eigenkleding. Daarbij drukken, kopiëren en printen wij op allerlei papiersoorten. Wij begeleiden, adviseren en helpen u graag in het maken van de juiste keus. Wij staan voor no-nonsense en geen bijkomstige kosten. Wij leveren kwaliteit voor een enorm scherpe prijs en gaan voor een persoonlijke benadering en denken graag met u mee. Wij streven naar een zo fijne en goed mogelijke ervaring voor klanten. We zijn dan ook erg blij met de vele positieve reacties die wij hierover terugkrijgen. Klantvriendelijkheid en service staan bij ons erg hoog!",Digitale afdrukservice,http://printhuus.nl,Zakelijke diensten,Wannestraat 6,info@printhuus.nl,0651822732,7722 RV,Dalfsen,Nederland
Royalkaarten,"Geboortekaartjes, trouwkaarten of communiekaarten zijn belangrijk: ze moeten uniek zijn, onderscheidend en persoonlijk. Bij RoyalKaarten vind je een groot assortiment kaarten die je eenvoudig kunt aanpassen naar je eigen persoonlijke stijl en smaak. Je voegt bijvoorbeeld zelf een foto toe of je geeft de kaart een mooie uitstraling met een strikje of lintje.",Prints en uithangbordenwinkel,http://royalkaarten.nl,Zakelijke diensten,dr.weitjenslaan 29,info@royalkaarten.nl,0611481670,2685VV,Poeldijk,Nederland
TrafficSupply,"TrafficSupply is dé online specialist in verkeers-, tekst- en informatieborden, laadpalen en wegvlakmarkeringen. Via één van onze webshops zoals: www.informatiebord.nl, www.scheepvaartbord.nl, www.oplaadpaal-kopen.nl, www.veiligheidsbord.nl, www.rookvrijterrein.nl etc. is het mogelijk om zelf uw producten zoals verkeersborden, scheepvaartborden, informatieborden, oplaadpalen en wegvlakmarkeringen op maat samen te stellen, voorzien van eigen tekst en/of logo.",Fabrikant,https://www.trafficsupply.nl,Zakelijke diensten,Lindenhof 7,info@trafficsupply.nl,+31 (0)38-79 200 70,8051DD,HATTEM,Nederland
mdhelektroshop.nl,"MDHelektroshop.nl levert aan iedereen. Wij zijn er voor de installatiebureaus, professionele bouwbedrijven en zzp-ers, maar uiteraard ook voor de hobbyist. Door ons brede assortiment en scherpe prijzen is er voor elke klantvraag of wens wel het juiste product te vinden. Kunt u echter het gewenste product niet vinden, neemt u dan contact met ons op via info@mdhelektroshop.nl of 0486-85 15 58. Wij helpen u uiteraard graag verder!

Indien u regelmatig bestelt, raden wij u aan om een account aan te maken. Hiermee kunt u eenvoudig uw afleveradressen beheren, heeft u direct inzicht in uw bestelhistorie en kunt daarnaast ook een verlanglijst met te bestellen producten aanmaken. Indien u een zakelijke klant bent komt u ook nog eens in aanmerking voor aantrekkelijke kortingen! Zo ziet u maar weer, MDHElektroshop.nl is dé voordeligste elektromaterialen specialist.",Elektrogroothandel,https://mdhelektroshop.nl,Zakelijke diensten,Zeelandseweg 31,info@mdhelektroshop.nl,0486 - 85 15 58,5453RS,Langenboom,Nederland
SharePeople,"SharePeople, jouw vangnet bij arbeidsongeschiktheid",Inkomensbescherming verzekering,http://sharepeople.nl,Zakelijke diensten,Hoofdstraat 25,contact@sharepeople.nl,0343-227002,3791 KA,Driebergen,Nederland
gorillagrip.nl,"GorillaGrip is een echt Hollands fabricaat. Gemaakt in eigen beheer en volgens de hoogste kwaliteitseisen. De productie voldoet aan de ‘offshore-norm’. Dat wil zeggen, er wordt op dezelfde manier geproduceerd als voor de offshore. Een garantie voor robuuste, hoogwaardige installaties met een lange levensduur. GorillaGrip staat voor eerlijk en betrouwbaar. Typical Dutch.

",Sportartikelenwinkel,https://gorillagrip.nl,Zakelijke diensten,Nijverheidsweg 20,info@gorillagrip.nl,+31(0)6-54244683,7921 JJ,Zuidwolde,Nederland
Studiomoods,"Wenskaarten met een bijzondere boodschap voor momenten van troost & verdriet, maar ook van feest & liefde.",Wenskaartenwinkel,http://www.studiomoods.nl,Zakelijke diensten,,,,,,Nederland
PerlaPlast Kunststofshop,"PerlaPlast is een breed gesorteerde webwinkel op het gebied van kunststof plaat, staf en buis. Afnemers zijn particulieren, bedrijven, overheden, gemeenten, scholen en instellingen. Bij ons kunt u goed terecht voor uw diverse halffabrikaat producten maar ook voor bewerkt product gemaakt uit halffabrikaat, middels zaag-, boor-, frees-, stans-, buig- of lijmtechnieken. Bent u groot- of regelmatig afnemer van kunststoffen uit ons leveringsprogramma, dan zijn wij zeer wel in staat u uitstekende inkoopcondities voor te leggen.

Perlaplast levert niet alleen kunststoffen en kunststof eindproducten maar kan u ook adviseren inzake de keuze en gebruik van kunststoffen in diverse toepassingen. Hierbij maken we gebruik van onze langjarige werkervaring in deze materiaalgroep. We delen deze kennis graag met u. U kunt uw vragen en aanvragen aan ons richten door het contactformulier in te vullen. We doen ons best uw vragen zo snel mogelijk te beantwoorden. 

Het PerlaPlast team bestaat uit 5 enthousiaste medewerkers die alles in het werk stellen om u als klant zo goed mogelijk van dienst te zijn.",Plastic groothandel,http://www.perlaplast-kunststofshop.nl/,Zakelijke diensten,Goorsestraat 11 ,info@perlaplast-kunststofshop.nl,+31314668544,7041 GA ,'s Heerenberg ,Nederland
Albeka.nl - Tweedehands & Nieuw Kantoormeubilair,"Albeka is dé online specialist in nieuw en gebruikt kantoormeubilair met 3 echte showrooms in Nederland. Alle producten worden boven de €350 gratis door heel Nederland en België geleverd met onze eigen bezorgservice. Als er vagen zijn, staat de klantenservice direct voor je klaar.",Kantoormeubilair winkel,http://www.albeka.nl,Zakelijke diensten,Noordeinde 206,info@albeka.nl,078-6912182,3341 LW,Hendrik Ido Ambacht,Nederland
Argeweb,Met meer dan 200.000 domeinnamen en het beheer van tienduizenden websites is Argeweb één van de grootste hosting providers van Nederland. Daarbij hebben wij sinds het begin in 2000 de klant centraal gezet door gratis deskundige support te geven en een extra stapje te zetten voor de klant. Dat is waarom wij de meest klantvriendelijke hosting provider van Nederland zijn.,SEO-service,https://www.argeweb.nl,Zakelijke diensten,Noordzee 10D,info@argeweb.nl,085-0218861,3144 DB,Maassluis,Nederland
Maatwerk,"Maatwerk is een toonaangevende serviceprovider op het gebied van additionele diensten tijdens het regelen van een hypotheek of het aan- en verkopen van een woning.

We bieden een veilige cloud-based platform waar klanten, taxateurs, financieel adviseurs, geldverstrekkers, banken en tussenpersonen elkaar kunnen vinden via het extranet of mobiele app.

Dit platform zorgt ervoor dat alle partijen snel met elkaar kunnen schakelen tijdens een complex proces, zoals het kopen van een woning of het afsluiten van een hypotheek. Onze centrale helpdesk is het aanspreekpunt en zorgt voor een vlotte communicatie.

Om deze service zijn we door vele grote banken in Nederland verkozen tot hun voorkeurspartij.",Zakelijke diensten,https://maatwerk.nl,Zakelijke diensten,Schweitzerlaan 76,info@maatwerk.nl,020 5452400,1187 JD,Amstelveen,Nederland
Loopbaannederland.nl ,"Loopbaannederland.nl, opgericht in 2009 door Eric van Schaik, is gespecialiseerd in het matchen van vraag en aanbod voor mensgerichte diensten.
Door ons slimme matchingsysteem maken wij voor u de beste match.",Business to Business-service,http://loopbaannederland.nl,Zakelijke diensten,Korsjespoortsteeg 5 ,info@loopbaannederland.nl,085-3034270,1015AP,Amsterdam,Nederland
Design Online Meubels,Professioneel advies bij kantoorinrichting. Topmerken design meubels geleverd door vakmensen. Van design bureaustoel tot design receptiebalie. Wij helpen u bij de keuze van de meubels en de kleuren en installeren turn-key. Installatie afgerond? Verpakking meegenomen en u bent klaar om de nieuwe meubels meteen te gebruiken. ,Meubelgroothandel,https://www.designonlinemeubels.nl/,Zakelijke diensten,Nieuwe Linie 12,info@designonlinemeubels.nl,+31886382357,5264 PJ,Vught,Nederland
Nakheelalya,Voor de meest lekkere dadels en dadelproducten,Importeur,http://nakheelalya.nl,Zakelijke diensten,Uitenhagestraat 10,najat@nakheelalya.nl,0702199748,2571 VV,Den Haag,Nederland
Jouwbox,Gezond genieten met JouwBox.,Zakelijke diensten,http://jouwbox.nl,Zakelijke diensten,Kloosterlaan 43,Tim@jouwbox.nl,0637305501,1861SB,Bergen,Nederland
Tackmasters B.V.,"TACKMASTERS is ook voor u dè leverancier van lijmen, kitten, PUR schuimen, spuitlijmen en contactlijmen. Ook leveren wij diverse soorten boren, zagen, slijpschijven, diamantproducten, schroeven en accessoires. Wij blijven ons assortiment continu uitbreiden om aan uw wensen als klant te kunnen voldoen. Dus bent u op zoek naar een hoogwaardige High Tack lijmkit, EPDM contactlijm of Multi tool zaagblaadjes? Dan bestel je deze gemakkelijk en snel bij TACKMASTERS.NL! Wij garanderen de laagste prijzen van Nederland en België, aangezien wij rechtstreeks importeren vanaf de producent.

De visie van TACKMASTERS  is dat, naast de grote bedrijven, ook  ZZP’ers en particulieren voor de beste prijs en kwaliteit hun producten kunnen inkopen. 

De branches waar wij onder andere aan leveren zijn: bouw- en aannemers, dakdekkers, hoveniers, stoffeerders, parketteurs, tegelzetters, interieurbouwers en sloopbedrijven.   
",Bevestigingsmiddelen leverancier,http://tackmasters.nl,Zakelijke diensten,Veenderveld 56,sales@tackmasters.nl,0318240130,2371 TW,Roelofarendsveen,Nederland
CV.nl,"Maak een professioneel CV in 10 minuten met CV.nl: gegevens invullen, professionele template selecteren & direct downloaden. Start met je CV!",Zakelijke diensten,https://www.cv.nl/,Zakelijke diensten,,support@cv.nl,,,,Nederland
Inpromoshop,"Op onze website vindt u een uitgebreid assortiment reclameartikelen, presentatiemiddelen, drukwerk, textiel en relatiegeschenken tegen de scherpste prijzen. Direct uw prijs berekenen inclusief opdruk, het is allemaal mogelijk.
 
Inpromoshop.nl is onderdeel van Inpromo BV te Haarlem.",Promotieartikelenwinkel,https://inpromoshop.nl,Zakelijke diensten,Gooiland 6,klantenservice@inpromoshop.nl,023 - 210 01 42,1948 RC,Beverwijk,Nederland
Eigenplectrum.nl,"EigenPlectrum.nl is sinds december 2007 een begrip in de gitaarwereld. We willen gitaristen de kans geven om hun eigen plectrums te maken. We zijn hiermee de enige in de Benelux waar dit momenteel mogelijk is. In 2013 zijn we begonnen in landen als: Duitsland, Zwitserland en Oostenrijk.

Het doel van Eigen Plectrum is het maken van een zo’n hoog mogelijke kwaliteit van plectrum. EigenPlectrum.nl is een site die de grootste wil zijn en ook wil blijven. Daarom vinden we de feedback van onze klanten belangrijk.

We gebruiken tevens het fijnste materiaal en onze eigen gemaakte plectrums zijn het beste wat er op dit moment te krijgen is aan eigen werk.

In 2014 hebben we meerdere contacten gelegd over de gehele wereld om meer producten te verkopen. Tevens hebben we eind 2014 veel geïnvesteerd in nieuwe ontwikkelingen en plectrums. Eind 2014 hebben we EigenPlectrum laten registreren als merknaam.

Begin 2015 zijn we gestart met het verkopen van glow in the dark plectrums. Tevens zijn we momenteel in onderhandeling met diverse bekende bands en artiesten zowel nationaal als wereldwijd, om eigen plectrums te gaan verzorgen.

Zo heeft EigenPlectrum in April 2015 plectrums gemaakt voor de wereldband ACDC voor hun wereldtour Rock or Bust en zijn we plectrums gaan leveren aan Kensington. In Oktober 2015 hebben we een nieuwe printer aangeschaft zodat we nog betere plectrums kunnen leveren. Tevens hebben we de bereikbaarheid verbetert door support te gaan leveren via WhatsApp.

Eind 2015 hebben we een aantal nieuwe producten toegevoegd aan ons assortiment. Van Jazz plectrums tot Vintage plectrums. Zo hebben we nu een completer aanbod en voor ieder wat wils.",Digitale afdrukservice,https://www.eigenplectrum.nl,Zakelijke diensten,Bredaseweg 65,info@eigenplectrum.nl,0162 700566,4844CK,Terheijden,Nederland
Sparkling Jewels,Every gemstone has its own sparkle! Mix and Match with gemstones. An unique and interchangeable jewelry concept.,Juwelengroothandel,http://sparkling-jewels.com,Zakelijke diensten,Botterweg 12-L,sparklingjewels@essencecollections.com,,8042PA,Zwolle,Nederland
Brenger,Large goods delivered by the best,Koerier- en bezorgdienst,http://www.brenger.nl,Zakelijke diensten,Stadhouderskade 25,info@brenger.nl,,1071 ZD,Amsterdam,Nederland
HouseHunting,Welkom bij uw makelaar! De makelaars van HouseHunting helpen u vanaf het moment dat de woonruimte vrijkomt voor in de verhuur tot en met de,Vastgoed verhuurbedrijf,http://www.househunting.nl,Zakelijke diensten,Stationsweg 22,franchise@househunting.nl,073-6131322,5211TW,'s-Hertogenbosch,Nederland
Randstad,"Op een gemakkelijke, overzichtelijke manier de banenmarkt afspeuren voor die ideale baan of de leukste vacatures? Kijk dan op Randstad.nl.",Uitzendbureau,https://www.randstad.nl/,Zakelijke diensten,Diemermere 25,,080072637823 ,1112 TC,Diemen,Nederland
Sneltoner,"Sneltoner is op weg om de beste online winkel van Nederland en België te worden voor toner- en inktcartridges. Als klanten van Sneltoner blij zijn, dan zijn wij dat ook. En wij willen samen met u geld besparen. Door zo vriendelijk, slim en efficiënt mogelijk alles te leveren wat nodig is om zorgeloos te printen. Hartelijk dank aan alle klanten van Sneltoner in Nederland en België want dankzij ú zijn we voor het 5e jaar op rij uitgeroepen tot WINNAAR Shopping Award | Thuiswinkel Award Publieksprijs in de categorie computer hard/software xs: in 2014, 2015, 2016, 2017 én 2018!",Tonerleverancier,http://www.sneltoner.nl/toners,Zakelijke diensten,Einsteinstraat 22,klantenservice@sneltoner.nl,0318-210210,3902HN,Veenendaal,Nederland
Optimalprint,"Bij ons kunt u hogekwaliteits-drukwerk online maken en bestellen. Wij bieden een 100%-tevredenheidsgarantie -- als u niet helemaal tevreden bent, doen we een gratis herdruk of uw geld terug. Wij bieden prijstransparantie, eenvoudige en snelle orderafhandeling en vlotte bezorging.

Voor hulp: https://support.optimalprint.com/nl/",Prints en uithangbordenwinkel,https://www.optimalprint.nl,Zakelijke diensten,,,,,,Nederland
Carrière Uitzendbureau,"Carrière helpt jou aan goed werk. Bij ons ben je aan het juiste adres voor de leukste vacatures in de logistiek, productie, transport en techniek. Bij Carrière mag je er zijn, ben je welkom en denken we graag met je mee.",Wervingsbedrijf voor tijdelijk werk,https://carriere.com,Zakelijke diensten,,,,,,Nederland
Reclameland B.V.,"Reclameland B.V. is een Nederlandse online drukkerij. Ons pand, bestaande uit 700 m2 kantoor en 6.000 m2 productiehal, is gevestigd in het Groningse Westerbroek. Vanaf één locatie produceren wij dan ook, in tegenstelling tot andere online drukkers, al het bestelde drukwerk zelf. We werken met de beste offset en digitale drukpersen en onze medewerkers hebben jarenlange ervaring. Drukwerk leveren we dan ook altijd in hoogwaardige kwaliteit. 
<br>
<br>
<h2>Over Reclameland</h2>
Bij de online drukkerij is automatisering het sleutelwoord. De opties en mogelijkheden in het gebruiksvriendelijke bestelproces zijn eindeloos en omdat het productieproces zo efficiënt mogelijk is ingericht, kan het drukwerk snel gedrukt en geleverd worden. Dankzij het continu meegaan in de laatste innovaties mag Reclameland zich de snelste en meest innovatieve drukkerij van Nederland noemen.
<br><br>
In ons traffic centrum wordt uw order verwerkt en controleren we uw bestand(en). Onze dtp-afdeling controleert of uw aangeleverde bestand voldoet aan de aanleverspecificaties. Als onze dtp-ers de bestanden hebben goedgekeurd, zetten zij deze klaar voor de productiemedewerkers. 
<br><br>
Wij produceren ons drukwerk op Komori en Heidelberg offset persen die zowel full colour als PMS drukken. Uw digitale drukwerk drukken wij op onze HP Indigo pers, de beste digitale drukpers ter wereld. Voor ons drukwerk gebruiken wij mild solvent ultra inkt. Dit is de nieuwste inkt op de markt die is doorontwikkeld op het gebied van milieu, kleurechtheid, duurzaamheid en krasvastheid. 
<br><br>
Hebt u uw drukwerk bij ons besteld? U ontvangt bij elke handeling van uw bestelling een e-mail. Hierin leest u alle informatie over de status. Deze informatie vindt u overigens ook in uw account. Daarnaast krijgt u een e-mail of sms als uw bestelling wordt verzonden. DHL haalt dagelijks alle bestellingen op en bezorgt het de volgende dag al bij u. Zo zijn we u altijd snel van dienst.

<br><br>
<h2>Onze producten</h2>
<a title=""Flyers drukken"" href=""https://www.reclameland.nl/drukken/flyers"" target=""_blank"">Flyers drukken</a><br>
<a title=""Folders drukken"" href=""https://www.reclameland.nl/drukken/folders"" target=""_blank"">Folders drukken</a><br>
<a title=""Magazines drukken"" href=""https://www.reclameland.nl/drukken/magazines-brochures"" target=""_blank"">Magazines drukken</a><br>
<a title=""Stickers drukken"" href=""https://www.reclameland.nl/drukken/stickers"" target=""_blank"">Stickers drukken</a><br>
<a title=""Briefpapier drukken"" href=""https://www.reclameland.nl/drukken/briefpapier"" target=""_blank"">Briefpapier drukken</a><br>
<a title=""Visitekaartjes drukken"" href=""https://www.reclameland.nl/drukken/visitekaartjes"" target=""_blank"">Visitekaartjes drukken</a><br>
<a title=""Enveloppen bedrukken"" href=""https://www.reclameland.nl/drukken/enveloppen"" target=""_blank"">Enveloppen bedrukken</a><br>
<a title=""Notitieblokken drukken"" href=""https://www.reclameland.nl/drukken/notitieblokken"" target=""_blank"">Notitieblokken drukken</a><br>
<a title=""Boeken drukken"" href=""https://www.reclameland.nl/drukken/boeken"" target=""_blank"">Boeken drukken</a><br>
<a title=""Offertemappen drukken"" href=""https://www.reclameland.nl/drukken/offertemappen"" target=""_blank"">Offertemappen drukken</a><br>
<a title=""Deurhangers drukken"" href=""https://www.reclameland.nl/drukken/deurhangers"" target=""_blank"">Deurhangers drukken</a><br>
<a title=""Spandoeken bedrukken"" href=""https://www.reclameland.nl/drukken/banners-spandoeken"" target=""_blank"">Spandoeken bedrukken</a><br><br>
Bekijk onze website voor vele andere <a title=""Drukwerk producten"" href=""https://www.reclameland.nl"" target=""_blank"">drukwerk producten</a> of neem <a title=""Contactformulier"" href=""https://www.reclameland.nl/page/contactformulier"" target=""_blank"">contact</a> op met onze drukwerkspecialisten.",Prints en uithangbordenwinkel,https://www.reclameland.nl,Zakelijke diensten,Madepolderweg 7A,info@reclameland.nl,050 8700 130,9608 PX,Westerbroek,Nederland
Viking Nederland,"Sinds 1994 leveren wij onmisbare kantoorbenodigdheden aan grote en kleine bedrijven door heel Nederland. Viking levert alles van bureau-accessoires en papier tot kantoormeubilair en technologieproducten als USB-sticks, printers, beeldschermen en papiervernietigers. Maar ook kunt u bij ons terecht voor facility-, veiligheids- en warehouseproducten.",Kantoorbenodigdheden winkel,http://www.vikingdirect.nl,Zakelijke diensten,Columbusweg 33,contact@vikingdirect.nl,077-3238900,5928 LA,Venlo,Nederland
CCV Group,"CCV offers a range of in store payment solutions, powerful online solutions and self service payment terminals throughout Europe.",Zakelijke diensten,http://ccv.nl,Zakelijke diensten,,service@nl.ccv.eu,088 228 9849,,,Nederland
STRATO Nederland,"<p>Heb je een concreet probleem waarbij je onze hulp nodig hebt?</p> 

<p><b>Neem dan contact met ons op! Dit kan op <a href=""https://www.facebook.com/STRATOhelpt/"" rel=""nofollow"">Facebook</a>, <a href=""https://twitter.com/STRATO_helpt"" rel=""nofollow"">Twitter</a>, via de pagina <a href=""https://www.strato.nl/faq/"" rel=""nofollow"">hulp & contact</a> of telefonisch via 020 - 703 82 32.</b></p> 

<p>Het team van <i>STRATO helpt</i> staat voor je klaar!</p> 

<p>STRATO is de betrouwbare webhoster voor iedereen die online succesvol wil zijn. Bij STRATO is webhosting fair en eenvoudig – zonder gedoe en tegen de beste prijs.<p>

<p>Het productportfolio biedt alles wat je nodig hebt. Domeinnaam, e-mail, website en server, maar ook online marketingtools en de populaire cloud storage HiDrive. Bij STRATO vind je totaalpakketten met flexibele looptijden, een 30 dagen geld-terug-garantie en een bekroonde klantenservice.<p>

<p>STRATO is sinds zijn oprichting in 1997 uitgegroeid tot een van de grootste hostingaanbieders ter wereld en beheert ruim 4 miljoen domeinnamen voor meer dan 2 miljoen klanten. STRATO heeft circa 500 medewerkers en twee ISO-gecertificeerde datacenters in Berlijn en Karlsruhe, met meer dan 70.000 servers. STRATO AG is onderdeel van de United Internet-groep.<p>",Webhostingbedrijf,https://www.strato.nl/,Zakelijke diensten,Strawinskylaan 3051,trustpilot@strato.nl,020-7038232,1077 ZX,Amsterdam,Nederland
De Telegraaf Webshop,"De Telegraaf Webshop is onderdeel van Mediahuis E-commerce / Mediahuis Nederland. De Telegraaf Webshop is gericht op de lezers en gebruikers van De Telegraaf.  

De shop brengt dagelijks nieuwe koopjes die het leven leuker en makkelijker maken. Daarnaast presenteert het team in 2021 een aantal nieuwe shop in shops, gericht op de behoeftes van de klant waarbij inspiratie en advies een grote rol zullen spelen.",Promotieartikelenwinkel,https://webshop.telegraaf.nl,Zakelijke diensten,Basisweg 30 (geen retouradres),info@webshop.telegraaf.nl,088 - 824 85 80,1043 AP,Amsterdam,Nederland
Mijnwebwinkel,"Met Mijnwebwinkel maak je gemakkelijk je eigen webshop. Alle functies die je nodig hebt, altijd gratis. 

Wij geloven dat een webwinkel voor iedereen bereikbaar moet zijn. Sinds onze oprichting in 2005 hebben we dan ook maar één doel: iedereen voorzien van een eigen, succesvolle webwinkel.",E-commerceplatform,http://www.mijnwebwinkel.nl/,Zakelijke diensten,Molenstraat 56,info@mijnwebwinkel.nl,+31 (0)412 66 80 11,5341 GE,Oss,Nederland
AfterPay,"Betalen doe je achteraf, nadat je de bestelling veilig ontvangen hebt. Dan weet je zeker of het product bevalt en betaal je alleen voor wat je wilt houden. Zo beschermen wij jou als consument, dat is wel zo prettig.

 Zodra de bestelling geleverd is, ontvang je een betaaloverzicht per e-mail. Deze kan je direct via de betaalknop of binnen 14 dagen voldoen. Dat is zorgeloos online winkelen zonder verplicht account.",E-commerceplatform,http://www.afterpay.nl,Zakelijke diensten,Hogehilweg 8,klantenservice@afterpay.nl,020 7 230 270,1101CC,Amsterdam,Nederland
Nl Jimdo,"Met Jimdo maak je zelf een professionele website, die er fantastisch uitziet op je computer, tablet en telefoon. Met Jimdo zijn al miljoenen webwinkels, portfolio's, blogs en bedrijfswebsites gemaakt. We hebben Jimdo zo opgezet dat je zonder voorkennis zelf aan de slag kunt. Lijkt dat je wat? Dan kun je meteen gratis beginnen!",Webdesigner,http://jimdo.nl,Zakelijke diensten,,support@jimdo.nl,,,,
DHL,,Koeriersbedrijf,http://www.dhl.nl,Zakelijke diensten,,,,,,Nederland
UPS,,Koeriersbedrijf,http://www.ups.com,Zakelijke diensten,Kokbjerg 10,,80302222,6000,Kolding,Nederland
Verzorgdbesparen,We willen allemaal lagere kosten en meer geld over houden voor leuke dingen. Dat begint door minder te gaan betalen voor onze maandelijkse lasten. En dat is precies wat Verzorgd Besparen doet.,Telemarketingservice,http://verzorgdbesparen.nl,Zakelijke diensten,Hoenderkamp 20,partners@verzorgdbesparen.nl,085 – 048 3164,7820 VZ,Emmen,Nederland
Online Payment Platform (Online Betaalplatform),Online Payment Platform is een betaaldienstverlener die voornamelijk wordt ingezet door platformen en marktplaatsen voor het verwerken van (online) betalingen.,Betalingsdienst,https://onlinepaymentplatform.com,Zakelijke diensten,Kanaalweg 1,,+31 (0)15 889 8888,2628 EB,Delft,Nederland
Max ICT B.V.,"Max ICT is in 2007 gestart als ICT totaalaanbieder voor de zakelijke markt & consument. Met een uitgebreid assortiment van ruim 3.000.000 producten en een professioneel accountmanagementteam dat voor je klaarstaat, biedt Max ICT via diverse webshops, waaronder maxict.nl, maxoffice.nl en maxsupplies.nl maximaal bestelgemak, zodat al je ICT behoeftes snel en efficiënt worden ingevuld. We werken samen met ruim 18000 fabrikanten, waaronder merken als HP, Dell, Lenovo, Intel, Samsung, Siemens, Toshiba en Microsoft. Max ICT is hierdoor in staat om altijd een passende oplossing aan te bieden die aansluit op jouw specifieke situatie met persoonlijke hulp en snelle levering!",Televisiewinkel,https://maxict.nl/,Zakelijke diensten,Castorstraat 17,webcare@maxict.nl,013-5774574,5047 RC,Tilburg,Nederland
Packs,Overnight en Innight aflevering van zendingen voor bedrijven en particulieren in de Benelux. Packs heeft 70 zelfstandige PacksPartners in de Benelux die vanuit hun PacksCenter van maandag t/m zaterdag zorgen voor de aflevering van zendingen.,Post- en pakketbezorging,http://www.packs.nl,Zakelijke diensten,Nijverheidstraat 2,reviews@packs.nl,088-80.40.800,4143HM,Leerdam,Nederland
PAYEER ,"Международные переводы
Прием платежей на сайте
Обмен фиатных валют/криптовалют на бирже
Автоматический обмен
Массовые переводы",Betalingsdienst,http://payeer.com,Zakelijke diensten,,,,,,Rusland
MPF Europe,"Create an abstract artwork of your own pet. Choose from different varieties and colors and upload your own photo! Custom posters for our four-legged friends!
",Zakelijke diensten,http://mypetframe.eu,Zakelijke diensten,Marketing 32A,info@mypetframe.eu,,6921RE,Duiven,Nederland
YoungCapital,"Ben je op zoek naar werk? YoungCapital biedt vacatures voor studenten, starters en young professionals in heel Nederland. Bekijk ons ruime aanbod aan bijbaantjes, parttime banen, fulltime (starters)banen, traineeships, vakantiewerk, maar ook stage vacatures.",Wervings- en selectiebureau,http://www.youngcapital.nl,Zakelijke diensten,Siriusdreef 12,info@youngcapital.nl,020 - 653 1544,2132 WT,Hoofddorp,Nederland
Mollie,"Mollie is a pioneer in the payment industry. With our simple and clear payments-API, Mollie facilitates companies of all sizes to scale and grow by using different payment methods. Mollie currently has 120K customers in Europe and is growing. 

If you have a Mollie account with us, you can contact us via our dedicated merchant portal or consult our Help Center. Please note that, as a payment service provider, we are solely responsible for processing the payments. If you are a consumer and have questions about your payment, please consult our dedicated portal.

",Betalingsdienst,https://www.mollie.com,Zakelijke diensten,Keizersgracht 126,info+trustpilot@mollie.com,+31 20 8 20 20 70,1015 CW,Amsterdam,Nederland
Piggy,"Piggy is the leading loyalty platform in the Netherlands. With more than 5000 businesses and two million members, piggy revolutionizes traditional loyalty concepts and works with each business to design a customized, unique rewards suite their customers actually want. Piggy unlocks new opportunities for customer engagement and digital advocacy. Piggy is headquartered in Maarssen. For more information, visit our website.",E-commerceplatform,http://piggy.nl,Zakelijke diensten,Bisonspoor 3002-B901,info@piggy.nl,+31857737177,3605LT,Maarssen,Nederland
Bizay,"Global e-commerce one-stop shop - Marketing products and services. 
YOUR BUSINESS YOUR WAY",Zakelijke diensten,http://bizay.nl,Zakelijke diensten,,,,,,Nederland
Klarna Nederland,"<p style=""clear:both"">

Hello. Welcome to Klarna. We are here to make shopping a smoooth experience. Let us know what you think! 

</p>



<p style=""clear:both"">

Reach out to us if there's anything we can do for you.

</p></br>https://www.klarna.com/nl/klantenservice </p>",E-commerceplatform,http://www.klarna.com/nl,Zakelijke diensten,,,,,,Nederland
DPD Pakketservice,"Als toonaangevende dienstverlener levert DPD dag in, dag uit standaard- en expresspakketten. Dit doen we namens duizenden tevreden klanten. Wij zijn deskundig op onze eigen nationale markt. En wij maken deel uit van de internationale DPDgroup.

Communicatie heeft de volle aandacht bij DPD. Of het nu gaat om communicatie met onze klanten, met potentiële medewerkers of met journalisten. Als onderneming zijn wij ons ook bewust van onze sociale verantwoordelijkheden naar medewerkers en milieu.",Koeriersbedrijf,http://www.dpd.nl,Zakelijke diensten,Westfields 1410,marketing@dpd.nl,,5688 HA,Oirschot,Nederland
OpinieLand,Geef je mening over producten en diensten die je dagelijks gebruikt in onze online enquêtes.  ,Zakelijke diensten,http://www.opinieland.nl,Zakelijke diensten,,,,,,Nederland
Bankhoesdiscounter,BankhoesDiscounter is een toonaangevend bankhoezen specialist. Door onze focus op één product bieden we de klant een verrassend en eigentijds assortiment aan voor de allerbeste prijs.,Zakelijke diensten,http://bankhoesdiscounter.nl,Zakelijke diensten,,,,,,Nederland
Reviva,"Flexibele pakketbezorging, met het betrouwbare bezorgnetwerk van Reviva! Laat je klanten zelf kiezen waar en wanneer ze hun pakket geleverd willen hebben. Voor verzekerd vervoer van zendingen, waar jij en je klant veel waarde aan hechten, kies je voor ...",Koeriersbedrijf,https://reviva.nl,Zakelijke diensten,de Tweeling 18,info@reviva.nl,,5215MC,'s Hertogenbosch,Nederland
Cross Lighter,"Wie zijn wij?
CrossLighter is opgericht door Berend Simons, een jonge ondernemer met veel passie en ambitie. Simons is al van jongs af aan gefascineerd door aanstekers. ‘’Spelen met aanstekers heb ik altijd leuk gevonden, maar aanstekers zijn natuurlijk ook praktisch. Zonder vuur bestaat er immers geen leven’’ Soms lukt het niet om iets aan te steken door de weersomstandigheden. Het regent of het waait heel hard. Elektrische aanstekers zijn dan de perfecte oplossing. Daarnaast gaan gasaanstekers snel leeg, je moet dus telkens een nieuwe aansteker kopen. Op den duur kost dat aardig veel geld. Met de elektrische aansteker is dit probleem verholpen, de aansteker hoeft slechts eenmalig aangeschaft te worden. Als de aansteker leeg is, kun je hem gewoon opladen aan het lichtnet.

Momenteel probeert Simons ook terrein te winnen op de markt in het buitenland. ‘’Er is veel vraag naar elektrische aanstekers, ik ben veel bezig met innovatie zodat de klant altijd de beste kwaliteit krijgt.”

Veiligheid staat hoog in het vaandel
De elektrische aanstekers van CrossLighter zijn niet alleen praktisch, maar ook nog eens veilig. De elektrische aansteker produceert namelijk geen vlam, maar een plasmastraal. Deze straal ondervindt weinig invloed van de weersomstandigheden waardoor de plasmastraal makkelijk te controleren is.

Elk jaar gebeuren er veel ongelukken doordat mensen onverantwoord met vuurwerk omgaan, ze gebruiken bijvoorbeeld gasaanstekers. De vlamloze aanstekers van CrossLigher zijn ideaal voor het afsteken van vuurwerk. Dankzij de plasmastraal kun je veilig en verantwoord vuurwerk afsteken.

Diversiteit
De elektrische aanstekers zijn voor verschillende doeleinden bruikbaar. De plasma-aanstekers krijgen veel positieve recensies van rokers. De aanstekers zijn verkrijgbaar in veel verschillende kleuren en maten, ieder persoon kan aan zijn trekken komen. Daarnaast zijn de aanstekers ook geschikt voor huishoudelijk gebruik, bijvoorbeeld om kaarsen of de barbecue aan te steken. De aanstekers zijn multifunctioneel, ze zijn namelijk ook erg handig bij outdoor gebruik. Ideaal voor sporters, een dagje survivallen of outdoor activiteiten.",Elektrische apparatuur groothandel,http://crosslighter.com,Zakelijke diensten,Ondernemingsweg 3a,info@crosslighter.com,,2404HM,Alphen aan den Rijn,Nederland
Cadeaubon.nl,"Een geschikte cadeaubon voor iedereen en elk moment. Kies uit meer dan 150 cadeaubonnen! 
Ook voor digitale cadeaubonnen ben je bij Cadeaubon.nl aan het juiste adres.
Laat je verrassen door ons uitgebreide en veelzijdige aanbod! 
<br> 
<br>
☑ Keuze Cadeaukaarten <br> 
☑ Eten & Drinken <br> 
☑ Wellness & Beauty<br> 
☑ Wonen & Tuin<br> 
☑ Mode & Accessoires<br> 
☑ Muziek, Apps & Games<br> 
☑ Sportief<br> 
☑ Lezen & Ontspannen<br> 
☑ Wonen & Tuin<br> 
☑  (Online) shoppen <br> 
☑ Overnachten & Belevenissen<br> 
☑ Baby's & Kinderen<br> 
☑ Cultuur, Films & Uitjes<br> 
☑ Goede Doelen<br> 
<br> 
Voor 17:00 uur besteld = dezelfde dag verstuurd. Bestel nu online!",Cadeauwinkel,http://cadeaubon.nl,Zakelijke diensten,,info@cadeaubon.nl,,,,Nederland
Groupdeal,"Groupdeal biedt dagelijks producten en diensten aan tegen een aantrekkelijke prijs met kortingen die oplopen tot wel 90%.

Groupdeal is begin 2010 gelanceerd en heeft sindsdien duizenden producten en diensten aangeboden uiteenlopend van mode, sieraden, elektronica, beauty & wellness, cursussen, evenementen en weekendjes weg.

Alle aanbiedingen zijn slechts tijdelijk en op=op, dus zorg dat je geen aanbieding mist.",Promotieartikelenwinkel,https://groupdeal.nl/,Zakelijke diensten,Basisweg 30 (geen retouradres!),info@groupdeal.nl,088 - 824 75 40,1043 AP,Amsterdam,Nederland
Between Staffing,"Wij zoeken, vinden en contracteren ICT-professionals voor interim opdrachten. Vanuit de kracht van personal staffing zetten wij ons in om de juiste kandidaat met de juiste opdrachtgever te verbinden. Dit doen wij sinds 2000. Tot onze opdrachtgevers behoort een groot deel van de centrale overheid, banken, verzekeraars, provincies, universiteiten, multinationals en system integrators. Wij streven naar het maken van de juiste match tussen opdrachtgever en professional. De juiste persoon, op het juiste moment, op de juiste plek!",Wervings- en selectiebureau,http://between.com,Zakelijke diensten,Kuiperbergweg 50,info@between.com,+31(0)20 – 584 0857,1101 AG,Amsterdam,Nederland
Offerte.nl,Boekhouder nodig? Op zoek naar een betrouwbare koffieleverancier? Kom via Offerte.nl in contact met betrouwbare dienstverleners in verschillende branches. Een aanvraag indienen duurt slechts twee minuten!,Intermediair,https://offerte.nl,Zakelijke diensten,Westeinde 12,info@offerte.nl,088 - 771 23 45,1017ZN,Amsterdam,Nederland
National Pen,"National Pen are the worldwide leaders in personalised promotional products. We provide high value promotional products for businesses and professionals in every industry at low factory direct pricing and low order quantities.

We provide branded trade show giveaways and corporate gifts such as personalised pens, key chains, note pads, magnets, calendars, mugs, shopping bags and more. 

National Pen has been in business for over 50 years and our European operation services over 26 countries.",Promotieartikelen leverancier,https://www.pens.com/uk/,Zakelijke diensten,UK Admail 95,Trustpilot_IR@pens.com,08001456011,Manchester M60 9FJ,Manchester,Verenigde Staten
Versio,Versio biedt voordelige domeinnaamregistratie en hostingpakketten. Wij staan voor uitstekende support en goede kwaliteit. ,Webhostingbedrijf,http://versio.nl,Zakelijke diensten,Ceintuurbaan 26a,support@versio.nl,n.v.t. ,8024 AA,Zwolle,Nederland
AMP Groep,We lezen elke werkdag alle reacties.,Koeriersbedrijf,http://www.ampgroep.nl,Zakelijke diensten,Pakketboot 57,info@ampgroep.nl,0900 267 56 44,3991CH,Houten,Nederland
Outspot,"<p>Outspot is Europa&rsquo;s grootste aanbiedingen platform met <strong>meer dan 100.000 dagelijkse bezoekers</strong>. Dankzij wereldwijde partners is Outspot in staat om haar klanten iedere dag te voorzien van een gevarieerd aanbod topaanbiedingen tegen uitzonderlijke prijzen.</p>
<p>Het team van experts selecteert zorgvuldig producten op kwaliteit en prijs en volgt de nieuwste trends. Het aanbod strekt zich uit van tuinartikelen, dekbedden, elektrische apparatuur tot wereldwijde exclusieve all-in vakanties in ieder seizoen.</p>
<p>Elke deal loopt <strong>maximaal zeven dagen en tot zolang de voorraad strekt</strong>, dus wees er tijdig bij. Koop tegen maximale kortingen en geniet van de vele voordelen:</p>
<ul>
    <li><strong>Gratis levering</strong></li>
    <li><strong>30 dagen bedenktijd</strong></li>
    <li><strong>Gratis retour</strong></li>
</ul>
<p>Word lid van de Outspot community. Volg ons op Facebook <strong>(meer dan 60.000 fans).</strong></p>",Promotieartikelenwinkel,http://www.outspot.nl/?src=trustpilot-NLNL,Zakelijke diensten,Dorp 16,info@outspot.nl,085 888 06 26,9830,Sint-Martens-Latem,België
OVVIS,OVVIS biedt een ruim assortiment die bestaat uit producten met een eerlijke prijs. Achter OVVIS staat een jong en ambitieuze organisatie die al geruime tijd actief is in de branche. Door deze jarenlange ervaring kunnen wij een uitstekende service bieden. Het assortiment wordt voortdurend vernieuwd en uitgebreid.,Kantoormeubilair winkel,http://ovvis.nl,Zakelijke diensten,Kuppersweg 59,support@ovvis.nl,+31858085223,2031EB,Haarlem,Nederland
Woosa B.V.,WooCommerce plugin laten maken? Woosa ondersteunt jou bij het laten maken van een schaalbare WooCommerce plugin. Lage investering & onbeperkt support!,E-commerceservice,http://woosa.com,Zakelijke diensten,Zilverparkkade 72,support@woosa.com,0320 - 337777,8232WK,Lelystad,Nederland
Premiumxl24,"Premiumxl is een internationale handelsonderneming die u een breed assortiment biedt tegen de beste prijzen.

Geen orderbevestiging of antwoord ontvangen? Gaarne check ook je spam. Stuur ons een e-mail voor een snel reactie op ons e-mailadres. Reactie binnen 2 werkdagen. Open: tussen 09.00 uur en 17.00 uur. Gesloten op feestdagen en op weekend.

Neem gewoon contact met ons op: info@premiumxl24.nl",Decoratie- en interieurwinkel,http://premiumxl24.nl,Zakelijke diensten,,info@premiumxl24.nl,+31 (10) 340 0855,,,Nederland
Incasso Center,,Zakelijke diensten,http://www.incassocenter.nl,Zakelijke diensten,,,,,,Nederland
Visma eAccounting,"Visma eAccounting is gemaakt voor ondernemers die de administratie snel en goed willen regelen. Zelf of door online samen te werken met een accountant of administratiekantoor.

Als ondernemer online boekhouden en onbeperkt factureren voor 18,- per maand. Overal toegang en inzicht, ook met de gratis app voor iPhone en Android.",Accounting software bedrijf,http://nl.visma.com/eaccounting,Zakelijke diensten,H.J.E. Wenckebachweg 200,vragen@visma.com,020-2626926,1096 AS,Amsterdam,Nederland
Dynalogic,"Als full service bezorgspecialist en verlengstuk van succesvolle bedrijven vergroot Dynalogic de waarde van het bestelde product. Dynalogic bezorgt, verzorgt en ontzorgt door waardeproducten op het door de klant gewenste moment en locatie te bezorgen.

Dynalogic is meer dan een bezorgdienst. Vanaf het moment dat een bestelling bij ons binnenkomt, staat u als klant bij ons op het netvlies. We houden u op de hoogte zodat u precies weet wanneer u uw bestelling kunt verwachten. Onze bezorgspecialisten zijn ervaren in het vervoeren van kostbare en kwetsbare producten. Ze zijn 100% met zorg voor u onderweg. Wij voelen ons medeverantwoordelijk en zien het als onze bijdrage aan de door u beloofde service, kwaliteit en beleving van het product.
 
Wij noemen dit more than delivery: bezorging afgestemd op de wensen van uw klant. Daar wordt iederéén blij van!
",Koeriersbedrijf,https://www.dynalogic.nl,Zakelijke diensten,Rosmolenlaan 7,wecare@dynalogic.eu,,3447 GL,Woerden,Nederland
GLS Netherlands,                                                        ,Koeriersbedrijf,http://www.gls-netherlands.com,Zakelijke diensten,,,,,,Nederland
Voerautomaat.com,"Ben je op zoek naar een automatische voerautomaat voor jouw kat of hond? Bij Voerautomaat.com vind je breed assortiment aan automatische voerbakken, slimme voerautomaten en drinkfonteinen speciaal voor honden en katten. Voerautomaat.com is de eerste voerautomaat winkel in Nederland en België en sinds de oprichting hebben we al vele viervoeters blij gemaakt.
",Dierenwinkel,http://voerautomaat.com,Zakelijke diensten,,klantenservice@voerautomaat.com,085 - 3038926,3551SC,Utrecht,Nederland
Fansupply,"Fansupply helpt bedrijven en influencers bij het aanbieden van bedrukte kleding en merchandise. Wij kunnen met trots zeggen dat we samenwerken met de grootste influencers van de Benelux. Fansupply is een echte one stop shop waar de productie en fulfilment wordt verzorgd in onze productiehal met de beste apparatuur. Bovendien ontwikkelen we zelf de webshops en helpen we bij het ontwerpen van jouw merchandise in samenwerking met onze designers.
",Digitale afdrukservice,http://fansupply.com,Zakelijke diensten,,info@fansupply.com,,,Breda,Nederland
BOBEX Nederland,Vergelijk offertes en vind betrouwbare vakspecialisten.,Webdesigner,http://www.bobex.nl,Zakelijke diensten,,info@bobex.nl,(010) 714 47 14,,,Nederland
Vistaprint,"Vistaprint geeft talloze beginnende en ervaren ondernemers van over de hele wereld toegang tot professioneel marketingmateriaal. Het uitgebreide aanbod aan kwaliteitsproducten tegen betaalbare prijzen en het eenvoudige ontwerpproces, zorgen ervoor dat iedereen toegang heeft tot unieke materialen waarmee ze hun boodschap bij hun klanten kunnen brengen.",Prints en uithangbordenwinkel,https://www.vistaprint.nl,Zakelijke diensten,Hudsonweg 8,klantenhulp@vistaprint.com,020-708 34 59,5928 LW,Venlo,Nederland
Drukland.nl,"Drukland.nl is een Nederlandse online drukkerij. Bij ons betaal je altijd een lage prijs voor je drukwerk. Van flyers, brochures en folders tot posters, enveloppen en visitekaartjes. Wist je dat we zelfs 50.000.000 flyers per jaar drukken? Bij Drukland.nl bestel je al je drukwerk eenvoudig online. We zijn dé goedkoopste online drukkerij met de snelste levering. Word jij ook één van onze 80.000 blije klanten?
<br><br>
<h2>Eigen productie van Drukland.nl</h2>
Vanaf onze productielocatie maken wij vrijwel al het bestelde drukwerk. Flyers, brochures, folders en posters, maar ook grotere producten als rollup banners en presentatiewanden maken we zelf. Offset drukwerk maken we met onze Komori drukpersen. Met deze drukpersen maken we zowel full colour als PMS drukwerk. We combineren zo veel mogelijk bestellingen op drukvellen. Op deze manier kunnen we vele orders in één keer drukken en verder verwerken. Door deze slimme manier van produceren, kunnen we de het beste drukwerk altijd voor de laagste prijs aanbieden. Digitaal drukwerk maken wij met onze HP Indigo persen. Deze digitale drukpersen zijn tegenwoordig zo goed, dat de kwaliteit vrijwel gelijk is aan die van offset drukwerk. Digitaal drukwerk is de meest gekozen drukmanier voor lage oplage drukwerk.
<br><br>
<h2>Onze producten</h2>
Bij Drukland.nl kun je onder andere terecht voor:
<br><br>
<a title=""Flyers drukken"" href=""https://www.drukland.nl/drukken/flyers"" target=""_blank"">Flyers drukken</a><br>
<a title=""Rollup banners drukken"" href=""https://www.drukland.nl/drukken/rollup-banner"" target=""_blank"">Rollup banners drukken</a><br>
<a title=""Enveloppen drukken"" href=""https://www.drukland.nl/drukken/enveloppen"" target=""_blank"">Enveloppen drukken</a><br>
<a title=""Briefpapier drukken"" href=""https://www.drukland.nl/drukken/briefpapier"" target=""_blank"">Briefpapier drukken</a><br>
<a title=""Spandoeken drukken"" href=""https://www.drukland.nl/drukken/spandoeken"" target=""_blank"">Spandoeken drukken</a><br>",Prints en uithangbordenwinkel,https://www.drukland.nl,Zakelijke diensten,Madepolderweg 7A,info@drukland.nl,088 - 3500 100,9608PX,Westerbroek,Nederland
Versluis paint & non-paint B.V.,Sinds 1946 dé betrouwbare specialist en leverancier in verfbenodigdheden.,Groothandelaar,http://www.versluis.nl,Zakelijke diensten,Flensburg 11,info@versluis.nl,+31 180 61 74 11,2993 LS,Barendrecht,Nederland
Multi Gel Remover ®,"Multi Gel Remover® can be used for the following appliances:

removal of paint
removal of grease
removal of oil
removal of glue
removal of enamel
removal of ink
removal of rust
cleaning of printheads
cleaning of PCBs
stripping of wood
photoresist stripper
removal of resin
removal of chewing gum
removal of weeds biodegradable method
removal of graffiti
removal of nail polish
cleaning of brakes
cleaning of light alloy wheels
",Huishoudchemicaliën leverancier,http://multigelremover.eu,Zakelijke diensten,Pannekoekendijk 23A,info@multigelremover.eu,+31 (0)85 888 3500,7887 EV,Erica,Nederland
Cheflix,"Op Cheflix volg je online masterclasses van de beste Michelinsterren chefs van Nederland. Kook samen met de chefs de sterren van de hemel en ontdek hun tips, valkuilen, trucs en geheimen. De masterclasses zijn voor iedereen geschikt, je hebt geen kook ervaring nodig! Daarnaast krijg je bij iedere masterclass de recepturen en handige boodschappenlijstjes er gewoon bij, zodat je makkelijk en snel zelf aan de slag kunt.",E-commerceservice,https://cheflix.com,Zakelijke diensten,Buitenveldertselaan 106,hello@cheflix.com,+31 20 486 6729,1081 AB,Amsterdam,Nederland
BMD Transportservice B.V.,,Transportbedrijf,http://bmd-transport.nl,Zakelijke diensten,De Prinsenhof 11,project@bmd-transport.nl,0880027100,4004LN,TIEL,Nederland
Turbobit,"Fast File Sharing System and free hosting for files. Unlimited space for file storage. Data transfer speed up to 1 Gb/sec. File download in multiple streams. Download via browser, FTP. Simultaneous download of multiple files.",Cloud opslagservice,http://www.turbobit.net,Zakelijke diensten,,,,,,Cyprus
Bouwmaat,"Ruim 13.500 producten waaronder bouwmaterialen, sanitair, elektra en gereedschappen voor iedere professional. Bouwmaat: Alles voor slimmer bouwen!",Bouwmaterialen leverancier,http://bouwmaat.nl,Zakelijke diensten,Nijverheidsweg 17,,,3751 LP,Bunschoten-Spakenburg,Nederland
evofenedex,"evofenedex, de vereniging voor ondernemers die weten dat in logistiek en export winst te behalen valt.",Zakelijke diensten,http://www.evofenedex.nl,Zakelijke diensten,Signaalrood 60,info@evofenedex.nl,079 - 346 73 46,2718 SG Zoetermeer,Zoetermeer,Nederland
123inkt.nl,"**BESTE WEBWINKEL VAN NEDERLAND 2018**

Met ruim 3 miljoen klanten is 123inkt.nl marktleider op het gebied van online verkoop van inktcartridges, toners en fotopapier. Sinds de start in 2000 is 123inkt.nl één van de snelst groeiende en meest succesvolle webwinkels van Nederland met nog steeds een enorme groei.

Al 13 jaar is 123inkt.nl door consumenten verkozen tot ""Beste Webwinkel"" in de categorie Computer, hard- & software bij de Shopping Awards (voorheen Nationale Thuiswinkel Awards) en de Webshop Awards. Daarnaast is 123inkt.nl in 2010, 2015 en 2016 grote winnaar van de overall publieksprijs ""Beste Webwinkel van Nederland"".

Bij 123inkt.nl vindt u overzichtelijk het grootste assortiment printersupplies voor de beste prijzen. Slimme logistieke processen en uitstekend voorraadbeheer zorgen ervoor dat ruim 97% van alle orders binnen 24 uur worden bezorgd.",Tonerleverancier,http://www.123inkt.nl,Zakelijke diensten,Nieuw Walden 56-64,info@123inkt.nl,0294-787123,1394PC,Nederhorst den Berg,Nederland
Homerr,"Vaak niet thuis als je pakketje wordt geleverd? Haal gemakkelijk én duurzaam je pakketje op bij een HomerrPunt bij jou in de buurt, wanneer het jou uit komt.",Koeriersbedrijf,http://homerr.com,Zakelijke diensten,Haarlemmerweg 520,klantenservice@homerr.com,020 - 244 48 22,1014 BL,Amsterdam,Nederland
Red je Pakketje,Red je Pakketje is de grootste pakketdienst van Nederland op het gebied van same day delivery. Voor ons is er niks belangrijker dan de mening van onze klanten.,Koeriersbedrijf,http://www.redjepakketje.nl,Zakelijke diensten,Meander 601,vragen@redjepakketje.com,,6825ME,Arnhem,Nederland
OKayks,Vegan & Glutenvrije taarten  ,E-commerceplatform,http://okayks.nl,Zakelijke diensten,,info@okayks.nl,,,,Nederland
Chordify,"Chordify turns any music or song (YouTube, Deezer, SoundCloud, MP3) into chords. Play along with guitar, ukulele, or piano with interactive chords and diagrams.",Zakelijke diensten,https://chordify.net,Zakelijke diensten,Zuiderpark 14,,,9724 AG,Groningen,Nederland
Pure-Extract-CBD B.V.,"Pure Extract offers a wide range of premium CBD products. Through our products, we want you to discover the power of hemp and make you appreciate it at its true value.
",E-commerceservice,http://pure-extract-cbd.com,Zakelijke diensten,corkstraat 46,steven@pure-extract-cbd.com,0638158000,3047 Ac,rotterdam,Nederland
Raaak Personeel,Wil je op de hoogte blijven van onze vacatures en nieuws over Raaak en de arbeidsmarkt? Klik dan op onze pagina op 'vind ik leuk' en je krijgt onze berichten in je nieuwsoverzicht. Erg handig en geen aparte mailberichten.,Uitzendbureau,http://raaakpersoneel.nl,Zakelijke diensten,Edisonweg 12C,marketing@raaakpersoneel.nl,078 - 693 37 27,2952 AD,Alblasserdam,Nederland
Office Deals.nl,"Bij Office Deals.nl vindt u het meest complete assortiment kantoorartikelen met de beste prijs. Naast ons reguliere assortiment kunt u het volledige assortiment vinden van o.a. <a href=""http://www.office-deals.nl/herma"">Herma</a> & <a href=""http://www.office-deals.nl/durable"">Durable</a>",Kantoorbenodigdheden winkel,https://www.office-deals.nl,Zakelijke diensten,Einsteinstraat 5,info@office-deals.nl,078 - 202 00 00,3281 NJ,Numansdorp,Nederland
DiscountOffice.nl,"DiscountOffice.nl is de voordeligste online aanbieder van zakelijke artikelen n de Benelux. Bovendien de meest complete met ruim 160.000 artikelen waarvan 85% uit voorraad leverbaar is. Steeds meer bedrijven, scholen, gemeentes, instellingen en particulieren ontdekken het gemak, de service en gunstige prijs-kwaliteitsverhouding van DiscountOffice.nl.",Kantoorbenodigdheden winkel,http://discountoffice.nl,Zakelijke diensten,Achterwetering 29,marketing@discountoffice.nl,0182-389911,2871 RK,Schoonhoven ,Nederland
Jellow,"Jellow is het snelstgroeiende freelance self-sourcing platform van Nederland en België, opgebouwd door bedrijven en freelancers. Via Jellow hebben opdrachtgevers en freelancers altijd rechtstreeks contact, zonder tussenkomst van recruiters of intermediairs.""",E-commerceplatform,http://jellow.nl,Zakelijke diensten,Nieuwe Haven 25,info@jellow.nl,0357370352,1411 SG,Naarden,Nederland
CombiCraft,"CombiCraft is een in 1995 opgericht familiebedrijf waar kwaliteit hoog in het vaandel staat. Met meer dan twintig jaar ervaring is CombiCraft dé specialist in o.a. ballenbakballen, fijn-metaal, spuitgiet plastic en (drukwerk)bonnen. Ons assortiment is groot en blijft groeien - grotendeels met eigen productie - maar ook met de toekoop van producten om het assortiment compleet te maken. De groei van onze productie heeft ertoe geleid dat wij onze vestigingen in Achter-Drempt, Doetinchem, Epe, Apeldoorn en Wapenveld achter ons hebben gelaten en ons anno 2017 hebben gevestigd in een nieuw pand in Zwolle.",Groothandel kruidenierswinkel,http://www.combicraft.nl,Zakelijke diensten,,info@combicraft.nl,+31 (0)578 - 61 00 15,,,Nederland
PAY. ,"PAY. stond jaren geleden aan de wieg van de online betalingen. Van enkel iDEAL tot creditcards en incasso tot de inmiddels tientallen prepaidkaarten waarmee online betaald kan worden: wij hebben het allemaal meegemaakt. Inmiddels zijn we de wieg ontgroeid en leiden we dagelijks de verwerking van meer dan tienduizenden onlinebetalingen in goede banen. 

Heeft u een klacht over een webshop die gebruik maakt van PAY.?  Neem dan eerst contact op met de webshop. Komt u er niet uit? dan biedt PAY. een disputen systeem om te bemiddelen tussen u en de ondernemer. Op www.pay.nl/consument kunt u de betaling opzoeken en verdere stappen ondernemen.",Betalingsdienst,http://pay.nl,Zakelijke diensten,Jan Campertlaan 10,info@pay.nl,+31(0),3201 AX,Spijkenisse,Nederland
Ikastetiket,"kast Etiket A/S gespecialiseerd sinds 1986 
Ikast Etiket A/S werd opgericht in 1986. We zijn gespecialiseerd in het produceren, ontwerpen en ontwikkelen van verschillende producten zoals linten, etiketten, bandjes, tickets, sleutelhangers, stickers enz. We hebben meer dan 30 jaar ervaring op dit gebied. We zijn zeer behulpzaam tegenover de wensen van onze klanten, dankzij onze flexibiliteit op gebied van hulp en afhandelen kunnen we u verzekeren dat u tevreden kan zijn over uw aankopen.",Labelprinter,https://www.ikastetiket.nl/,Zakelijke diensten,Neptunvej 6,info@ikastetiket.nl,020 262 20 24,7430,Ikast,Denemarken
Watercooler Gigant,"Mocht u vragen hebben over onze producten of informatie willen verkrijgen, dan kunt u contact opnemen met de Watercooler Gigant.",Kantoorbenodigdheden winkel,http://www.watercoolergigant.nl,Zakelijke diensten,Edelgasstraat 50,info@watercoolergigant.nl,088 - 101 91 00,2718 SX ,Zoetermeer,Nederland
Verhuurtbeter.nl,"Verhuurtbeter.nl biedt u een unieke en moderne methode om een huurwoning te vinden. Iedereen die voldoet aan de voorwaarden maakt een eerlijke kans, omdat wij woningen toewijzen op basis van inschrijfduur. Zo helpen wij ú 10 keer sneller aan een woning dan corporaties! Start gratis met uw eigen profiel.",Huurwoningen,https://www.verhuurtbeter.nl,Zakelijke diensten,Calandstraat 56e,welkom@verhuurtbeter.nl,0883081000,3016CD,Rotterdam,Nederland
Schäfer Shop,"SCHÄFER SHOP maakt deel uit van de sterke en productieve Schäfer Groep.
In 75 jaar zijn we uitgegroeid tot een van de belangrijkste totaalinrichters voor magazijn, bedrijf en werkplaats in Europa. We bieden u hoogwaardige en uitgebreide oplossingen voor alle afdelingen in uw onderneming.

Onze competentie strekt zich uit van een complete magazijninrichting tot individuele systeemoplossingen, van kleine functionele werkplek binnen de productie tot totale kantoorinrichtingen. Maak gebruik van onze ervaring en ons veelzijdige, uit 85.000 producten bestaande assortiment incl. extern assortiment in onze webshop. Alles uit één hand, gecombineerd met vakkundig advies en grote marktkennis. Onze medewerkers zorgen voor een vlotte verwerking van uw order. Bovendien bespaart onze ervaren klantenservice u tijd en geld.

Uitzonderlijke belastbaarheid, hoge functionaliteit en talrijke uitbreidingsmogelijkheden. Dit geldt allemaal voor onze kantoorinrichting. Daarbij bieden wij u ook aantrekkelijk, innovatief design en oneindige combinatiemogelijkheden. Ook op kantoor kunt u vertrouwen op onze zorgvuldige planning, productie en montage. Ons kantoormeubelassortiment is aangevuld met afzonderlijke producten van andere fabrikanten. Feit blijft dat voor welk meubilair u ook kiest: onze jarenlange ervaring en vlotte service zorgen er voor dat u tevreden bent en blijft.

Naast eersteklas en functionele bedrijfs- en kantoorinrichting bieden wij u ook een grote hoeveelheid kantoorgebruiksartikelen aan. U vindt in ons assortiment o.a. een groot aanbod bekende merkproducten evenals hoogwaardige producten van eigen fabrikaat met uiterst voordelige prijzen. Onze klantendienst begeleidt u voor, tijdens en na uw bestelling. Bovendien bieden wij op alle producten een garantie van 3 jaar en heeft u een betalingstermijn van 30 dagen. Onze 24-uurs leverservice zonder extra kosten geldt voor alle gebruik- en verbruiksmaterialen. Bij een bestelling gedaan voor 17.00 wordt het artikel nog dezelfde werkdag verzonden. Deze artikelen worden aangeduid in onze webshop met het 24-uurs logo.

Ons assortiment bestaat uit de bekende SSI Schäfer-producten. Dit betekent merkkwaliteit rechtstreeks van de fabrikant, gekenmerkt door betrouwbaarheid, duurzaamheid en een hoog gebruiksgemak. Bovendien bespaart onze eigen SSI-reparatiedienst u onnodige kosten en langdurige zoektochten naar onderdelen. We hebben ons immers niet alleen de vakkennis uit de productie eigen gemaakt, maar ook de know-how van uw branche. Bij SSI Schäfer shop Industrie krijgt u een systeemoplossing voor de sectoren magazijn, bedrijf en werkplaats en dit rechtstreeks van de fabrikant. Met SSI Schäfer-producten kunnen we naast de ruime ervaring in B2B-verkoop ook teruggrijpen naar jarenlange ervaring van gerenommeerde producenten. Zo blijft u niet met vragen zitten over producten of mogelijkheden.

Al tientallen jaren bepalen wij met onze ervaring in aanzienlijke mate mede de relatiegeschenken-branche. Onze ervaring loont zich voor u! Wij staan u graag bij om al uw vragen rond keuze, optimale visualisering en speciale wensen te beantwoorden, wij komen desgewenst zelfs bij u ter plaatse. Voor grote projecten is onze ""Full Service"" een van onze sterke punten – een ""volledige ondersteuning"" te beginnen met de artikelkeuze, de optimale presentatie van uw reclameboodschap, de opslag tot en met de verzending van uw reclame-artikelen naar de gewenste adressen.

Uw onderneming geniet grenzeloos van onze kwaliteit en ons groot, Europees samenwerkingsverband. Schäfer Shop is vertegenwoordigd in 11 Europese landen en beschikt over een eigen internationale inkooporganisatie.

www.schaefer-shop.nl",Kantoormeubilair leverancier,http://www.schaefer-shop.nl,Zakelijke diensten,Meander 651,info@schaefer-shop.nl,026 - 384 7 384,6825 ME,Arnhem,Nederland
SoHosted,"<p>Bij SoHosted houden we ons al meer dan 15 jaar bezig met hosting. Met onze enthousiaste service gaan we altijd net een stapje verder dan je zou verwachten!</p>

<p>SoHosted levert betrouwbare webhosting, Virtual Private Servers en meer dan 300 verschillende domeinnamen. Met behulp van onze gratis websitebuilder of WordPress one-click installer bouw je eenvoudig je eigen website.</p> 
<p>
Je hebt al een razendsnel webhostingpakket met 100% SSD opslag vanaf € 3,95 per maand!</p>
<p>
Meer weten over SoHosted? Bekijk dan onze <a href=""https://www.sohosted.com?utm_medium=company_profile&utm_source=trustpilot&utm_campaign=visit_website_link_click"">website</a> voor meer informatie! Heb je vragen? Neem gerust <a href=""https://www.sohosted.com/contact/?utm_medium=company_profile&utm_source=trustpilot&utm_campaign=visit_contact_link_click"">contact</a> met ons op!</p>",Webhostingbedrijf,https://www.sohosted.com,Zakelijke diensten,Dopheide 14B,,0512-571640,9202PB,Drachten,Nederland
Places,"Places heeft als doel om uw bedrijf optimaal online vindbaar én bereikbaar te maken voor uw potentiële klanten en bestaande klanten. En dat proberen we op alle mogelijke manieren te realiseren.

Profiteer ook van alle diensten die Places u te bieden heeft en meld u nu aan op www.places.nl.",Zakelijke diensten,https://www.places.nl,Zakelijke diensten,Oranjesingel 76,info@places.nl,0243555299,6511 NZ,Nijmegen,Nederland
Sendcloud,Sendcloud is Europe’s number 1 shipping software for e-commerce. We provide an all-in-one shipping platform that helps you optimize your full shipping process. Save time and focus on what matters most: growing your online business. Join over 15.000+ online stores using SendCloud today!,E-commerceplatform,http://www.sendcloud.com,Zakelijke diensten,Insulindelaan 115,contact@sendcloud.sc,,5642CV,Eindhoven,Nederland
Spreadshirt Nederland,"Maak snel en eenvoudig een individueel product met persoonlijke teksten, foto’s of designs.",Grafisch ontwerp,http://www.spreadshirt.nl,Zakelijke diensten,Gießerstr. 27,info@spreadshirt.net,+31 302025025,04229,Leipzig,Duitsland
Desenio.nl,"Als onze klanten blij en tevreden zijn, dan zijn wij dat ook!",Zakelijke diensten,http://desenio.nl,Zakelijke diensten,,info@desenio.nl,,,,Zweden
CEWE,"CEWE is wereldwijd actief en de specialist op het gebied van fotofinishing. Dagelijks werken ruim 3000 mensen enthousiast aan de leukste, persoonlijke fotoproducten zoals fotoboeken, wanddecoratie, fotocadeaus, kalenders, wenskaarten en nog veel meer.",Prints en uithangbordenwinkel,https://www.cewe.nl,Zakelijke diensten,Industrieweg 73,foto@cewe.nl,0341255400,8071 CS,Nunspeet,
iBOOD.com,"Want to get in touch with us?    NL: customerservice@ibood.nl,    BE: klantendienst@ibood.be,    DE: kundenservice@ibood.de,    AT: kundenservice@ibood.at,    PL: bok@ibood.pl",Promotieartikelenwinkel,http://www.ibood.com/,Zakelijke diensten,Contactweg 159-2,,020-6811388,1014BJ,Amsterdam,Nederland
RIVO-Ergonomics.com,"Ergonomische producten ontwikkeld door fysiotherapeuten, toegankelijk gemaakt voor de consument.",Kantoormeubilair winkel,http://rivo-ergonomics.com,Zakelijke diensten,Granaatplein 101,info@rivo-ergonomics.com,0628341000,2332LG,Leiden,Nederland
Bestrating.nl,Alles voor uw complete tuin,Bestratingmaterialen leverancier,http://bestrating.nl,Zakelijke diensten,Korenmaat 18,info@bestrating.nl,0592315108,9405 TJ,Assen,Nederland
CardiAid Benelux,"CardiAid.nl is de officiële importeur, distributeur, onderhouds- en serviceprovider voor alle CardiAid AED's in de Benelux! ",Groothandelaar,http://www.cardiaid.nl,Zakelijke diensten,van der Burchstraat 40,support@cardiaid.nl,+31-23-5571871,2132 RN,Hoofddorp,Nederland
Etheron Hosting,Met ons kan iedereen het!,Cloud computingservice,https://etheron.nl,Zakelijke diensten,,support@etheron.nl,,,,Nederland
bogess.nl,"Bogess is een jong en dynamisch bedrijf. Met Bogess uiten wij  onze passie voor 'exclusive footwear'. Bogess biedt een online platform aan sneaker-lovers waar ze veilig exclusieve sneakers kunnen kopen. 

Bogess staat voor kwaliteit en service. Ben je op zoek naar een unieke uitstraling? Bij ons ben je aan het juiste adres. Drop gemist? Geen zorgen… Bogess regelt het!",E-commerceplatform,http://bogess.nl,Zakelijke diensten,Boompjes 40,support@bogess.nl,0107660028,3011 XB,Rotterdam,Nederland
Alvero Kantoormeubelverhuur bv,Alvero is al 35 jaar dè specialist in het tijdelijk verhuren van kantoormeubilair.,Kantoormeubilair verhuurwinkel,https://alvero.nl,Zakelijke diensten,Mechanisatieweg 8,info@alvero.nl,+31 162 447 337,4906 AE,Oosterhout,Nederland
zentrada.nl,Zentrada handelsplatformen met meer dan 400.000 producten van toonaangevende leveranciers uit heel Europa. Gratis voor zakelijke inkopers en wederverkopers. TradeSafe orderverwerking en inkoopbescherming. Meer dan 100.000 artikelen kunnen centraal en in de unieke mixorder worden ingekocht via zentrada.Distribution.,Groothandelsmarkt,http://zentrada.nl,Zakelijke diensten,Engelserf 35,service@zentrada.nl,+31433211905,3843,BD Harderwijk,Nederland
FEPshop B.V.,"The 3D Printer experts. 3D Printers, materials, parts and much more!",E-commercemaatschappij,https://www.fepshop.com,Zakelijke diensten,Wasaweg 3,info@fepshop.com,,9723JD,Groningen,Nederland
Inktweb.nl,"Tot 80% goedkoper printen? Alle inkt cartridges, inktpatronen, toners en printpapier. Originele inkt merken: HP, Canon, Epson, Brother, Lexmark.",Tonerleverancier,http://www.inktweb.nl/,Zakelijke diensten,Prof. van der Waalsstraat 2,info@inktweb.nl,072-5675055,1821 BT,Alkmaar,Nederland
YoungOnes,"YoungOnes is hét online platform voor vraag en aanbod van tijdelijke dagklussen. De klussen die op het platform worden aangeboden variëren van horecawerk tot werken in de retail, logistiek, schoonmaak en evenementenbranche.",Recruitmentplatform,http://youngones.works,Zakelijke diensten,Emmastraat 6,support@youngones.works,,4811 AG,Breda,Nederland
Design Kantoormeubilair,Designkantoormeubilair biedt een groot assortiment kantoormeubelen voor een lage prijs en een mooi design. Het grootste deel van het assortiment is uit voorraad leverbaar.,Kantoormeubilair winkel,https://www.designkantoormeubilair.nl,Zakelijke diensten,Henk Schijvenaarstraat 1,info@designkantoormeubilair.nl,020-7009160,2031VZ,Haarlem,Nederland
Ageras Nederland,"<a href=""https://nl.ageras.com"">Ageras</a> is een gratis bemiddelingsdienst die u helpt met het vinden en vergelijken van 3 vrijblijvende offertes van accountants, boekhouders en vve beheerders. <br/><br/>
<a href=""https://nl.ageras.com"">Klik hier</a> om binnen 48 uur 3 vrijblijvende offertes te ontvangen of neem contact met ons op via 020 808 0743.

<div class=""divider""></div>

<h3 style=""color:#368cd7;"">Onze dienst is gratis</h3>
De service van Ageras is geheel kosteloos, bovendien zijn de offertes vrijblijvend. </br></br>

<div class=""divider""></div>

<h3 style=""color:#368cd7;"">Ontvang hulp binnen 48 uur</h3>
U kunt binnen 2 minuten een aanvraag opstellen en wij zullen uw verzoek binnen 48 uur verwerken. </br></br>

<div class=""divider""></div>

<h3 style=""color:#368cd7;"">Kies de beste offerte</h3>
U kiest zelf op welk voorstel u in wilt gaan. </br></br>

<div class=""divider""></div>

<h3 style=""color:#368cd7;"">Service door het hele land</h3>
De specialisten in ons netwerk zijn verspreid over het hele land, dit betekent dat wij altijd in staat zijn om 3 specialisten bij u in de buurt te vinden. </br></br> 

<div class=""divider""></div>

<h3 style=""color:#368cd7;"">Accountancy</h3>
<a href=""https://nl.ageras.com/accountant/"">Jaarrekening</a></br>
<a href=""https://nl.ageras.com/belasting-advies/"">Belastingadvies</a></br>
<a href=""https://nl.ageras.com/accountant/"">Accountantsverklaring</a></br>
En nog veel meer…</br></br>

<div class=""divider""></div>

<h3 style=""color:#368cd7;"">Boekhouding</h3>
<a href=""https://nl.ageras.com/boekhouder/"">Boekhouding</a></br>
<a href=""https://nl.ageras.com/boekhouder/"">Btw-aangifte</a></br>
<a href=""https://nl.ageras.com/boekhouder/"">Loonadministratie</a></br>
En nog veel meer…</br></br>",Online marketingbureau,https://nl.ageras.com,Zakelijke diensten,Keizersgracht 321,sali@ageras.com,020 808 0743,1016 EE,Amsterdam,Nederland
Office-Shops,"Office-Shops is een overkoepelende handelsnaam voor de websites archiefkasten-shop.nl, lockerkasten-shop.nl, bureaustoel-shop.nl, werkplek-shop.nl en van brandkluizen-shop.nl. Alles sites zijn gespecialiseerd in een onderdeel van kantoormeubelen.",Kantoormeubilair winkel,http://www.office-shops.nl,Zakelijke diensten,Henk Schijvenaarstraat 1,info@office-shops.nl,030-3002960,2031VZ,Haarlem,Nederland
SEPAY,"SEPAY is de grootste onafhankelijke aanbieder van elektronische betaaldiensten in Nederland. Alles-in-één pinautomaten voor de laagste prijs! Ons abonnement is all-in en de transactieprijzen zijn vastgesteld. U weet waar u aan toe bent, geen additionele facturen voor bankkosten, simkosten of andere verrassingen achteraf!",Betalingsdienst,https://www.sepay.nl,Zakelijke diensten,Postbus 16761,info@sepay.nl,088 - 426 27 00,2500 BT,Den Haag,Nederland
ChemCloud,ChemCloud is a large supplier of synthesis solutions for a wide range of industries. We are specialized in the import and -export of raw materials providing support for sophisticated production processes in various end-user markets.,Laboratorium,http://chemcloud.nl,Zakelijke diensten,,contact@chemcloud.nl,,,,Nederland
Avery Benelux,Avery is de specialist in etiketten en andere kantoorartikelen. Ontdek ons veelzijdige assortiment en onze gratis software oplossingen en bekijk alle tips en inspiratie voor het ontwerpen en printen van onze producten.,Labelprinter,https://avery.nl,Zakelijke diensten,Cobolweg 3,service@avery.nl,Nederland: 0800 099 3390  België: 0800 72501  Luxemburg: +31 (0)33 720 07 22,3821 BJ  ,Amersfoort,Nederland
Toolmania BV,"Over ons
ToolMania is gestart in oktober 2009 en is uitgegroeid tot de specialist in gereedschappen, die zich in de loop der jaren heeft gespecialiseerd in de levering van een breed scala aan hoogwaardige garageapparatuur. Alles tegen een concurrerende prijs en gegarandeerde service vanaf 12 maanden na aankoop.

 

ToolMania heeft een grote winkel / voorraad / productieruimte op haar locatie in Sittard en de meeste apparatuur kan rechtstreeks via Nederland en België worden geleverd via reguliere koeriersdiensten en / of eigen vervoer.",Gereedschapgroothandel,http://toolmania.nl,Zakelijke diensten,Langs de Heij 10,info@toolmania.nl,,6136KR,Sittard,Nederland
VerpakkingShop.nl,"Verpakkingshop.nl is een betrouwbare webshop met een uitgebreid assortiment verpakkingen en verpakkingsmateriaal. In onze webshop verkopen we uiteenlopende verpakkingen, zoals dozen, bakjes, potjes, enveloppen, zakken, draagtassen, tape, emmers, kokers en meer. Neem een kijkje op onze website om het volledige assortiment te bekijken.",Vervoer- en verpakkingsbenodigdheden winkel,http://verpakkingshop.nl,Zakelijke diensten,Paardebijsters 4a,info@verpakkingshop.nl,076-5720091,4817 BR,Breda,Nederland
Visser Assen,"Visser Assen is al meer dan 45 jaar dé leverancier van inframaterieel, bouwplaatsinrichting en wegbebakening. Als importeur van Spectra Precision Laser lopen we voorop op het gebied van meetapparatuur, zoals bouwlasers, GPS, Total Stations en 3D-laserscanners.",Bouwmateriaal groothandelaar,https://visser-assen.nl,Zakelijke diensten,Koperslagerstraat 1,,088 - 13 43 600,9403 VM Assen,Assen,Nederland
CVwizard.nl,Maak in een handomdraai een professioneel CV met behulp van onze intuïtieve wizard: Eenvoudig invullen ✍️ → Template selecteren 📑 → CV downloaden ✔️,Zakelijke diensten,https://www.cvwizard.nl,Zakelijke diensten,,support@cvwizard.nl,,,,Nederland
Officecity Kantoormeubelen B.V.,"Groot assortiment kantoormeubelen. Bestel gemakkelijk en voordelig online 
in onze webwinkel of kom langs in onze showroom. Tot 50% korting op alle kantoormeubelen. Lees de ervaringen & reviews van Officecity op deze pagina.",Kantoormeubilair winkel,https://www.officecity.nl,Zakelijke diensten,Henk Schijvenaarstraat 1,info@officecity.nl,023-3020080,2031VZ,Haarlem,Nederland
Drukzo,"<p>Als ondernemer wil je naast een vaste lage prijs ook goed geholpen worden. Vanuit die gedachte is Drukzo ontstaan. Door de eigen productie kan Drukzo jou de laagst mogelijke prijzen aanbieden. Daarnaast zit er een team van drukwerk professionals klaar om jou de beste service te bieden.</p>
<br> </br>
<h2>Onze producten</h2>
<p>Jij zegt wat je bedrukt wilt hebben en Drukzo voert het uit. Naast ons standaardaanbod kunnen we namelijk nog veel meer! In verschillende formaten en oplagen. De specialiteiten van Drukzo: <br><br>
<a title=""Flyers drukken"" href=""http://www.drukzo.nl/flyers-drukken"" target=""_blank"">Flyers</a><br>
<a title=""Folders drukken"" href=""http://www.drukzo.nl/folders-drukken"" target=""_blank"">Folders</a><br>
<a title=""Posters drukken"" href=""http://www.drukzo.nl/posters-drukken"" target=""_blank"">Posters</a><br>
<a title=""Visitekaartjes drukken"" href=""http://www.drukzo.nl/visitekaartjes-drukken"" target=""_blank"">Visitekaartjes</a><br>
<a title=""Briefpapier bedrukken"" href=""http://www.drukzo.nl/briefpapier-drukken"" target=""_blank"">Briefpapier</a><br>
<a title=""Enveloppen bedrukken"" href=""http://www.drukzo.nl/enveloppen-bedrukken"" target=""_blank"">Enveloppen</a><br>
en nog véél meer <a title=""Bekijk alle drukwerk producten"" href=""http://www.drukzo.nl/alle-producten"" target=""_blank"">drukwerk producten</a><br><br> Neem gewoon eens een kijkje op de website, of neem direct <a title=""Neem contact op met Drukzo"" href=""http://www.drukzo.nl/contact"" target=""_blank"">contact</a> op via 088 - 088 86 88.</p>
<br>
<h2>Ons bestelproces</h2>
<p>Bij Drukzo geloven we in kwaliteit, maar zeker in gemak. Waar het op negen van de tien drukwerk bestelsites bijna een sport is om een order te bestellen, proberen wij om jou het leven makkelijk te maken. Hoe? Door een simpel bestelproces bijvoorbeeld. Met slechts vier klikken bestel je bij Drukzo je drukwerk. Dat is wel eens anders..</p>


<h2>Onze prijzen</h2>
<p>Onze prijzen behoren tot de laagste van Europa. Hoe dat kan? Slim bestellingen van diverse klanten combineren op grote vellen, en dan drukken. Op de beste machines, met de beste mensen en met hoge snelheid. Bizarre obsessie voor automatisering en procesoptimalisatie, dat zit bij ons in de genen. En dat merk je in de prijs.</p>


<h2>Hoge kortingen voor professionele bestellers</h2>
<p>Prijs is belangrijk in onze markt. Daarom biedt Drukzo je op onze toch al erg lage prijzen nog een mooie korting, die fors kan oplopen, maar die altijd direct al start. Zo profiteer je direct van het voordeel van partner zijn! Bekijk snel ons <a title=""Lees meer over het Drukzo Pro reseller programma"" href=""http://www.drukzo.nl/drukzo-pro"" target=""_blank"">Drukzo Pro</a> reseller programma. </p>


<h2>Passie voor wat we doen</h2>
<p>Los van onze verkoop, doen we ons werk met passie. Klantvriendelijkheid staat hoog in de prioriteitenlijst en we doen er alles aan om een bestelling zo vloeiend mogelijk te laten verlopen. Omdat wij kleine lettertjes niet klantvriendelijk vinden, gebruiken we geen kleine lettertjes, verborgen kosten en schimmige afspraken, maar weet je gewoon wat je krijgt. En wanneer je niet tevreden bent dan komen we samen met een gepaste oplossing. Dat garanderen we zwart-op-wit! </p>


<h2>Onze mensen</h2>
<p>Eerlijk is eerlijk: Toen de makers van Drukzo meer dan vijftien jaar geleden met het aanbieden van gestandaardiseerd drukwerk startte, lagen de meeste online drukwerkaanbieders nog met een luier om en een speen in de mond in bed. We durven best te zeggen dat we de afgelopen jaren veel geleerd hebben, en die ervaringen gebruiken we om jou als klant beter te helpen.</p>


<p>Wij hebben het leukste team van Nederland, dat durven we gewoon te zeggen. Goed in wat we doen, eerlijk in wat we zeggen en gesneden uit het juiste hout. Vrienden, zo mag je ons ook noemen. En wil je meedoen en denk je dat je er tussen past? Dan horen of zien we je graag!</p>",Prints en uithangbordenwinkel,http://www.drukzo.nl,Zakelijke diensten,Schiedamsevest 89,hallo@drukzo.nl,088 - 088 86 88,3012 BG,Rotterdam,
Boldking,"<p><strong>
We are Boldking.
</strong></p>
<p>
We're an Amsterdam-based grooming brand made especially for the modern man. Since we started in 2013, we have worked to change the way men shave.
</p>
<p>
You see, shaving is not what it used to be. It’s no longer about showing off your jawline like in grandad’s glory days. Beards are proudly worn to work, and shaving is no longer limited to the face. This new way of shaving required a new razor. <strong>So we built a flexible blade, from scratch, that acts differently to other razors.</strong>
</p>
<p>
Boldking blades bend and flex to hug the surface of your skin. This is what makes them perfect for men who shave more than just their face: <strong>our razors can handle everything from head to toe.</strong> Once you're done, the used blades can then be sent back to Boldking for recycling.
</p>
<p>
To compliment our signature razor, we also created <strong>a skincare range that is 100% vegan and bullsh*t free.</strong> It smells great, feels great, and brings all natural ingredients to your hard-working skin. Our packaging is all environmentally-friendly, and we use nothing but clean air to power our spray gel products.
</p>
<p>
<strong>Our ideas are out to change the men's grooming industry.</strong> We're cutting the crap, and getting down to the good stuff. Great razors, environmentally friendly products, and a production system that respects your pocket and Mother Earth.
</p>
<p>
Change your shave. Boldking
</p>
Visit us on one of our channels:
https://www.boldking.com
https://www.instagram.com/boldking
https://www.facebook.com/boldking
https://www.twitter.com/theboldking",Kappersbenodigdheden winkel,https://www.boldking.com/nl/en-gb,Zakelijke diensten,Vliegtuigstraat,Service@boldking.com,020-2610058,1059CL,Amsterdam,Nederland
Bureaustoel24.nl,"U zoekt Bureaustoelen? Bureaustoel24.nl biedt u een zeer ruim assortiment van ca. 1.200  bureaustoelen en meubilair.

Direct online bestellen, snel geleverd en de meest scherpe prijzen van Nederland direct te verkrijgen in onze online Bureaustoelen shop. Zonder verzendkosten en 30 dagen recht op retour.",Kantoorbenodigdheden winkel,http://www.bureaustoel24.nl,Zakelijke diensten,Sterrebaan 17,info@bureaustoel24.nl,026 -353 0 253,3542 DJ,Utrecht,Nederland
Allekabels.nl,"<B>3.011.251+ Tevreden klanten</B>
<BR>
<BR>
<img src=""https://www.feedbackcompany.com/samenvoordeel/img/logo/thumbnail/Allekabels_Logo.png"">
<BR>
<BR>
<B>Véél meer dan alleen kabels!</B>
<BR>
Allekabels is meer dan alleen de online kabelspecialist, het is dé webshop met een enorm assortiment aan kabels, maar ook andere elektronica producten. Zoals onze naam al zegt, vindt u bij ons uiteraard de juiste kabels voor elke toepassing, voor beeld en geluid, computers en netwerk, licht en elektriciteit en nog veel meer. Ook voor toebehoren voor al deze kabels, zoals stekkers, pluggen, versterkers en switches, bent u bij Allekabels aan het juiste webadres. Maar Allekabels is nog meer! In onze gespecialiseerde webshop kunt u ook terecht voor andere producten, zoals computeraccessoires, beveiligingsapparatuur, verlichting, ophangbeugels, de nieuwste en hipste gadgets voor smartphones, onmisbaar gereedschap en allerlei elektronische apparatuur voor in en om het huis. Daarbij komt dat Allekabels nog steeds groeit: wekelijks komen er nieuwe, handige producten bij.<BR>
<BR>
<A HREF=""https://www.allekabels.nl/hdmi_kabels/hdmi_kabel.html"" TARGET=""_blank"">HDMI kabel kopen</A><BR>
<A HREF=""https://www.allekabels.nl/netwerk/utp_kabel.html"" TARGET=""_blank"">UTP kabel kopen</A><BR>
<A HREF=""https://www.allekabels.nl/ophangbeugels/kabelgoot.html"" TARGET=""_blank"">Kabelgoot kopen</A><BR>
<A HREF=""https://www.allekabels.nl/usb_accessoires/usb-toetsenbord.html"" TARGET=""_blank"">Toetsenbord kopen</A><BR>
<A HREF=""https://www.allekabels.nl/audio_accessoires/microfoon.html"" TARGET=""_blank"">Microfoon kopen</A><BR>
<A HREF=""https://www.allekabels.nl/verlichting/kerstverlichting.html"" TARGET=""_blank"">Kerstverlichting kopen</A><BR>
<A HREF=""https://www.allekabels.nl/ophangbeugels/tv_beugels.html"" TARGET=""_blank"">TV beugel kopen</A><BR>
<A HREF=""https://www.allekabels.nl/in_en_om_het_huis/deurbel.html"" TARGET=""_blank"">Deurbel kopen</A><BR>
<A HREF=""https://www.allekabels.nl/verlichting/zaklamp.html"" TARGET=""_blank"">Zaklamp kopen</A><BR>
<A HREF=""https://www.allekabels.nl/smartphone/powerbank.html"" TARGET=""_blank"">Powerbank kopen</A><BR>
<A HREF=""https://www.allekabels.nl/tv_en_video_accessoires/afstandsbediening.html"" TARGET=""_blank"">Afstandsbediening kopen</A><BR>
<BR>
<B>Waarom Allekabels?</B>
<BR>
Naast het ontzettend brede assortiment dat wij bieden, staat Allekabels vooral ook voor online winkelgemak. Wij leveren snel, verantwoord en veilig. U heeft de keuze uit meerdere beveiligde betaalopties. Daarnaast hanteren wij een soepel retourbeleid waarbij geldt: niet goed, geld terug. Twijfelt u over een product of heeft u hulp nodig bij uw bestelling? Dan kunt u terecht bij onze professionele en deskundige klantenservice.<BR>
<BR>
<b>✓</b> Keuze uit verschillende beveiligde betaalopties<BR>
<b>✓</b> Snelle levering<BR>
<b>✓</b>Niet goed, geld terug<BR>
<b>✓</b>Professionele en deskundige klantenservice<BR>
<BR>
<B>Zéér tevreden klanten!</B>
<BR>
Onze klanten zijn tevreden over Allekabels. En dat is niet voor niets. Daarom mogen wij meerdere keurmerken aan onze service verbinden. Uw bewijs voor onze kwaliteit!<BR>
<BR>
<B>Klantenservice 7 dagen per week!</B>
<BR>
Wij zijn op werkdagen van 9.00-21.00 telefonisch bereikbaar:<BR>
<BR>
Vragen per telefoon:<BR>
<BR>
0455717001<BR>
<BR>
Daarnaast zijn wij op  werkdagen en in het weekend tot 21.00 bereikbaar via ons
ticketsysteem: <BR>
<BR>
Vragen per mail/ticket: <BR>
<BR>
<A HREF=""https://www.allekabels.nl/contact.php"">Klik hier voor contact</A>",Elektronische onderdelenwinkel,http://www.allekabels.nl,Zakelijke diensten,Mercuriusstraat 9,info@allekabels.nl,0455717001,6468 ES,Kerkrade,Nederland
Studentaanhuis,"De digitale wereld is volop in beweging. Internet is dan ook niet meer weg te denken uit ons dagelijks leven en we hebben steeds meer apparaten in huis die met elkaar verbonden zijn. Maar wat als deze apparaten niet goed werken?

Met die gedachte biedt Studentaanhuis ruim 1.000 goed opgeleide computerstudenten een leuke, flexibele bijbaan in hun eigen vakgebied. En helpen zo, als digitale wegenwacht, inmiddels meer dan 115.000 Nederlanders bij al hun digitale vragen en lossen problemen door het hele land snel en vakkundig op.

Onze studenten kunnen onder andere helpen bij het instellen en opschonen van de computer, bij het maken van een back-up van alle belangrijke bestanden en bij het installeren van software en een virusscanner. Zij weten namelijk alles over computers, smartphones, tablets, printers, digitale televisies en bijvoorbeeld de slimme thermostaat. 

Studentaanhuis.nl is volledig onafhankelijk en stopt veel energie in de selectie van de studenten, zodat u maximaal wordt geholpen voor een minimaal tarief. Betrouwbaar en voordelig.",Computerreparatie,http://www.studentaanhuis.nl,Zakelijke diensten,,info@studentaanhuis.nl,088 2200 200,,,Nederland
Ella Health,Ella Health verkoopt producten die helpen tegen zit- en slaapproblemen. We focussen op het verbeteren van jou fysieke welzijn.,Gezondheids- en schoonheidsartikelen winkel,http://ellahealth.nl,Zakelijke diensten,"Jan Scharpstraat, 17",contact@ellahealth.nl,0648890802,5014RB,Tilburg,Nederland
Grow a Wish,"Wij zijn een duurzaam groeikaarten bedrijf waarmee we meer geluksmomentjes in de wereld creëren.  Onze kaarten zijn gemaakt van Zuid-afrikaans handgemaakt groeipapier en bedrukt met natuur vriendelijke inkten.  Met een deel van de winst vervullen we bijzondere wensen en organiseren we opfleur initiatieven voor bijvoorbeeld eenzame ouderen. 
We horen graag je mening over onze site en diensten. Heb je een vraag? Twijfel dan zeker niet om even contact op te nemen via het onderstaande mail adres.  Hopelijk tot snel!",Wenskaartenwinkel,http://growawish.nl,Zakelijke diensten,M A Reinaldaweg,info@growawish.nl,,3405 CS,Benschop,Nederland
Professor.nl,Bij Professor.nl bestel je de beste ingrediënten voor jouw experimenten! ,Chemisch groothandelaar,http://www.professor.nl,Zakelijke diensten,Zandstraat 14,info@professor.nl,0613500350,6717LP,Ede,Nederland
Packaging 2.0,Packaging 2.0 is een jong en dynamisch bedrijf opgericht door Johan ten Tije in 2017 dat zich wil laten zien als de Easyjet onder de verpakkingsmaterialen leveranciers.,Vervoer- en verpakkingsbenodigdheden winkel,http://www.packaging2.nl,Zakelijke diensten,Breewei 27a,verkoop@packaging2.nl,0857609310,8406 EB,Tijnje,Nederland
Budgetdisplay,"BudgetDisplay is leverancier van mobile presentaties. Omdat wij alles in eigen printen, drukken en maken zijn wij niet of nauwlijks afhankelijk van andere. Mede hierdoor kunnen wij zeer snel leveren aan u. Vandaag besteld is morgen in huis.<br><br>

Bij ons www.budgetdisplay.nl kunt u terecht voor, beurswanden, rolbanners, spandoeken, zelfstaande frames, sponsor walls, kliklijsten, brochurehouders, Beurscounter, presentatiewanden, bannners, banieren, beurwand, poster systemen, L Banners, Beursbalies",Spandoekenwinkel,http://www.budgetdisplay.nl,Zakelijke diensten,Compagnie 22b,info@budgetdisplay.nl,+31(0)229 210161,1689 AG,Zwaag,Nederland
Payt,Payt helpt bedrijven sneller en eenvoudiger betaald te krijgen,Softwarebedrijf,http://payt.nl,Zakelijke diensten,Ubbo Emmiussingel 21,info@paytsoftware.com,085 - 0021960,9711 BB,Groningen,Nederland
Linkbuilding Masters,Linkbuilding Masters heeft sinds 2009 ervaring op het gebied van zoekmachine optimalisatie. Een groot deel van zoekmachine optimalisatie werkzaamheden bestaat uit het verkrijgen van kwalitatieve backlinks. Linkbuilding Masters zorgt er dan ook voor dat...,SEO-service,http://linkbuildingmasters.nl,Zakelijke diensten,Simon Stevinweg 4a,info@linkbuildingmasters.nl,0268200068,6827 BT,Arnhem,Nederland
Xarvin Online Solutions,"Webhosting - Wordpress - VPS - Webshops - Blogs - Minecraft & ARK Server -  Discord & Teamspeak Bots - Webdesign
----------------------------------
Onze focus ligt volledig op het leveren van de snelste hosting met de beste service en diensten. Wij leveren onder andere WordPress hosting, PrestaShop hosting, WooCommerce hosting en alle tools om jouw online business succesvol te maken. 
----------------------------------
Daarnaast staan ook klaar: Virtual Private Servers en meer dan talloze domeinnamen. Met behulp van onze gratis websitebuilder of WordPress one-click installer bouw je eenvoudig je eigen website.
----------------------------------
Ook voor de Gamers community hebben wij geweldige Minecraft & ARK servers en Teamspeak & Discord Bots beschikbaar. 
>>> www.XarvinCraft.com <<<
------------------------------------
Als laatste doen onze experts ook aan Webdevelopment & Webdesign, om jouw perfect afgestemde Website, Blog of Webshop als een geoliede machine te laten draaien, in Wordpress, Joomla, Prestashop of PHP!
------------------------------------
Eenvoudig in gebruik
Wij zorgen ervoor dat het maken van een website en het kopen van een betaald pakket zo eenvoudig is dat iedereen dit zelf kan doorlopen zonder enige technische kennis te hebben.
------------------------------------
Persoonlijke ondersteuning
Kom je er even niet uit? Maak een ticket aan op de website of in onze Discord groep of Stuur een bericht naar info@xarvin.nl en wij helpen je graag weer op weg!
------------------------------------ 
Alles-in-één: website + domeinnaam + mailbox
Bij Xarvin krijg je een razendsnel webhostingpakket met 100% SSD opslag en een volledig pakket waarbij is inbegrepen je Website met Hosting, een eigen (.nl) domeinnaam én een eigen mailbox. Zo heb je al je online zaken geregeld in één pakket.
-------------------------------------
De snelste servers (100% NVMe opslag!) met beste technologie voor optimale vindbaarheid, snelheid en veiligheid.

",Webhostingbedrijf,http://www.xarvin.com,Zakelijke diensten,Eendrachtsstraat 50,info@xarvin.com,0031655375519,3012 XL,Rotterdam,Nederland
Steunactie.nl - Crowdfunding & Donatie Platform,Crowdfunding & Donatie Platform,E-commerceplatform,http://steunactie.nl,Zakelijke diensten,,info@steunactie.nl,0182-391813,,,Nederland
Redable,Redable is een veelzijdige en dynamische ICT-leverancier met maar één doel; De technologische wereld een stuk eenvoudiger achterlaten dan we het vonden.,E-commercemaatschappij,https://www.redable.nl,Zakelijke diensten,Oosterveldsingel 45,klantenservice@redable.nl,085 - 760 88 16,7558PJ,Hengelo,Nederland
Turbohost,Jouw webhosting of Minecraft server start je bij Turbohost. Wij bieden hoogwaardige servers aan voor extreem lage prijzen!,Webhostingbedrijf,https://turbohost.nl,Zakelijke diensten,Trasmolenlaan 12,info@turbohost.nl,,3447 GZ,Woerden,Nederland
Stichting WebwinkelKeur,"WebwinkelKeur is hét moderne webshop keurmerk inclusief reviews dat met de modernste techniek zorgt voor ouderwets vertrouwd winkelen. 

We maken gebruik van meerdere reviewsystemen. Bekijk meer referenties op https://www.webwinkelkeur.nl/referenties/ ",E-commerceplatform,https://www.webwinkelkeur.nl,Zakelijke diensten,Bisschopstraat 18,info@webwinkelkeur.nl,0858883210,7513AK Enschede,Enschede,Nederland
Brew Monkey,"Thuis bier brouwen was nog nooit zo eenvoudig met een Brew Monkey Bierbrouw pakket. Met onze bijgeleverde mout, hop en gist leer je met echte ingrediënten bier brouwen. Bestel je startpakket online en ga morgen nog aan de slag. Het pakket bevat een uitgebreide handleiding en op onze website vind je handige video's waarmee wij jou begeleiden door het proces. Mocht je toch nog vragen hebben dan zijn wij goed en snel bereikbaar via Whatsapp en Facebook.",Thuisbrouwwinkel,https://brewmonkey.nl,Zakelijke diensten,Helftheuvelweg 11,info@brewmonkey.nl,+31624905937,5222 AV,'s-Hertogenbosch,Nederland
Aquariumhuis Romberg,Aquarium specialist. 70+ modellen van bekende merken als Juwel (goedkoopste van Nederland) en Red Sea Aquaria. Allergrootste maatwerk aanbod van de Benelux.,Zakelijke diensten,http://romberg.nl,Zakelijke diensten,Hugo de Grootplein 25,,,2613 VL,Delft,Nederland
Desko Kantoormeubelen,"Desko Kantoormeubelen heeft alles wat je nodig hebt voor je kantoorinrichting. Kopen of huren van nieuwe of tweedehands kantoormeubelen voor de scherpste prijs. O.a. Ahrend, Herman Miller en Vitra en een groot assortiment circulaire kantoormeubelen. Ontdek ons nieuwe duurzame merk: Adam Cradle! ",Kantoormeubilair winkel,https://www.desko.nl/,Zakelijke diensten,Herwijk 12,info@desko.nl,020 480 10 20,1046 BC,Amsterdam,Nederland
DaklaPack.nl,"DaklaPack Europe BV is de leverancier van hersluitbare verpakkingen. DaklaPack levert industriële, promotionele, gelamineerde, medische verpakkingen en verzendverpakkingen plus een ruim assortiment aan enveloppen en postverpakkingen.",Vervoer- en verpakkingsbenodigdheden winkel,https://www.daklapack.nl,Zakelijke diensten,Kamerlingh Onneslaan 6,info@daklapack.nl,31 (0)320-277900,8218 MA,Lelystad,
XXL Pakket Logistiek BV,"XXL Pakket is een dynamisch bedrijf met al ruim 13 jaar ervaring in de consumentendistributie. Wij hebben ons gespecialiseerd in het leveren van 1 en 2-mans distributie in het stukgoed segment. Dit zijn voornamelijk grote of lange pakketten, of pakketten met een gewicht wat hoger is dan de traditionele pakketvervoerders accepteren. 

Dit doen wij voornamelijk voor (Web)winkels in de B2C markt. Onze systemen zijn daar ook naadloos op ingericht, waardoor wij het verlengstuk van de (web)winkel zijn. Wij leveren standaard binnen 24 uur en beschikken over een eigen klantenservice. 

Wilt u meer informatie?, Neem een kijkje op www.xxlpakket.nl of neem contact op via info@xxlpakket.nl of 0850-407 407.",Koeriersbedrijf,https://www.xxlpakket.nl,Zakelijke diensten,Schipholweg 993,info@xxlpakket.nl,0850-407 407,2143 CG,Boesingheliede,Nederland
PhoneMarket.nl,Wie kan rekenen koopt bij Phonemarket.nl!,Mobiele telefoon winkel,http://Phonemarket.nl,Zakelijke diensten,Hoogstraat 117 A,info@phonemarket.nl,0104155291,3011 PL,Rotterdam,Nederland
de Schenker,"Relatiegeschenken en unieke themapakketten.

Met veel enthousiasme helpen wij jou schenken! Relatiegeschenken en promotie geef je het hele jaar door. Het onverwachte moment zorgt voor een groot succes. De juiste ingrediënten voor het perfecte relatiegeschenk vind je bij de Schenker.
Wij onderscheiden ons met een uniek assortiment, uitstekende service en snelle communicatie. Scherpe prijzen vinden wij vanzelfsprekend, net als het meedenken en ontwerpen van jouw geschenk. 

<a href=""https://eco-gift.nl/""><B>Eco-gift</B></a>,

<a href=""https://wijn-gift.nl/""><B>Wijn-gift</B></a>,

<a href=""https://paas-gift.nl/""><B>Paas-gift</B></a>,

<a href=""https://zomer-gift.nl/""><B>Zomer-gift</B></a>,

<a href=""https://sint-gift.nl/""><B>Sint-gift</B></a>,

<a href=""https://kerst-gift.nl/""><B>Kerst-gift</B></a>,

<a href=""https://winter-gift.nl/""><B>Winter-gift</B></a>.",Promotieartikelenwinkel,https://deschenker.nl,Zakelijke diensten,Landjuweel 64,info@deschenker.nl,0318 50 84 50,3905 PH,VEENENDAAL,Nederland
DrukwerkMAX,"Kleuren, kwaliteit en vriendelijke service, daar draait het bij DrukwerkMAX om. Hiermee realiseren wij bijzondere contacten en ervaringen. DrukwerkMAX is een e-commerce organisatie, met een focus op klantvriendelijkheid en gespecialiseerd in kwalitatief hoogwaardig Offset drukwerk. Hierbij hebben wij hele proces van het drukken tot en met de afwerking in eigen hand. Elke dag vragen wij aan onze klanten om hun echte kleuren te laten zien. Wij krijgen er energie van om vervolgens hetzelfde te doen.",Prints en uithangbordenwinkel,http://drukwerkmax.nl,Zakelijke diensten,Zilverstraat 101,klantenservice@drukwerkmax.nl,085 210 4000,2718 RP,Zoetermeer,Nederland
123BigBags,"123BigBags is a specialist in delivering bulk bags for the builders market, recycling and garden industry.

123BigBags est un spécialiste de la livraison de sacs à gravats pour le marché de la construction, du recyclage et du jardinage.

123BigBags ist ein Spezialist für Lieferungen von Big Bags für  Baumärkte, Recycling und Gartenindustrie.

123BigBags is een specialist in het leveren van zakken voor de bouw-, recycling- en tuinbouwsector.",Vervoer- en verpakkingsbenodigdheden winkel,https://www.123bigbags.com/,Zakelijke diensten,Schiekade 105,info@123bigbags.com,+31 10 307 27 35,3033 BH,Rotterdam,Nederland
Manutan Nederland,"Manutan is in Nederland en België de bekendste leverancier van artikelen voor kantoor, magazijn, werkplaats en buitenterrein. Onderdeel van de internationale Manutan Group.",Vervoer- en verpakkingsbenodigdheden winkel,http://www.manutan.nl,Zakelijke diensten,Elandlaan 2,info@manutan.nl,030 - 229 6111,3734 CP,Den Dolder,
JouwWeb,"Met JouwWeb kun je <b>zelf</b> een professionele website maken: inclusief domeinnaam, responsive design én veel extra's.<br/>
<a href=""http://www.jouwweb.nl/"" title=""website maken"">Maak een gratis website</a>",Webhostingbedrijf,http://www.jouwweb.nl,Zakelijke diensten,Torenallee 20,support@jouwweb.nl,040 303 1360,5617BC,Eindhoven,Nederland
ReplaceDirect.nl,"ReplaceDirect is dé webshop met alles voor je mobiele apparaat. Van accu en adapter tot kabel, muis of iPad hoes; in ons uitgebreide assortiment vind je het allemaal! Dat is nog niet alles, want we bieden je ook nog een uitstekende service. En bestel je vandaag voor 23.00 uur dan heb je de bestelling morgen al in huis! ",Fotowinkel,http://www.replacedirect.nl,Zakelijke diensten,Bosbeemd 16,info@replacedirect.nl,088 088 66 00,5741TR,Beek en Donk,Nederland
Restocks BV,,E-commerceplatform,http://restocks.net,Zakelijke diensten,Veldsteen 19,info@restocks.eu,,4815PK,Breda,Nederland
PrintAbout.nl,"Bij PrintAbout staat service hoog in het vaandel. Daarom streven wij naar een uitstekende klanttevredenheid, elke dag weer. Op TrustPilot.nl zien wij dit ook terug in onze klantbeoordelingen. Wij krijgen een beoordelingsscore van 4.7 op basis van meer dan 40.000+ beoordelingen. Ook is PrintAbout gecertificeerd door Stichting Certificering Thuiswinkel Waarborg. Dit betekent dat wij voldoen aan een correcte werkwijze en voorwaarden die in overeenstemming zijn met relevante wet- en regelgeving alsmede de Gedragsregels Thuiswinkel Waarborg van Thuiswinkel.org. Deze (her-)certificering vindt jaarlijks plaats. Wij doen dus wat wij willen doen en waar wij heel goed in zijn: onze klanten zo specialistisch en professioneel mogelijk advies geven op het gebied van cartridge en printer. En met succes.",Tonerleverancier,https://www.printabout.nl,Zakelijke diensten,Grote Esch 600,klantenservice@printabout.nl,0182-618630,2841 MJ,Moordrecht,Nederland
TAPES.NL,"Persoonlijk advies, eigen design afdeling, dupliceer faciliteiten, gevestigd in NL, binnen 24 uur offerte, uit voorraad leverbaar.",Promotieartikelenwinkel,http://tapes.nl,Zakelijke diensten,Poortland 128,sales@tapes.nl,088-2010300,1046 BD,Amsterdam,Nederland
Visvanchris,"""U kunt bij ons terecht voor alle soorten dagverse vis. Ook hebben wij een select aanbod van gerookte & diepgevroren vis, verse schaal- en schelpdieren en aanverwante (vis)producten. U besteld eenvoudig & snel via de Webshop of stuur ons een Whatsapp bericht. Uw product wordt zorgvuldig op versheid en kwaliteit geselecteerd, geportioneerd en vacuüm verpakt naar wens! Wij bezorgen uw bestelling *GRATIS van dinsdag t/m zaterdag. U kunt bij ons altijd achteraf betalen via een betaalverzoek of pinnen aan de deur.""",Viswinkel,http://visvanchris.nl,Zakelijke diensten,Nieuwlandseweg 28,info@visvanchris.nl,0613724817,4341CP,Arnemuiden,Nederland
Fotofy productfotografie,Fotofy is een online service waarmee je gemakkelijk productfoto's kan laten maken.,Commercieel fotograaf,http://fotofy.nl,Zakelijke diensten,Hondiusstraat 24K,support@fotofy.nl,0858000260,6827DE,Arnhem,Nederland
Prepaidforge,"Profit from selling digital goods easily. Check real-time wholesales prices. Buy discounted e-gift cards, game keys & prepaid credit cards in bulk!",Groothandelaar,http://prepaidforge.com,Zakelijke diensten,,sales@prepaidforge.com,,,,Nederland
De huisprofessor,De huisprofessor is een nieuw bedrijf in de branch gespecialiseerd in de research chemical 3-MMC.,Chemisch groothandelaar,https://3-mmckopen.nl/,Zakelijke diensten,,contact@3-mmckopen.nl,0651520855,,Deventer,Nederland
Avodesch,"Avodesch voorziet haar afnemers niet alleen in schoonmaakproducten maar eerst en vooral bieden wij oplossingen aan die gebaseerd zijn op onze passie, vakkennis en ruim 20 jaar ervaring.",Chemisch groothandelaar,https://www.avodesch.nl,Zakelijke diensten,Bijsterhuizen 5012,info@avodesch.nl,024-3727292,6604 LZ,Wijchen,Nederland
Drentse Schatten,"Veel lokale ondernemers moeten alle zeilen bijzetten om het hoofd boven water te houden tijdens de crisis. Drentse Schatten maakt het voor particulieren mogelijk om direct producten bij deze ondernemers te bestellen. Een steuntje in de rug dankzij kortere ketens.
",Levensmiddelengroothandel,http://www.drentseschatten.nl,Zakelijke diensten,Havenkade 6,info@drentseschatten.nl,085-1305986,9403AH,Assen,Nederland
Zusje-Van,"Iedereen heeft ze wel, van die dromen die je al heel lang uit wilt laten komen. Plannen die al jaren vooruitgeschoven worden omdat je het (nog niet) durft, of omdat je er nog niet klaar voor bent. ‘Ik ben te druk, ik moet eerst meer ervaring hebben’. Wachtend op het juiste moment, maar komt dat moment ooit wel?

Nu heb ik de stouten schoenen aangetrokken, en DURF ik het aan op Zusje-van te starten.
Een creatieve uitlaatklep, iets wat al heel lang in mijn hoofd zit, dit wil ik graag met jullie delen. En hoop ik dat jullie net zo enthousiast zijn als ik.

Zusje-van houdt zich bezig met alles wat met papier te maken heeft, kaarten, agenda’s, kalenders, planner, notitieboekjes en ga zo maar door. Sommige dingen staan nog niet op de site, maar zijn in ontwikkeling. Heb je zelf een idee, maar geen idee hoe je het moet uitvoeren? Mail.

Grafisch
Je kunt bij Zusje-Van ook terecht voor grafische ontwerpen voor o.a. huisstijlen, advertenties, flyers, autobestickering en/of website. Vragen? Mail gerust!",Cadeauwinkel,http://www.zusje-van.nl,Zakelijke diensten,Pastoor van Santestraat 42,info@zusje-van.nl,0614624873,1693 CT,Wervershoof,Nederland
de Graaf Petfood,Smakelijk eten voor hond en kat sinds 1962.,Groothandelaar,https://www.degraafpetfood.nl,Zakelijke diensten,IJzerwerf 9,info@degraafpetfood.nl,0703549394,2544EP,Den Haag,Nederland
Xpozer,"Xpozer Prints + Frame.
You Take More Than 1 Great Photo. Swap Them Easily With Xpozer!
★ Gallery-Quality Prints
★ Innovative Reusable Frame
★ Picture-Perfect Presentation
",Digitale afdrukservice,https://xpozer.com,Zakelijke diensten,Saturnusstraat 60 unit 59,info@xpozer.com,+31 15 7111077,2516 AH,Den Haag,Nederland
CakeHosting,"Hallo, Wij zijn CakeHosting! En wij bieden hele goedkope Minecraft servers aan, voor elk Budget!",Zakelijke diensten,https://cakehosting.net,Zakelijke diensten,Jan Hoenlaan 9,info@cakehosting.net,,3417CA,Montfoort,Nederland
Worksuite,"Worksuite guides matchmaking between organisations and top-tier Data Science & AI professionals, freelancers and AI startups",Zakelijke diensten,http://worksuite.nl,Zakelijke diensten,Johan Huizingalaan 764A,info@getworksuite.com,,1066VH,Amsterdam,Nederland
Gearbooker | Rent gear from creators around you! ,"Rent your photo, video, film, audio and other equipment from creative people in your neighbourhood. No worries: all items are insured!",Fotowinkel,https://www.gearbooker.com/?utm_source=trustpilot&utm_campaign=tpsite,Zakelijke diensten,Marconistraat 16,https://www.gearbooker.com/home/contact,,3029 AK,Rotterdam,Nederland
Fraenck,"Elegante tassen, pakkend verhaal.

Lichtgewicht, maar oersterk. Waterafstotend en makkelijk schoon te houden. In allerlei formaten en vormen – er zit iets tussen voor iedereen en elke gelegenheid.

Wij werken met upcycled materiaal. En daar zijn we best trots op. Wij geloven namelijk in de grenzeloze mogelijkheden van bedrijfsrestanten en maken er een stoere tassencollectie van.

Bij Fraenck zien we werken met restanten niet als een verspilling van tijd, maar als een verantwoordelijkheid. Het prikkelt onze creativiteit en daagt ons elke dag opnieuw uit.",Tassenwinkel,http://fraenck.com,Zakelijke diensten,Beekstraat 30,contact@fraenck.com,0268440451,6811 DW,Arnhem,Nederland
Strooizout Gigant,"Strooizout Gigant is een landelijke leverancier van strooizout en helpt u graag. Als u vragen heeft of informatie wilt verkrijgen, dan kan de Strooizout Gigant u daar uiteraard mee helpen!",Kantoorbenodigdheden winkel,http://www.strooizoutgigant.nl,Zakelijke diensten,Schapenkamp 2A,info@strooizoutgigant.nl,088 - 101 91 89,1211 PA,Hilversum,Nederland
Bringly,"Jouw duurzame, lokale én eerlijke bezorgdienst. Duurzame, lokale en eerlijke bezorgoplossing om pakketten dezelfde of de volgende dag op te laten halen en bezorgen via fietskoeriers en elektrische voertuigen in Europese steden. ",Logistieke dienstverlening,http://bringly.nl,Zakelijke diensten,,partner@bringly.nl,,,Amsterdam,Nederland
De Boekdrukker,"Bij De Boekdrukker kunt u terecht voor het drukken en printen van hardcover boeken, softcover boeken en brochures. Onze boeken zijn uiterst geschikt voor het maken van levensverhalen, romans, jubileumboeken, portfolioboeken, lesboeken, jaarverslagen, scripties, prentenboeken en meer. Bovendien kunt u bij ons terecht voor het ontwerpen van uw drukwerk.",Commerciële drukkerij,https://deboekdrukker.nl,Zakelijke diensten,Herengracht 221,info@deboekdrukker.nl,020 820 1855,1016 BG,Amsterdam,Nederland
Vakcolor,"Professionele Fotoprintservice van hoge kwaliteit voor professionele fotografen in Nederland, België en wereldwijd, waaronder de beroemde trouwalbums.",Zakelijke diensten,http://vakcolor.nl,Zakelijke diensten,Spoorstraat 13,,,6122 CJ,Buchten,Nederland
Best Budget Kantoormeubelen,"Wij zijn een aanbieder van kantoormeubilair binnen Nederland en België gevestigd in Echt (Limburg). Onze medewerkers hebben jarenlange ervaring in de branche van kantoormeubilair waardoor de kwaliteit van onze service en producten optimaal is. Buiten ons assortiment van kantoormeubilair hebben wij verschillende garderobe-, kantine- en magazijn-inrichting artikelen beschikbaar voor onze klanten. Wij vinden het belangrijk dat onze klanten tevreden zijn na een aankoop bij ons. Dit wordt gerealiseerd door sterke service voordelen van Best Budget Kantoormeubelen. Een aantal van deze service voordelen zijn onze snelle levering, drie jaar garantie en gratis levering bij een besteding van hoger dan €450,00. Wij vinden naast onze service voordelen het belangrijk dat wij producten aanbieden die gezond zijn voor onze klanten. Hierdoor is het voor ons van groot belang dat de producten binnen ons assortiment voldoen aan de ergonomische normen voor een gezonde werkomgeving. Dit zorgt ervoor dat onze klanten tevreden zijn en tevreden blijven.",Kantoormeubilair winkel,https://www.bestbudgetkantoormeubelen.nl,Zakelijke diensten,Galvaniweg 2a,info@bestbudgetkantoormeubelen.nl,0475470152,6101XH,Echt,Nederland
Creditsafe Nederland,Creditsafe is de meest gebruikte kredietinformatie leverancier ter wereld. Krijg gemakkelijk en snel online toegang tot 365 miljoen bedrijfs- en kredietrapporten in meer dan 165 landen.,Business to Business-service,https://www.creditsafe.com/nl/nl.html,Zakelijke diensten,Jan Pietersz. Coenstraat 10,info@creditsafe.nl,070-38 44 600,2595 WP,Den Haag,Nederland
"PIM Print, Drukwerk en Media Specials",Gespecialiseerd bedrijf voor bijzondere communicatie uitingen / panelen / stickers / beurswanden / levensgrote poppen / displays / gepersonaliseerde flyers / afwijkend formaat visitekaartjes,Prints en uithangbordenwinkel,http://www.pimprint.nl,Zakelijke diensten,Langeweg 8,info@pimprint.nl,+31 713316967,2371 EG,Roelofarendsveen,Nederland
Zolemba NL,"Zolemba is gericht op de productie en verkoop van onbedrukte en bedrukte labels, etiketten en stickers. Het bedrijf is gelegen in Nederland en ontstaan in juni 2017 uit een fusie van Labeldiscounter (onbedrukte labels) en EtiketXL (bedrukte labels). 
Zolemba biedt onbedrukte labels aan die van toepassing zijn op de bekende merken labelprinters Dymo, Brother, Zebra, Star en Seiko. Daarnaast biedt Zolemba ook bedrukte labels aan die volledig zijn afgestemd op het ontwerp van de klant. Op Zolemba.nl vindt je overzichtelijk een ruim assortiment labels, etiketten, stickers en printers voor de beste prijzen. De lage prijzen zijn te danken aan onze eigen productie van compatible labels, soepele logistieke processen, het unieke bestandscontrolesysteem en de meest innovatieve drukmachines.",Prints en uithangbordenwinkel,https://www.zolemba.nl/nl,Zakelijke diensten,Nijverheidsstraat 16,service@zolemba.nl,+31 (0)537370160,7482 GZ,Haaksbergen,Nederland
TEZET Season & Business Gifts,"Bij Tezet - The Surprise Company vindt u een uiteenlopend assortiment van unieke personeelsgeschenken en bedrijfsgeschenken voor ieder seizoen. Zoekt u bijvoorbeeld pakketten voor uw werknemers of geschenken voor uw relaties tijdens Kerst? Bekijk dan al onze kerstgeschenken. Of wilt u uw personeel op een onverwachte manier nét dat extraatje bieden dat ze verdienen? Verras hem of haar dan tijdens Pasen, Sinterklaas, de Zomer of een andere speciale dag of feestdag met uniek geschenk. Ook voor talloze relatiegeschenken kunt u bij ons terecht.",Snoepwinkel,http://www.tezet.nl,Zakelijke diensten,Lithograaf 39,info@tezet.nl,0316 282831,6921 VA,DUIVEN,Nederland
Kris-Kras Delivery,"<p><a title=""Kris-Kras Video"" href=""https://kris-kras.eu/wp-content/uploads/KRIS-KRAS_FINAL_GRADED-2-1.mp4"" target=""_blank""><img src=""https://i.postimg.cc/MT17V3Pn/Ontwerp-zonder-titel-10.jpg"" alt=""Kris-Kras Platy"" width=""320"" height=""180"" /></a></p>
<p>Kris-Kras is een bezorgdienst die voortkomt uit de visie dat een shopervaring niet stopt op het moment dat je iets online bestelt. De bezorging is de laatste fase in het aankoopproces, waarbij een cruciale indruk wordt achtergelaten.</p>
<p>Met professionaliteit en exclusieve servicegerichtheid tillen we bezorgservice naar een hoger niveau. Het is onze missie om een blijvende indruk te maken en de verwachtingen van klanten te overtreffen. Onze service is een verlengstuk van de merken waarvoor we bezorgen. Zo dragen we bij aan een goed imago.</p>",Bezorgdienst,http://kris-kras.eu,Zakelijke diensten,"Ellen Pankhurststraat, 21",klantenservice@kris-kras.eu,020 341 2623,5032 MD,Tilburg,Nederland
Goedkoopprinten,"Op zoek naar goede kwaliteit maar goedkope cartridges of toners? Dan bent u bij ons op het goede adres! Goedkoopprinten.nl is een solide, no-nonsense en professionele webshop voor het verkopen van huismerk (compatible) inkt cartridges, toners, drums en papier te gebruiken voor Inkjet en Laser printers. Al meer dan 10 jaar zijn wij een betrouwbare partner op het gebied van printer supplies. Doordat wij 13 jaar lege cartridges hebben ingezameld hebben wij de kanalen om de meest betrouwbare en hoogwaardige producten in te kopen. Dit geeft u de zekerheid dat u een uitstekend prijs/kwaliteitsproduct bij ons kan kopen!",Tonerleverancier,https://www.goedkoopprinten.nl,Zakelijke diensten,Neutronenlaan 28,klantenservice@goedkoopprinten.nl,+31 (0)413-235999,5405 NH,Uden,
IGO Promo,"IGO Promo is een internationale speler en al 70 jaar marktleider op het gebied van bedrukte relatiegeschenken en promotieartikelen. Alles voor het onderhouden, werven of belonen van relaties. Voor iedere gelegenheid leveren wij het juiste bedrukte geschenk, altijd met blijvende impact. Ervaar ‘The Experience of Giving!’ de basis voor het bouwen en versterken van relaties.",Promotieartikelenwinkel,https://www.igopromo.nl,Zakelijke diensten,Haverdijk 5,sales@igopromo.nl,+31 (0) 492 530 122,5704 RC,Helmond,
Enveloppenland.nl,"Bij Enveloppenland.nl kunt u snel, overzichtelijk en eenvoudig uw enveloppen bestellen. Naast een zeer uitgebreid gekleurd assortiment enveloppen en zakelijke enveloppen hebben wij ook een groot assortiment verzendverpakkingen.",Kantoorbenodigdheden winkel,http://www.enveloppenland.nl,Zakelijke diensten,Postbus 9200,info@enveloppenland.nl,+31 (0)10 49 707 77,3007 AE,Rotterdam,Nederland
Verfwebwinkel.nl,"Online verf kopen? Dat is tot 40% voordeliger dan in de winkel. Online verf kopen met advies en tips van echte verfexperts. Online verf kopen doe je bij Verfwebwinkel.nl, de grootste verfwinkel van Nederland.",E-commerceservice,https://wwwverfwebwinkel.nl,Zakelijke diensten,Spoorstraat 19,info@verfwebwinkel.nl,0854834100,4702 VV,Roosendaal,Nederland
Belsimpel,"Bij Belsimpel heb je keuze uit alle telefoons en alle providers. Met de Belsimpel Methode kun je makkelijk vergelijken en vind je altijd wat écht bij jou past. Via de website of met de app.<br><br>
Iedereen kan verlengen of overstappen via Belsimpel. Onderteken je contract met slechts een paar kliks en behoud je eigen nummer.<br><br> 
Betaal nooit te veel met de Beste Prijsgarantie. Al 1 miljoen klanten gingen je voor.<br><br>
Kom langs in onze winkels! Je vindt ons in Amsterdam, Rotterdam, Den Haag, Utrecht, Groningen, Tilburg en Zwolle.<br><br>
Heb je vragen of hulp nodig? Onze klantenservice is elke dag bereikbaar van 9.00 tot 23.30 uur. We helpen je graag!",Mobiele telefoon winkel,https://www.belsimpel.nl,Zakelijke diensten,Waagstraat 1,info@belsimpel.nl,050 210 34 04,9712JX,Groningen,Nederland
Mymepal,"MyMepal is uitgegroeid tot een internationale webshop met een uitgebreid Mepal assortiment en de nieuwste bedrukkingstechnieken. Je kunt op de MyMepal site niet alleen je eigen Mepal lunchbox, schoolbeker en diverse drink- en waterflessen samenstellen qua kleur en bedrukking, maar ook thermomokken, lunchpots, theedozen en kraamcadeaus personaliseren.",Labelprinter,http://mymepal.com,Zakelijke diensten,Nijverheidsweg Noord 130-19,contact@mymepal.com,+31 33 448 1097,3812 PN,Amersfoort,Nederland
Scalebranding,"We are an online platform where ready made (premade) logos can be purchased and sold. All of our logos are published by handpicked, trusted designers from all around the world and can only be purchased one single time. Once a logo is sold, it's gone forever!",Grafisch ontwerp,https://scalebranding.com,Zakelijke diensten,,store@scalebranding.com,,,,Nederland
RobinZon Panelen B.V.,Zonne-energie van advies tot installatie,Elektrische apparatuur groothandel,http://robinzonpanelen.nl,Zakelijke diensten,Scheepswerf 13,info@robinzonpanelen.nl,035 785 0681,1271gb,Huizen,Nederland
homeworktime professional organizing,professional organizer en uitgever van de homeworktime familie-agenda,Professioneel organizer,https://homeworktime.nl,Zakelijke diensten,,info@homeworktime.nl,0031645620909,,Huizen,Nederland
DRS Belettering / Bedrijfskleding,"DRS Belettering is een bedrijf uit Tiel wat alles kan maken op het gebied van reclame, belettering, groot formaat full-color, banners en alle uiteenlopende signing onderdelen. Ook zijn wij sterk in het verkopen van bedrijfskleding en het bedrukken/borduren daarvan.",Prints en uithangbordenwinkel,http://www.drsbelettering.nl,Zakelijke diensten,Vijverlaan 1,info@drsbelettering.nl,0344661852,4005 HA,Tiel,Nederland
Spandoekabraham.nl,"Wij ontwerpen op basis van de door jou aangeleverde foto’s en tekst een geweldig spandoek! Dit spandoek is een leuk cadeau om te geven, en om te krijgen! Een spandoek voor een Sarah, Abraham, 25 jarige of andere gelegenheid.",Spandoekenwinkel,https://www.spandoekabraham.nl,Zakelijke diensten,www.spandoekabraham.nl,info@spandoekabraham.nl,Whatsapp: 0612301518,7641 BB,Wierden,Nederland
LekkagePartner Lekdetectie,"LekkagePartner is een landelijk opererend bedrijf, gespecialiseerd in het opsporen van lekkages en het voorkomen van water en vocht gerelateerde problemen.",Zakelijke diensten,https://www.lekkagepartner.nl,Zakelijke diensten,Plotterweg 31,info@lekkagepartner.nl,085 401 3570,3821 BB,Amersfoort,Nederland
Bijeva & cardsbyeva,"- Eigen label postcards, canvas tassen, stickers & posters
- Webshop met woonaccessoires & lifestyle producten
- Grafisch ontwerp voor zakelijke en particuliere klanten",Prints en uithangbordenwinkel,http://shopbijeva.nl,Zakelijke diensten,Bataviastraat 83,info@shopbijeva.nl,0624414010,3531 XC,Utrecht ,Nederland
123drukken,"123drukken.nl is uw professionele online drukker met 100% service.
Met meer dan 35 jaar ervaring en de meest geavanceerde apparatuur, kunnen wij u 
verzekeren dat u de beste kwaliteit drukwerk geleverd krijgt tegen een scherpe prijs.",Prints en uithangbordenwinkel,https://www.123drukken.nl/,Zakelijke diensten,Postbus 9200,info@123drukken.nl,088 - 04 05 100,3007 AE,Rotterdam,Nederland
Eankoning.nl,EANKoning.nl is de grootste en betrouwbaarste in het leveren van EAN codes zonder jaarlijkse abonnementskosten in Nederland.,Kantoorbenodigdheden winkel,http://www.eankoning.nl,Zakelijke diensten,,info@eankoning.nl,,,,Nederland
Regeljelease.nl,"Regeljelease de online auto lease aanbieder!

Op regeljelease.nl vind je de ideale auto om zakelijk te leasen. Met onze grote voorraad jong gebruikte auto's en motoren weten wij zeker dat je goed voor de dag komt op al jouw zakelijke afspraken. Dankzij onze sterke positie binnen de markt weet je binnen 15 minuten of jouw aanvraag wordt goedgekeurd. Weet je nog niet precies welke auto je wilt? Ons team van professionals helpt jou graag verder.",Autoleasebedrijf,http://regeljelease.nl,Zakelijke diensten, A. Boumaboulevard 91  ,info@regeljelease.nl, 0857606 009,9723 ZS,Groningen,Nederland
Employes,Employes zorgt ervoor dat je salarisadministratie perfect geregeld is. Onze software biedt je als ondernemer de mogelijkheid om alle gegevens omtrent salarisadministratie makkelijk en snel online in te voeren.,Softwarebedrijf,https://employes.nl,Zakelijke diensten,Burgerweeshuispad 101,info@employes.nl,020-8085481,1076ER,Amsterdam,Nederland
PC Spoed Service,PC hulp aan huis Amersfoort ✓ Meer dan 10 jaar ervaring ✓ Passende oplossingen ✓ Bekabeling ✓ Internet aansluiten ✓ Smartphone reparatie,Computerreparatie,https://www.pcspoedservice.nl,Zakelijke diensten,Xenonweg 13,info@pcspoedservice.nl,0334758202,3812SZ,Amersfoort,Nederland
Tapijttegeldiscount,"TapijtTegelDiscount, onderdeel van VloerenCentrale, was voorheen bekend als TapijtTegelCentrale B.V. Zo’n 35 jaar geleden startten we met de verkoop van alleen tapijttegels in Breda. Inmiddels is VloerenCentrale uitgegroeid tot een gerenommeerde totaalleverancier van vloeren in Breda en omgeving.

In onze webshop vindt u een select aanbod van tapijttegels, waterbestendige vloertegels en partijgoed. Alle tegels zijn zorgvuldig geselecteerd, gelijk in kleur (m.u.v. BoogieWoogie) en maatvast. Behalve outletprijzen, garanderen wij korte levertijden. Onze webshopvloeren zijn direct uit voorraad leverbaar.

Wilt u onze uitgebreide vloeren en of tapijttegel collectie graag komen bekijken? U bent van harte welkom in onze showroom en magazijn van ruim 2.500m²!",Vloerenlegger,http://www.tapijttegeldiscount.nl,Zakelijke diensten,Takkebijsters 70,info@tapijttegeldiscount.nl,076-5220686,4817 BL,BREDA,Nederland
Stuntvlaggen,"De goedkope vlaggen van Stuntvlaggen hebben alles wat u van een vlag mag verwachten. Onze vakmensen kunnen uw vlaggen in ieder formaat en uitvoering maken, in kleine of grote oplagen, van scheepsvlaggen tot bedrijfsvlaggen of speciale schuine gevelvlaggen. Ook een maatwerk vlag is mogelijk. Met meer dan 10 jaar ervaring is geen vlaggenopdracht ons te gek!",Promotieartikelenwinkel,http://stuntvlaggen.nl,Zakelijke diensten,Veersteeg 2,info@stuntvlaggen.nl,0183 820 384,4212 LR,Spijk,Nederland
